<?xml version="1.0" encoding="UTF-8"?>
<gpx version="1.1" creator="sobrevoo-samples" xmlns="http://www.topografix.com/GPX/1/1">
<trk><name>antimeridiano.gpx</name><trkseg>
<trkpt lat="-16.5000000" lon="179.9300000"><ele>81.1</ele><time>2026-05-01T08:00:00Z</time></trkpt>
<trkpt lat="-16.5000000" lon="179.9304690"><ele>81.1</ele><time>2026-05-01T08:00:10Z</time></trkpt>
<trkpt lat="-16.5000000" lon="179.9309379"><ele>81.1</ele><time>2026-05-01T08:00:20Z</time></trkpt>
<trkpt lat="-16.5000000" lon="179.9314069"><ele>81.1</ele><time>2026-05-01T08:00:30Z</time></trkpt>
<trkpt lat="-16.5000000" lon="179.9318759"><ele>81.1</ele><time>2026-05-01T08:00:40Z</time></trkpt>
<trkpt lat="-16.5000000" lon="179.9323449"><ele>81.1</ele><time>2026-05-01T08:00:50Z</time></trkpt>
<trkpt lat="-16.5000000" lon="179.9328138"><ele>81.1</ele><time>2026-05-01T08:01:00Z</time></trkpt>
<trkpt lat="-16.5000000" lon="179.9332828"><ele>81.1</ele><time>2026-05-01T08:01:10Z</time></trkpt>
<trkpt lat="-16.5000000" lon="179.9337518"><ele>81.1</ele><time>2026-05-01T08:01:20Z</time></trkpt>
<trkpt lat="-16.5000000" lon="179.9342208"><ele>81.1</ele><time>2026-05-01T08:01:30Z</time></trkpt>
<trkpt lat="-16.5000000" lon="179.9346897"><ele>81.1</ele><time>2026-05-01T08:01:40Z</time></trkpt>
<trkpt lat="-16.5000000" lon="179.9351587"><ele>81.1</ele><time>2026-05-01T08:01:50Z</time></trkpt>
<trkpt lat="-16.5000000" lon="179.9356277"><ele>81.1</ele><time>2026-05-01T08:02:00Z</time></trkpt>
<trkpt lat="-16.5000000" lon="179.9360967"><ele>81.1</ele><time>2026-05-01T08:02:10Z</time></trkpt>
<trkpt lat="-16.5000000" lon="179.9365656"><ele>81.1</ele><time>2026-05-01T08:02:20Z</time></trkpt>
<trkpt lat="-16.5000000" lon="179.9370346"><ele>81.1</ele><time>2026-05-01T08:02:30Z</time></trkpt>
<trkpt lat="-16.5000000" lon="179.9375036"><ele>81.1</ele><time>2026-05-01T08:02:40Z</time></trkpt>
<trkpt lat="-16.5000000" lon="179.9379725"><ele>81.1</ele><time>2026-05-01T08:02:50Z</time></trkpt>
<trkpt lat="-16.5000000" lon="179.9384415"><ele>81.1</ele><time>2026-05-01T08:03:00Z</time></trkpt>
<trkpt lat="-16.5000000" lon="179.9389105"><ele>81.1</ele><time>2026-05-01T08:03:10Z</time></trkpt>
<trkpt lat="-16.5000000" lon="179.9393795"><ele>81.1</ele><time>2026-05-01T08:03:20Z</time></trkpt>
<trkpt lat="-16.5000000" lon="179.9398484"><ele>81.1</ele><time>2026-05-01T08:03:30Z</time></trkpt>
<trkpt lat="-16.5000000" lon="179.9403174"><ele>81.1</ele><time>2026-05-01T08:03:40Z</time></trkpt>
<trkpt lat="-16.5000000" lon="179.9407864"><ele>81.1</ele><time>2026-05-01T08:03:50Z</time></trkpt>
<trkpt lat="-16.5000000" lon="179.9412554"><ele>81.1</ele><time>2026-05-01T08:04:00Z</time></trkpt>
<trkpt lat="-16.5000000" lon="179.9417243"><ele>81.1</ele><time>2026-05-01T08:04:10Z</time></trkpt>
<trkpt lat="-16.5000000" lon="179.9421933"><ele>81.1</ele><time>2026-05-01T08:04:20Z</time></trkpt>
<trkpt lat="-16.5000000" lon="179.9426623"><ele>81.1</ele><time>2026-05-01T08:04:30Z</time></trkpt>
<trkpt lat="-16.5000000" lon="179.9431313"><ele>81.1</ele><time>2026-05-01T08:04:40Z</time></trkpt>
<trkpt lat="-16.5000000" lon="179.9436002"><ele>81.1</ele><time>2026-05-01T08:04:50Z</time></trkpt>
<trkpt lat="-16.5000000" lon="179.9440692"><ele>81.1</ele><time>2026-05-01T08:05:00Z</time></trkpt>
<trkpt lat="-16.5000000" lon="179.9445382"><ele>81.1</ele><time>2026-05-01T08:05:10Z</time></trkpt>
<trkpt lat="-16.5000000" lon="179.9450071"><ele>81.1</ele><time>2026-05-01T08:05:20Z</time></trkpt>
<trkpt lat="-16.5000000" lon="179.9454761"><ele>81.1</ele><time>2026-05-01T08:05:30Z</time></trkpt>
<trkpt lat="-16.5000000" lon="179.9459451"><ele>81.1</ele><time>2026-05-01T08:05:40Z</time></trkpt>
<trkpt lat="-16.5000000" lon="179.9464141"><ele>81.1</ele><time>2026-05-01T08:05:50Z</time></trkpt>
<trkpt lat="-16.5000000" lon="179.9468830"><ele>81.1</ele><time>2026-05-01T08:06:00Z</time></trkpt>
<trkpt lat="-16.5000000" lon="179.9473520"><ele>81.1</ele><time>2026-05-01T08:06:10Z</time></trkpt>
<trkpt lat="-16.5000000" lon="179.9478210"><ele>81.1</ele><time>2026-05-01T08:06:20Z</time></trkpt>
<trkpt lat="-16.5000000" lon="179.9482900"><ele>81.1</ele><time>2026-05-01T08:06:30Z</time></trkpt>
<trkpt lat="-16.5000000" lon="179.9487589"><ele>81.1</ele><time>2026-05-01T08:06:40Z</time></trkpt>
<trkpt lat="-16.5000000" lon="179.9492279"><ele>81.1</ele><time>2026-05-01T08:06:50Z</time></trkpt>
<trkpt lat="-16.5000000" lon="179.9496969"><ele>81.1</ele><time>2026-05-01T08:07:00Z</time></trkpt>
<trkpt lat="-16.5000000" lon="179.9501658"><ele>81.1</ele><time>2026-05-01T08:07:10Z</time></trkpt>
<trkpt lat="-16.5000000" lon="179.9506348"><ele>81.1</ele><time>2026-05-01T08:07:20Z</time></trkpt>
<trkpt lat="-16.5000000" lon="179.9511038"><ele>81.1</ele><time>2026-05-01T08:07:30Z</time></trkpt>
<trkpt lat="-16.5000000" lon="179.9515728"><ele>81.1</ele><time>2026-05-01T08:07:40Z</time></trkpt>
<trkpt lat="-16.5000000" lon="179.9520417"><ele>81.1</ele><time>2026-05-01T08:07:50Z</time></trkpt>
<trkpt lat="-16.5000000" lon="179.9525107"><ele>81.1</ele><time>2026-05-01T08:08:00Z</time></trkpt>
<trkpt lat="-16.5000000" lon="179.9529797"><ele>81.1</ele><time>2026-05-01T08:08:10Z</time></trkpt>
<trkpt lat="-16.5000000" lon="179.9534487"><ele>81.1</ele><time>2026-05-01T08:08:20Z</time></trkpt>
<trkpt lat="-16.5000000" lon="179.9539176"><ele>81.1</ele><time>2026-05-01T08:08:30Z</time></trkpt>
<trkpt lat="-16.5000000" lon="179.9543866"><ele>81.1</ele><time>2026-05-01T08:08:40Z</time></trkpt>
<trkpt lat="-16.5000000" lon="179.9548556"><ele>81.1</ele><time>2026-05-01T08:08:50Z</time></trkpt>
<trkpt lat="-16.5000000" lon="179.9553246"><ele>81.1</ele><time>2026-05-01T08:09:00Z</time></trkpt>
<trkpt lat="-16.5000000" lon="179.9557935"><ele>81.1</ele><time>2026-05-01T08:09:10Z</time></trkpt>
<trkpt lat="-16.5000000" lon="179.9562625"><ele>81.1</ele><time>2026-05-01T08:09:20Z</time></trkpt>
<trkpt lat="-16.5000000" lon="179.9567315"><ele>81.1</ele><time>2026-05-01T08:09:30Z</time></trkpt>
<trkpt lat="-16.5000000" lon="179.9572004"><ele>81.1</ele><time>2026-05-01T08:09:40Z</time></trkpt>
<trkpt lat="-16.5000000" lon="179.9576694"><ele>81.1</ele><time>2026-05-01T08:09:50Z</time></trkpt>
<trkpt lat="-16.5000000" lon="179.9581384"><ele>81.1</ele><time>2026-05-01T08:10:00Z</time></trkpt>
<trkpt lat="-16.5000000" lon="179.9586074"><ele>81.1</ele><time>2026-05-01T08:10:10Z</time></trkpt>
<trkpt lat="-16.5000000" lon="179.9590763"><ele>81.1</ele><time>2026-05-01T08:10:20Z</time></trkpt>
<trkpt lat="-16.5000000" lon="179.9595453"><ele>81.1</ele><time>2026-05-01T08:10:30Z</time></trkpt>
<trkpt lat="-16.5000000" lon="179.9600143"><ele>81.1</ele><time>2026-05-01T08:10:40Z</time></trkpt>
<trkpt lat="-16.5000000" lon="179.9604833"><ele>81.1</ele><time>2026-05-01T08:10:50Z</time></trkpt>
<trkpt lat="-16.5000000" lon="179.9609522"><ele>81.1</ele><time>2026-05-01T08:11:00Z</time></trkpt>
<trkpt lat="-16.5000000" lon="179.9614212"><ele>81.1</ele><time>2026-05-01T08:11:10Z</time></trkpt>
<trkpt lat="-16.5000000" lon="179.9618902"><ele>81.1</ele><time>2026-05-01T08:11:20Z</time></trkpt>
<trkpt lat="-16.5000000" lon="179.9623592"><ele>81.1</ele><time>2026-05-01T08:11:30Z</time></trkpt>
<trkpt lat="-16.5000000" lon="179.9628281"><ele>81.1</ele><time>2026-05-01T08:11:40Z</time></trkpt>
<trkpt lat="-16.5000000" lon="179.9632971"><ele>81.1</ele><time>2026-05-01T08:11:50Z</time></trkpt>
<trkpt lat="-16.5000000" lon="179.9637661"><ele>81.1</ele><time>2026-05-01T08:12:00Z</time></trkpt>
<trkpt lat="-16.5000000" lon="179.9642350"><ele>81.1</ele><time>2026-05-01T08:12:10Z</time></trkpt>
<trkpt lat="-16.5000000" lon="179.9647040"><ele>81.1</ele><time>2026-05-01T08:12:20Z</time></trkpt>
<trkpt lat="-16.5000000" lon="179.9651730"><ele>81.1</ele><time>2026-05-01T08:12:30Z</time></trkpt>
<trkpt lat="-16.5000000" lon="179.9656420"><ele>81.1</ele><time>2026-05-01T08:12:40Z</time></trkpt>
<trkpt lat="-16.5000000" lon="179.9661109"><ele>81.1</ele><time>2026-05-01T08:12:50Z</time></trkpt>
<trkpt lat="-16.5000000" lon="179.9665799"><ele>81.1</ele><time>2026-05-01T08:13:00Z</time></trkpt>
<trkpt lat="-16.5000000" lon="179.9670489"><ele>81.1</ele><time>2026-05-01T08:13:10Z</time></trkpt>
<trkpt lat="-16.5000000" lon="179.9675179"><ele>81.1</ele><time>2026-05-01T08:13:20Z</time></trkpt>
<trkpt lat="-16.5000000" lon="179.9679868"><ele>81.1</ele><time>2026-05-01T08:13:30Z</time></trkpt>
<trkpt lat="-16.5000000" lon="179.9684558"><ele>81.1</ele><time>2026-05-01T08:13:40Z</time></trkpt>
<trkpt lat="-16.5000000" lon="179.9689248"><ele>81.1</ele><time>2026-05-01T08:13:50Z</time></trkpt>
<trkpt lat="-16.5000000" lon="179.9693938"><ele>81.1</ele><time>2026-05-01T08:14:00Z</time></trkpt>
<trkpt lat="-16.5000000" lon="179.9698627"><ele>81.1</ele><time>2026-05-01T08:14:10Z</time></trkpt>
<trkpt lat="-16.5000000" lon="179.9703317"><ele>81.1</ele><time>2026-05-01T08:14:20Z</time></trkpt>
<trkpt lat="-16.5000000" lon="179.9708007"><ele>81.1</ele><time>2026-05-01T08:14:30Z</time></trkpt>
<trkpt lat="-16.5000000" lon="179.9712696"><ele>81.1</ele><time>2026-05-01T08:14:40Z</time></trkpt>
<trkpt lat="-16.5000000" lon="179.9717386"><ele>81.1</ele><time>2026-05-01T08:14:50Z</time></trkpt>
<trkpt lat="-16.5000000" lon="179.9722076"><ele>81.1</ele><time>2026-05-01T08:15:00Z</time></trkpt>
<trkpt lat="-16.5000000" lon="179.9726766"><ele>81.1</ele><time>2026-05-01T08:15:10Z</time></trkpt>
<trkpt lat="-16.5000000" lon="179.9731455"><ele>81.1</ele><time>2026-05-01T08:15:20Z</time></trkpt>
<trkpt lat="-16.5000000" lon="179.9736145"><ele>81.1</ele><time>2026-05-01T08:15:30Z</time></trkpt>
<trkpt lat="-16.5000000" lon="179.9740835"><ele>81.1</ele><time>2026-05-01T08:15:40Z</time></trkpt>
<trkpt lat="-16.5000000" lon="179.9745525"><ele>81.1</ele><time>2026-05-01T08:15:50Z</time></trkpt>
<trkpt lat="-16.4999999" lon="179.9750214"><ele>81.1</ele><time>2026-05-01T08:16:00Z</time></trkpt>
<trkpt lat="-16.4999999" lon="179.9754904"><ele>81.1</ele><time>2026-05-01T08:16:10Z</time></trkpt>
<trkpt lat="-16.4999999" lon="179.9759594"><ele>81.1</ele><time>2026-05-01T08:16:20Z</time></trkpt>
<trkpt lat="-16.4999999" lon="179.9764284"><ele>81.1</ele><time>2026-05-01T08:16:30Z</time></trkpt>
<trkpt lat="-16.4999999" lon="179.9768973"><ele>81.1</ele><time>2026-05-01T08:16:40Z</time></trkpt>
<trkpt lat="-16.4999999" lon="179.9773663"><ele>81.1</ele><time>2026-05-01T08:16:50Z</time></trkpt>
<trkpt lat="-16.4999999" lon="179.9778353"><ele>81.1</ele><time>2026-05-01T08:17:00Z</time></trkpt>
<trkpt lat="-16.4999999" lon="179.9783042"><ele>81.1</ele><time>2026-05-01T08:17:10Z</time></trkpt>
<trkpt lat="-16.4999999" lon="179.9787732"><ele>81.1</ele><time>2026-05-01T08:17:20Z</time></trkpt>
<trkpt lat="-16.4999999" lon="179.9792422"><ele>81.1</ele><time>2026-05-01T08:17:30Z</time></trkpt>
<trkpt lat="-16.4999999" lon="179.9797112"><ele>81.1</ele><time>2026-05-01T08:17:40Z</time></trkpt>
<trkpt lat="-16.4999999" lon="179.9801801"><ele>81.1</ele><time>2026-05-01T08:17:50Z</time></trkpt>
<trkpt lat="-16.4999999" lon="179.9806491"><ele>81.1</ele><time>2026-05-01T08:18:00Z</time></trkpt>
<trkpt lat="-16.4999999" lon="179.9811181"><ele>81.1</ele><time>2026-05-01T08:18:10Z</time></trkpt>
<trkpt lat="-16.4999999" lon="179.9815871"><ele>81.1</ele><time>2026-05-01T08:18:20Z</time></trkpt>
<trkpt lat="-16.4999999" lon="179.9820560"><ele>81.1</ele><time>2026-05-01T08:18:30Z</time></trkpt>
<trkpt lat="-16.4999999" lon="179.9825250"><ele>81.1</ele><time>2026-05-01T08:18:40Z</time></trkpt>
<trkpt lat="-16.4999999" lon="179.9829940"><ele>81.1</ele><time>2026-05-01T08:18:50Z</time></trkpt>
<trkpt lat="-16.4999999" lon="179.9834629"><ele>81.1</ele><time>2026-05-01T08:19:00Z</time></trkpt>
<trkpt lat="-16.4999999" lon="179.9839319"><ele>81.1</ele><time>2026-05-01T08:19:10Z</time></trkpt>
<trkpt lat="-16.4999999" lon="179.9844009"><ele>81.1</ele><time>2026-05-01T08:19:20Z</time></trkpt>
<trkpt lat="-16.4999999" lon="179.9848699"><ele>81.1</ele><time>2026-05-01T08:19:30Z</time></trkpt>
<trkpt lat="-16.4999999" lon="179.9853388"><ele>81.1</ele><time>2026-05-01T08:19:40Z</time></trkpt>
<trkpt lat="-16.4999999" lon="179.9858078"><ele>81.1</ele><time>2026-05-01T08:19:50Z</time></trkpt>
<trkpt lat="-16.4999999" lon="179.9862768"><ele>81.1</ele><time>2026-05-01T08:20:00Z</time></trkpt>
<trkpt lat="-16.4999999" lon="179.9867458"><ele>81.1</ele><time>2026-05-01T08:20:10Z</time></trkpt>
<trkpt lat="-16.4999999" lon="179.9872147"><ele>81.1</ele><time>2026-05-01T08:20:20Z</time></trkpt>
<trkpt lat="-16.4999999" lon="179.9876837"><ele>81.1</ele><time>2026-05-01T08:20:30Z</time></trkpt>
<trkpt lat="-16.4999999" lon="179.9881527"><ele>81.1</ele><time>2026-05-01T08:20:40Z</time></trkpt>
<trkpt lat="-16.4999999" lon="179.9886217"><ele>81.1</ele><time>2026-05-01T08:20:50Z</time></trkpt>
<trkpt lat="-16.4999999" lon="179.9890906"><ele>81.1</ele><time>2026-05-01T08:21:00Z</time></trkpt>
<trkpt lat="-16.4999999" lon="179.9895596"><ele>81.1</ele><time>2026-05-01T08:21:10Z</time></trkpt>
<trkpt lat="-16.4999999" lon="179.9900286"><ele>81.1</ele><time>2026-05-01T08:21:20Z</time></trkpt>
<trkpt lat="-16.4999999" lon="179.9904975"><ele>81.1</ele><time>2026-05-01T08:21:30Z</time></trkpt>
<trkpt lat="-16.4999999" lon="179.9909665"><ele>81.1</ele><time>2026-05-01T08:21:40Z</time></trkpt>
<trkpt lat="-16.4999999" lon="179.9914355"><ele>81.1</ele><time>2026-05-01T08:21:50Z</time></trkpt>
<trkpt lat="-16.4999999" lon="179.9919045"><ele>81.1</ele><time>2026-05-01T08:22:00Z</time></trkpt>
<trkpt lat="-16.4999999" lon="179.9923734"><ele>81.1</ele><time>2026-05-01T08:22:10Z</time></trkpt>
<trkpt lat="-16.4999999" lon="179.9928424"><ele>81.1</ele><time>2026-05-01T08:22:20Z</time></trkpt>
<trkpt lat="-16.4999999" lon="179.9933114"><ele>81.1</ele><time>2026-05-01T08:22:30Z</time></trkpt>
<trkpt lat="-16.4999999" lon="179.9937804"><ele>81.1</ele><time>2026-05-01T08:22:40Z</time></trkpt>
<trkpt lat="-16.4999999" lon="179.9942493"><ele>81.1</ele><time>2026-05-01T08:22:50Z</time></trkpt>
<trkpt lat="-16.4999999" lon="179.9947183"><ele>81.1</ele><time>2026-05-01T08:23:00Z</time></trkpt>
<trkpt lat="-16.4999999" lon="179.9951873"><ele>81.1</ele><time>2026-05-01T08:23:10Z</time></trkpt>
<trkpt lat="-16.4999999" lon="179.9956563"><ele>81.1</ele><time>2026-05-01T08:23:20Z</time></trkpt>
<trkpt lat="-16.4999999" lon="179.9961252"><ele>81.1</ele><time>2026-05-01T08:23:30Z</time></trkpt>
<trkpt lat="-16.4999999" lon="179.9965942"><ele>81.1</ele><time>2026-05-01T08:23:40Z</time></trkpt>
<trkpt lat="-16.4999999" lon="179.9970632"><ele>81.1</ele><time>2026-05-01T08:23:50Z</time></trkpt>
<trkpt lat="-16.4999999" lon="179.9975321"><ele>81.1</ele><time>2026-05-01T08:24:00Z</time></trkpt>
<trkpt lat="-16.4999999" lon="179.9980011"><ele>81.1</ele><time>2026-05-01T08:24:10Z</time></trkpt>
<trkpt lat="-16.4999999" lon="179.9984701"><ele>81.1</ele><time>2026-05-01T08:24:20Z</time></trkpt>
<trkpt lat="-16.4999999" lon="179.9989391"><ele>81.1</ele><time>2026-05-01T08:24:30Z</time></trkpt>
<trkpt lat="-16.4999999" lon="179.9994080"><ele>81.1</ele><time>2026-05-01T08:24:40Z</time></trkpt>
<trkpt lat="-16.4999999" lon="179.9998770"><ele>81.1</ele><time>2026-05-01T08:24:50Z</time></trkpt>
<trkpt lat="-16.4999999" lon="-179.9996540"><ele>81.1</ele><time>2026-05-01T08:25:00Z</time></trkpt>
<trkpt lat="-16.4999999" lon="-179.9991850"><ele>81.1</ele><time>2026-05-01T08:25:10Z</time></trkpt>
<trkpt lat="-16.4999999" lon="-179.9987161"><ele>81.1</ele><time>2026-05-01T08:25:20Z</time></trkpt>
<trkpt lat="-16.4999999" lon="-179.9982471"><ele>81.1</ele><time>2026-05-01T08:25:30Z</time></trkpt>
<trkpt lat="-16.4999999" lon="-179.9977781"><ele>81.1</ele><time>2026-05-01T08:25:40Z</time></trkpt>
<trkpt lat="-16.4999999" lon="-179.9973091"><ele>81.1</ele><time>2026-05-01T08:25:50Z</time></trkpt>
<trkpt lat="-16.4999999" lon="-179.9968402"><ele>81.1</ele><time>2026-05-01T08:26:00Z</time></trkpt>
<trkpt lat="-16.4999999" lon="-179.9963712"><ele>81.1</ele><time>2026-05-01T08:26:10Z</time></trkpt>
<trkpt lat="-16.4999999" lon="-179.9959022"><ele>81.1</ele><time>2026-05-01T08:26:20Z</time></trkpt>
<trkpt lat="-16.4999999" lon="-179.9954333"><ele>81.1</ele><time>2026-05-01T08:26:30Z</time></trkpt>
<trkpt lat="-16.4999999" lon="-179.9949643"><ele>81.1</ele><time>2026-05-01T08:26:40Z</time></trkpt>
<trkpt lat="-16.4999999" lon="-179.9944953"><ele>81.1</ele><time>2026-05-01T08:26:50Z</time></trkpt>
<trkpt lat="-16.4999999" lon="-179.9940263"><ele>81.1</ele><time>2026-05-01T08:27:00Z</time></trkpt>
<trkpt lat="-16.4999999" lon="-179.9935574"><ele>81.1</ele><time>2026-05-01T08:27:10Z</time></trkpt>
<trkpt lat="-16.4999999" lon="-179.9930884"><ele>81.1</ele><time>2026-05-01T08:27:20Z</time></trkpt>
<trkpt lat="-16.4999999" lon="-179.9926194"><ele>81.1</ele><time>2026-05-01T08:27:30Z</time></trkpt>
<trkpt lat="-16.4999999" lon="-179.9921504"><ele>81.1</ele><time>2026-05-01T08:27:40Z</time></trkpt>
<trkpt lat="-16.4999999" lon="-179.9916815"><ele>81.1</ele><time>2026-05-01T08:27:50Z</time></trkpt>
<trkpt lat="-16.4999999" lon="-179.9912125"><ele>81.1</ele><time>2026-05-01T08:28:00Z</time></trkpt>
<trkpt lat="-16.4999999" lon="-179.9907435"><ele>81.1</ele><time>2026-05-01T08:28:10Z</time></trkpt>
<trkpt lat="-16.4999999" lon="-179.9902745"><ele>81.1</ele><time>2026-05-01T08:28:20Z</time></trkpt>
<trkpt lat="-16.4999999" lon="-179.9898056"><ele>81.1</ele><time>2026-05-01T08:28:30Z</time></trkpt>
<trkpt lat="-16.4999999" lon="-179.9893366"><ele>81.1</ele><time>2026-05-01T08:28:40Z</time></trkpt>
<trkpt lat="-16.4999999" lon="-179.9888676"><ele>81.1</ele><time>2026-05-01T08:28:50Z</time></trkpt>
<trkpt lat="-16.4999999" lon="-179.9883987"><ele>81.1</ele><time>2026-05-01T08:29:00Z</time></trkpt>
<trkpt lat="-16.4999999" lon="-179.9879297"><ele>81.1</ele><time>2026-05-01T08:29:10Z</time></trkpt>
<trkpt lat="-16.4999999" lon="-179.9874607"><ele>81.1</ele><time>2026-05-01T08:29:20Z</time></trkpt>
<trkpt lat="-16.4999999" lon="-179.9869917"><ele>81.1</ele><time>2026-05-01T08:29:30Z</time></trkpt>
<trkpt lat="-16.4999999" lon="-179.9865228"><ele>81.1</ele><time>2026-05-01T08:29:40Z</time></trkpt>
<trkpt lat="-16.4999999" lon="-179.9860538"><ele>81.1</ele><time>2026-05-01T08:29:50Z</time></trkpt>
<trkpt lat="-16.4999999" lon="-179.9855848"><ele>81.1</ele><time>2026-05-01T08:30:00Z</time></trkpt>
<trkpt lat="-16.4999999" lon="-179.9851158"><ele>81.1</ele><time>2026-05-01T08:30:10Z</time></trkpt>
<trkpt lat="-16.4999999" lon="-179.9846469"><ele>81.1</ele><time>2026-05-01T08:30:20Z</time></trkpt>
<trkpt lat="-16.4999999" lon="-179.9841779"><ele>81.1</ele><time>2026-05-01T08:30:30Z</time></trkpt>
<trkpt lat="-16.4999999" lon="-179.9837089"><ele>81.1</ele><time>2026-05-01T08:30:40Z</time></trkpt>
<trkpt lat="-16.4999999" lon="-179.9832399"><ele>81.1</ele><time>2026-05-01T08:30:50Z</time></trkpt>
<trkpt lat="-16.4999999" lon="-179.9827710"><ele>81.1</ele><time>2026-05-01T08:31:00Z</time></trkpt>
<trkpt lat="-16.4999999" lon="-179.9823020"><ele>81.1</ele><time>2026-05-01T08:31:10Z</time></trkpt>
<trkpt lat="-16.4999999" lon="-179.9818330"><ele>81.1</ele><time>2026-05-01T08:31:20Z</time></trkpt>
<trkpt lat="-16.4999999" lon="-179.9813641"><ele>81.1</ele><time>2026-05-01T08:31:30Z</time></trkpt>
<trkpt lat="-16.4999999" lon="-179.9808951"><ele>81.1</ele><time>2026-05-01T08:31:40Z</time></trkpt>
<trkpt lat="-16.4999999" lon="-179.9804261"><ele>81.1</ele><time>2026-05-01T08:31:50Z</time></trkpt>
<trkpt lat="-16.4999999" lon="-179.9799571"><ele>81.1</ele><time>2026-05-01T08:32:00Z</time></trkpt>
<trkpt lat="-16.4999999" lon="-179.9794882"><ele>81.1</ele><time>2026-05-01T08:32:10Z</time></trkpt>
<trkpt lat="-16.4999999" lon="-179.9790192"><ele>81.1</ele><time>2026-05-01T08:32:20Z</time></trkpt>
<trkpt lat="-16.4999999" lon="-179.9785502"><ele>81.1</ele><time>2026-05-01T08:32:30Z</time></trkpt>
<trkpt lat="-16.4999999" lon="-179.9780812"><ele>81.1</ele><time>2026-05-01T08:32:40Z</time></trkpt>
<trkpt lat="-16.4999999" lon="-179.9776123"><ele>81.1</ele><time>2026-05-01T08:32:50Z</time></trkpt>
<trkpt lat="-16.4999999" lon="-179.9771433"><ele>81.1</ele><time>2026-05-01T08:33:00Z</time></trkpt>
<trkpt lat="-16.4999999" lon="-179.9766743"><ele>81.1</ele><time>2026-05-01T08:33:10Z</time></trkpt>
<trkpt lat="-16.4999999" lon="-179.9762054"><ele>81.1</ele><time>2026-05-01T08:33:20Z</time></trkpt>
<trkpt lat="-16.4999999" lon="-179.9757364"><ele>81.1</ele><time>2026-05-01T08:33:30Z</time></trkpt>
<trkpt lat="-16.4999999" lon="-179.9752674"><ele>81.1</ele><time>2026-05-01T08:33:40Z</time></trkpt>
<trkpt lat="-16.4999999" lon="-179.9747984"><ele>81.1</ele><time>2026-05-01T08:33:50Z</time></trkpt>
<trkpt lat="-16.4999999" lon="-179.9743295"><ele>81.1</ele><time>2026-05-01T08:34:00Z</time></trkpt>
<trkpt lat="-16.4999999" lon="-179.9738605"><ele>81.1</ele><time>2026-05-01T08:34:10Z</time></trkpt>
<trkpt lat="-16.4999999" lon="-179.9733915"><ele>81.1</ele><time>2026-05-01T08:34:20Z</time></trkpt>
<trkpt lat="-16.4999999" lon="-179.9729225"><ele>81.1</ele><time>2026-05-01T08:34:30Z</time></trkpt>
<trkpt lat="-16.4999999" lon="-179.9724536"><ele>81.1</ele><time>2026-05-01T08:34:40Z</time></trkpt>
<trkpt lat="-16.4999999" lon="-179.9719846"><ele>81.1</ele><time>2026-05-01T08:34:50Z</time></trkpt>
<trkpt lat="-16.4999999" lon="-179.9715156"><ele>81.1</ele><time>2026-05-01T08:35:00Z</time></trkpt>
<trkpt lat="-16.4999999" lon="-179.9710466"><ele>81.1</ele><time>2026-05-01T08:35:10Z</time></trkpt>
<trkpt lat="-16.4999999" lon="-179.9705777"><ele>81.1</ele><time>2026-05-01T08:35:20Z</time></trkpt>
<trkpt lat="-16.4999999" lon="-179.9701087"><ele>81.1</ele><time>2026-05-01T08:35:30Z</time></trkpt>
<trkpt lat="-16.4999999" lon="-179.9696397"><ele>81.1</ele><time>2026-05-01T08:35:40Z</time></trkpt>
<trkpt lat="-16.4999999" lon="-179.9691708"><ele>81.1</ele><time>2026-05-01T08:35:50Z</time></trkpt>
<trkpt lat="-16.4999999" lon="-179.9687018"><ele>81.1</ele><time>2026-05-01T08:36:00Z</time></trkpt>
<trkpt lat="-16.4999999" lon="-179.9682328"><ele>81.1</ele><time>2026-05-01T08:36:10Z</time></trkpt>
<trkpt lat="-16.4999999" lon="-179.9677638"><ele>81.1</ele><time>2026-05-01T08:36:20Z</time></trkpt>
<trkpt lat="-16.4999999" lon="-179.9672949"><ele>81.1</ele><time>2026-05-01T08:36:30Z</time></trkpt>
<trkpt lat="-16.4999999" lon="-179.9668259"><ele>81.1</ele><time>2026-05-01T08:36:40Z</time></trkpt>
<trkpt lat="-16.4999999" lon="-179.9663569"><ele>81.1</ele><time>2026-05-01T08:36:50Z</time></trkpt>
<trkpt lat="-16.4999999" lon="-179.9658879"><ele>81.1</ele><time>2026-05-01T08:37:00Z</time></trkpt>
<trkpt lat="-16.4999999" lon="-179.9654190"><ele>81.1</ele><time>2026-05-01T08:37:10Z</time></trkpt>
<trkpt lat="-16.4999999" lon="-179.9649500"><ele>81.1</ele><time>2026-05-01T08:37:20Z</time></trkpt>
<trkpt lat="-16.4999999" lon="-179.9644810"><ele>81.1</ele><time>2026-05-01T08:37:30Z</time></trkpt>
<trkpt lat="-16.4999999" lon="-179.9640120"><ele>81.1</ele><time>2026-05-01T08:37:40Z</time></trkpt>
<trkpt lat="-16.4999999" lon="-179.9635431"><ele>81.1</ele><time>2026-05-01T08:37:50Z</time></trkpt>
<trkpt lat="-16.4999999" lon="-179.9630741"><ele>81.1</ele><time>2026-05-01T08:38:00Z</time></trkpt>
<trkpt lat="-16.4999999" lon="-179.9626051"><ele>81.1</ele><time>2026-05-01T08:38:10Z</time></trkpt>
<trkpt lat="-16.4999999" lon="-179.9621362"><ele>81.1</ele><time>2026-05-01T08:38:20Z</time></trkpt>
<trkpt lat="-16.4999999" lon="-179.9616672"><ele>81.1</ele><time>2026-05-01T08:38:30Z</time></trkpt>
<trkpt lat="-16.4999999" lon="-179.9611982"><ele>81.1</ele><time>2026-05-01T08:38:40Z</time></trkpt>
<trkpt lat="-16.4999999" lon="-179.9607292"><ele>81.1</ele><time>2026-05-01T08:38:50Z</time></trkpt>
<trkpt lat="-16.4999999" lon="-179.9602603"><ele>81.1</ele><time>2026-05-01T08:39:00Z</time></trkpt>
<trkpt lat="-16.4999999" lon="-179.9597913"><ele>81.1</ele><time>2026-05-01T08:39:10Z</time></trkpt>
<trkpt lat="-16.4999999" lon="-179.9593223"><ele>81.1</ele><time>2026-05-01T08:39:20Z</time></trkpt>
<trkpt lat="-16.4999999" lon="-179.9588533"><ele>81.1</ele><time>2026-05-01T08:39:30Z</time></trkpt>
<trkpt lat="-16.4999999" lon="-179.9583844"><ele>81.1</ele><time>2026-05-01T08:39:40Z</time></trkpt>
<trkpt lat="-16.4999999" lon="-179.9579154"><ele>81.1</ele><time>2026-05-01T08:39:50Z</time></trkpt>
<trkpt lat="-16.4999999" lon="-179.9574464"><ele>81.1</ele><time>2026-05-01T08:40:00Z</time></trkpt>
<trkpt lat="-16.4999999" lon="-179.9569774"><ele>81.1</ele><time>2026-05-01T08:40:10Z</time></trkpt>
<trkpt lat="-16.4999999" lon="-179.9565085"><ele>81.1</ele><time>2026-05-01T08:40:20Z</time></trkpt>
<trkpt lat="-16.4999999" lon="-179.9560395"><ele>81.1</ele><time>2026-05-01T08:40:30Z</time></trkpt>
<trkpt lat="-16.4999999" lon="-179.9555705"><ele>81.1</ele><time>2026-05-01T08:40:40Z</time></trkpt>
<trkpt lat="-16.4999999" lon="-179.9551016"><ele>81.1</ele><time>2026-05-01T08:40:50Z</time></trkpt>
<trkpt lat="-16.4999999" lon="-179.9546326"><ele>81.1</ele><time>2026-05-01T08:41:00Z</time></trkpt>
<trkpt lat="-16.4999999" lon="-179.9541636"><ele>81.1</ele><time>2026-05-01T08:41:10Z</time></trkpt>
<trkpt lat="-16.4999999" lon="-179.9536946"><ele>81.1</ele><time>2026-05-01T08:41:20Z</time></trkpt>
<trkpt lat="-16.4999999" lon="-179.9532257"><ele>81.1</ele><time>2026-05-01T08:41:30Z</time></trkpt>
<trkpt lat="-16.4999999" lon="-179.9527567"><ele>81.1</ele><time>2026-05-01T08:41:40Z</time></trkpt>
<trkpt lat="-16.4999999" lon="-179.9522877"><ele>81.1</ele><time>2026-05-01T08:41:50Z</time></trkpt>
<trkpt lat="-16.4999999" lon="-179.9518187"><ele>81.1</ele><time>2026-05-01T08:42:00Z</time></trkpt>
<trkpt lat="-16.4999999" lon="-179.9513498"><ele>81.1</ele><time>2026-05-01T08:42:10Z</time></trkpt>
<trkpt lat="-16.4999999" lon="-179.9508808"><ele>81.1</ele><time>2026-05-01T08:42:20Z</time></trkpt>
<trkpt lat="-16.4999999" lon="-179.9504118"><ele>81.1</ele><time>2026-05-01T08:42:30Z</time></trkpt>
<trkpt lat="-16.4999999" lon="-179.9499428"><ele>81.1</ele><time>2026-05-01T08:42:40Z</time></trkpt>
<trkpt lat="-16.4999999" lon="-179.9494739"><ele>81.1</ele><time>2026-05-01T08:42:50Z</time></trkpt>
<trkpt lat="-16.4999999" lon="-179.9490049"><ele>81.1</ele><time>2026-05-01T08:43:00Z</time></trkpt>
<trkpt lat="-16.4999999" lon="-179.9485359"><ele>81.1</ele><time>2026-05-01T08:43:10Z</time></trkpt>
<trkpt lat="-16.4999999" lon="-179.9480670"><ele>81.1</ele><time>2026-05-01T08:43:20Z</time></trkpt>
<trkpt lat="-16.4999999" lon="-179.9475980"><ele>81.1</ele><time>2026-05-01T08:43:30Z</time></trkpt>
<trkpt lat="-16.4999999" lon="-179.9471290"><ele>81.1</ele><time>2026-05-01T08:43:40Z</time></trkpt>
<trkpt lat="-16.4999999" lon="-179.9466600"><ele>81.1</ele><time>2026-05-01T08:43:50Z</time></trkpt>
<trkpt lat="-16.4999999" lon="-179.9461911"><ele>81.1</ele><time>2026-05-01T08:44:00Z</time></trkpt>
<trkpt lat="-16.4999999" lon="-179.9457221"><ele>81.1</ele><time>2026-05-01T08:44:10Z</time></trkpt>
<trkpt lat="-16.4999999" lon="-179.9452531"><ele>81.1</ele><time>2026-05-01T08:44:20Z</time></trkpt>
<trkpt lat="-16.4999999" lon="-179.9447841"><ele>81.1</ele><time>2026-05-01T08:44:30Z</time></trkpt>
<trkpt lat="-16.4999999" lon="-179.9443152"><ele>81.1</ele><time>2026-05-01T08:44:40Z</time></trkpt>
<trkpt lat="-16.4999999" lon="-179.9438462"><ele>81.1</ele><time>2026-05-01T08:44:50Z</time></trkpt>
<trkpt lat="-16.4999999" lon="-179.9433772"><ele>81.1</ele><time>2026-05-01T08:45:00Z</time></trkpt>
<trkpt lat="-16.4999999" lon="-179.9429083"><ele>81.1</ele><time>2026-05-01T08:45:10Z</time></trkpt>
<trkpt lat="-16.4999999" lon="-179.9424393"><ele>81.1</ele><time>2026-05-01T08:45:20Z</time></trkpt>
<trkpt lat="-16.4999999" lon="-179.9419703"><ele>81.1</ele><time>2026-05-01T08:45:30Z</time></trkpt>
<trkpt lat="-16.4999999" lon="-179.9415013"><ele>81.1</ele><time>2026-05-01T08:45:40Z</time></trkpt>
<trkpt lat="-16.4999999" lon="-179.9410324"><ele>81.1</ele><time>2026-05-01T08:45:50Z</time></trkpt>
<trkpt lat="-16.4999999" lon="-179.9405634"><ele>81.1</ele><time>2026-05-01T08:46:00Z</time></trkpt>
<trkpt lat="-16.4999999" lon="-179.9400944"><ele>81.1</ele><time>2026-05-01T08:46:10Z</time></trkpt>
<trkpt lat="-16.4999999" lon="-179.9396254"><ele>81.1</ele><time>2026-05-01T08:46:20Z</time></trkpt>
<trkpt lat="-16.4999999" lon="-179.9391565"><ele>81.1</ele><time>2026-05-01T08:46:30Z</time></trkpt>
<trkpt lat="-16.4999999" lon="-179.9386875"><ele>81.1</ele><time>2026-05-01T08:46:40Z</time></trkpt>
<trkpt lat="-16.4999999" lon="-179.9382185"><ele>81.1</ele><time>2026-05-01T08:46:50Z</time></trkpt>
<trkpt lat="-16.4999999" lon="-179.9377495"><ele>81.1</ele><time>2026-05-01T08:47:00Z</time></trkpt>
<trkpt lat="-16.4999999" lon="-179.9372806"><ele>81.1</ele><time>2026-05-01T08:47:10Z</time></trkpt>
<trkpt lat="-16.4999999" lon="-179.9368116"><ele>81.1</ele><time>2026-05-01T08:47:20Z</time></trkpt>
<trkpt lat="-16.4999999" lon="-179.9363426"><ele>81.1</ele><time>2026-05-01T08:47:30Z</time></trkpt>
<trkpt lat="-16.4999999" lon="-179.9358737"><ele>81.1</ele><time>2026-05-01T08:47:40Z</time></trkpt>
<trkpt lat="-16.4999998" lon="-179.9354047"><ele>81.1</ele><time>2026-05-01T08:47:50Z</time></trkpt>
<trkpt lat="-16.4999998" lon="-179.9349357"><ele>81.1</ele><time>2026-05-01T08:48:00Z</time></trkpt>
<trkpt lat="-16.4999998" lon="-179.9344667"><ele>81.1</ele><time>2026-05-01T08:48:10Z</time></trkpt>
<trkpt lat="-16.4999998" lon="-179.9339978"><ele>81.1</ele><time>2026-05-01T08:48:20Z</time></trkpt>
<trkpt lat="-16.4999998" lon="-179.9335288"><ele>81.1</ele><time>2026-05-01T08:48:30Z</time></trkpt>
<trkpt lat="-16.4999998" lon="-179.9330598"><ele>81.1</ele><time>2026-05-01T08:48:40Z</time></trkpt>
<trkpt lat="-16.4999998" lon="-179.9325908"><ele>81.1</ele><time>2026-05-01T08:48:50Z</time></trkpt>
<trkpt lat="-16.4999998" lon="-179.9321219"><ele>81.1</ele><time>2026-05-01T08:49:00Z</time></trkpt>
<trkpt lat="-16.4999998" lon="-179.9316529"><ele>81.1</ele><time>2026-05-01T08:49:10Z</time></trkpt>
<trkpt lat="-16.4999998" lon="-179.9311839"><ele>81.1</ele><time>2026-05-01T08:49:20Z</time></trkpt>
<trkpt lat="-16.4999998" lon="-179.9307149"><ele>81.1</ele><time>2026-05-01T08:49:30Z</time></trkpt>
<trkpt lat="-16.4999998" lon="-179.9302460"><ele>81.1</ele><time>2026-05-01T08:49:40Z</time></trkpt>
<trkpt lat="-16.4999998" lon="-179.9297770"><ele>81.1</ele><time>2026-05-01T08:49:50Z</time></trkpt>
<trkpt lat="-16.4999998" lon="-179.9293080"><ele>81.1</ele><time>2026-05-01T08:50:00Z</time></trkpt>
</trkseg></trk></gpx>
