<?xml version="1.0" encoding="UTF-8"?>
<gpx version="1.1" creator="sobrevoo-samples" xmlns="http://www.topografix.com/GPX/1/1">
<trk><name>com-parada.gpx</name><trkseg>
<trkpt lat="-22.9068000" lon="-43.1729000"><ele>80.5</ele><time>2026-05-01T08:00:00Z</time></trkpt>
<trkpt lat="-22.9065752" lon="-43.1724772"><ele>80.5</ele><time>2026-05-01T08:00:10Z</time></trkpt>
<trkpt lat="-22.9063503" lon="-43.1720545"><ele>80.4</ele><time>2026-05-01T08:00:20Z</time></trkpt>
<trkpt lat="-22.9061255" lon="-43.1716317"><ele>80.4</ele><time>2026-05-01T08:00:30Z</time></trkpt>
<trkpt lat="-22.9059007" lon="-43.1712090"><ele>80.3</ele><time>2026-05-01T08:00:40Z</time></trkpt>
<trkpt lat="-22.9056758" lon="-43.1707862"><ele>80.3</ele><time>2026-05-01T08:00:50Z</time></trkpt>
<trkpt lat="-22.9054510" lon="-43.1703635"><ele>80.3</ele><time>2026-05-01T08:01:00Z</time></trkpt>
<trkpt lat="-22.9052262" lon="-43.1699407"><ele>80.2</ele><time>2026-05-01T08:01:10Z</time></trkpt>
<trkpt lat="-22.9050014" lon="-43.1695180"><ele>80.2</ele><time>2026-05-01T08:01:20Z</time></trkpt>
<trkpt lat="-22.9047765" lon="-43.1690952"><ele>80.2</ele><time>2026-05-01T08:01:30Z</time></trkpt>
<trkpt lat="-22.9045517" lon="-43.1686725"><ele>80.1</ele><time>2026-05-01T08:01:40Z</time></trkpt>
<trkpt lat="-22.9043269" lon="-43.1682497"><ele>80.1</ele><time>2026-05-01T08:01:50Z</time></trkpt>
<trkpt lat="-22.9041020" lon="-43.1678270"><ele>80.1</ele><time>2026-05-01T08:02:00Z</time></trkpt>
<trkpt lat="-22.9038772" lon="-43.1674042"><ele>80.1</ele><time>2026-05-01T08:02:10Z</time></trkpt>
<trkpt lat="-22.9036524" lon="-43.1669815"><ele>80.1</ele><time>2026-05-01T08:02:20Z</time></trkpt>
<trkpt lat="-22.9034275" lon="-43.1665587"><ele>80.0</ele><time>2026-05-01T08:02:30Z</time></trkpt>
<trkpt lat="-22.9032027" lon="-43.1661360"><ele>80.0</ele><time>2026-05-01T08:02:40Z</time></trkpt>
<trkpt lat="-22.9029779" lon="-43.1657132"><ele>80.0</ele><time>2026-05-01T08:02:50Z</time></trkpt>
<trkpt lat="-22.9027530" lon="-43.1652905"><ele>80.0</ele><time>2026-05-01T08:03:00Z</time></trkpt>
<trkpt lat="-22.9025282" lon="-43.1648678"><ele>80.0</ele><time>2026-05-01T08:03:10Z</time></trkpt>
<trkpt lat="-22.9023034" lon="-43.1644450"><ele>80.0</ele><time>2026-05-01T08:03:20Z</time></trkpt>
<trkpt lat="-22.9020785" lon="-43.1640223"><ele>80.0</ele><time>2026-05-01T08:03:30Z</time></trkpt>
<trkpt lat="-22.9018537" lon="-43.1635995"><ele>80.0</ele><time>2026-05-01T08:03:40Z</time></trkpt>
<trkpt lat="-22.9016289" lon="-43.1631768"><ele>80.0</ele><time>2026-05-01T08:03:50Z</time></trkpt>
<trkpt lat="-22.9014041" lon="-43.1627541"><ele>80.0</ele><time>2026-05-01T08:04:00Z</time></trkpt>
<trkpt lat="-22.9011792" lon="-43.1623313"><ele>80.0</ele><time>2026-05-01T08:04:10Z</time></trkpt>
<trkpt lat="-22.9009544" lon="-43.1619086"><ele>80.0</ele><time>2026-05-01T08:04:20Z</time></trkpt>
<trkpt lat="-22.9007296" lon="-43.1614858"><ele>80.1</ele><time>2026-05-01T08:04:30Z</time></trkpt>
<trkpt lat="-22.9005047" lon="-43.1610631"><ele>80.1</ele><time>2026-05-01T08:04:40Z</time></trkpt>
<trkpt lat="-22.9002799" lon="-43.1606404"><ele>80.1</ele><time>2026-05-01T08:04:50Z</time></trkpt>
<trkpt lat="-22.9000551" lon="-43.1602176"><ele>80.1</ele><time>2026-05-01T08:05:00Z</time></trkpt>
<trkpt lat="-22.8998302" lon="-43.1597949"><ele>80.1</ele><time>2026-05-01T08:05:10Z</time></trkpt>
<trkpt lat="-22.8996054" lon="-43.1593722"><ele>80.2</ele><time>2026-05-01T08:05:20Z</time></trkpt>
<trkpt lat="-22.8993806" lon="-43.1589494"><ele>80.2</ele><time>2026-05-01T08:05:30Z</time></trkpt>
<trkpt lat="-22.8991557" lon="-43.1585267"><ele>80.2</ele><time>2026-05-01T08:05:40Z</time></trkpt>
<trkpt lat="-22.8989309" lon="-43.1581040"><ele>80.3</ele><time>2026-05-01T08:05:50Z</time></trkpt>
<trkpt lat="-22.8987061" lon="-43.1576812"><ele>80.3</ele><time>2026-05-01T08:06:00Z</time></trkpt>
<trkpt lat="-22.8984813" lon="-43.1572585"><ele>80.3</ele><time>2026-05-01T08:06:10Z</time></trkpt>
<trkpt lat="-22.8982564" lon="-43.1568358"><ele>80.4</ele><time>2026-05-01T08:06:20Z</time></trkpt>
<trkpt lat="-22.8980316" lon="-43.1564130"><ele>80.4</ele><time>2026-05-01T08:06:30Z</time></trkpt>
<trkpt lat="-22.8978068" lon="-43.1559903"><ele>80.5</ele><time>2026-05-01T08:06:40Z</time></trkpt>
<trkpt lat="-22.8975819" lon="-43.1555676"><ele>80.5</ele><time>2026-05-01T08:06:50Z</time></trkpt>
<trkpt lat="-22.8973571" lon="-43.1551449"><ele>80.6</ele><time>2026-05-01T08:07:00Z</time></trkpt>
<trkpt lat="-22.8971323" lon="-43.1547221"><ele>80.6</ele><time>2026-05-01T08:07:10Z</time></trkpt>
<trkpt lat="-22.8969074" lon="-43.1542994"><ele>80.7</ele><time>2026-05-01T08:07:20Z</time></trkpt>
<trkpt lat="-22.8966826" lon="-43.1538767"><ele>80.8</ele><time>2026-05-01T08:07:30Z</time></trkpt>
<trkpt lat="-22.8964578" lon="-43.1534540"><ele>80.8</ele><time>2026-05-01T08:07:40Z</time></trkpt>
<trkpt lat="-22.8962329" lon="-43.1530312"><ele>80.9</ele><time>2026-05-01T08:07:50Z</time></trkpt>
<trkpt lat="-22.8960081" lon="-43.1526085"><ele>81.0</ele><time>2026-05-01T08:08:00Z</time></trkpt>
<trkpt lat="-22.8957833" lon="-43.1521858"><ele>81.0</ele><time>2026-05-01T08:08:10Z</time></trkpt>
<trkpt lat="-22.8955585" lon="-43.1517631"><ele>81.1</ele><time>2026-05-01T08:08:20Z</time></trkpt>
<trkpt lat="-22.8955594" lon="-43.1517611"><ele>81.1</ele><time>2026-05-01T08:08:30Z</time></trkpt>
<trkpt lat="-22.8955590" lon="-43.1517639"><ele>81.1</ele><time>2026-05-01T08:08:40Z</time></trkpt>
<trkpt lat="-22.8955633" lon="-43.1517643"><ele>81.1</ele><time>2026-05-01T08:08:50Z</time></trkpt>
<trkpt lat="-22.8955521" lon="-43.1517604"><ele>81.1</ele><time>2026-05-01T08:09:00Z</time></trkpt>
<trkpt lat="-22.8955528" lon="-43.1517616"><ele>81.1</ele><time>2026-05-01T08:09:10Z</time></trkpt>
<trkpt lat="-22.8955573" lon="-43.1517625"><ele>81.1</ele><time>2026-05-01T08:09:20Z</time></trkpt>
<trkpt lat="-22.8955684" lon="-43.1517575"><ele>81.1</ele><time>2026-05-01T08:09:30Z</time></trkpt>
<trkpt lat="-22.8955563" lon="-43.1517608"><ele>81.1</ele><time>2026-05-01T08:09:40Z</time></trkpt>
<trkpt lat="-22.8955674" lon="-43.1517730"><ele>81.1</ele><time>2026-05-01T08:09:50Z</time></trkpt>
<trkpt lat="-22.8955632" lon="-43.1517658"><ele>81.1</ele><time>2026-05-01T08:10:00Z</time></trkpt>
<trkpt lat="-22.8955578" lon="-43.1517632"><ele>81.1</ele><time>2026-05-01T08:10:10Z</time></trkpt>
<trkpt lat="-22.8955560" lon="-43.1517664"><ele>81.1</ele><time>2026-05-01T08:10:20Z</time></trkpt>
<trkpt lat="-22.8955575" lon="-43.1517617"><ele>81.1</ele><time>2026-05-01T08:10:30Z</time></trkpt>
<trkpt lat="-22.8955624" lon="-43.1517519"><ele>81.1</ele><time>2026-05-01T08:10:40Z</time></trkpt>
<trkpt lat="-22.8955551" lon="-43.1517553"><ele>81.1</ele><time>2026-05-01T08:10:50Z</time></trkpt>
<trkpt lat="-22.8955617" lon="-43.1517672"><ele>81.1</ele><time>2026-05-01T08:11:00Z</time></trkpt>
<trkpt lat="-22.8955593" lon="-43.1517633"><ele>81.1</ele><time>2026-05-01T08:11:10Z</time></trkpt>
<trkpt lat="-22.8955559" lon="-43.1517620"><ele>81.1</ele><time>2026-05-01T08:11:20Z</time></trkpt>
<trkpt lat="-22.8955609" lon="-43.1517687"><ele>81.1</ele><time>2026-05-01T08:11:30Z</time></trkpt>
<trkpt lat="-22.8955616" lon="-43.1517552"><ele>81.1</ele><time>2026-05-01T08:11:40Z</time></trkpt>
<trkpt lat="-22.8955623" lon="-43.1517618"><ele>81.1</ele><time>2026-05-01T08:11:50Z</time></trkpt>
<trkpt lat="-22.8955559" lon="-43.1517729"><ele>81.1</ele><time>2026-05-01T08:12:00Z</time></trkpt>
<trkpt lat="-22.8955582" lon="-43.1517547"><ele>81.1</ele><time>2026-05-01T08:12:10Z</time></trkpt>
<trkpt lat="-22.8955701" lon="-43.1517651"><ele>81.1</ele><time>2026-05-01T08:12:20Z</time></trkpt>
<trkpt lat="-22.8955590" lon="-43.1517672"><ele>81.1</ele><time>2026-05-01T08:12:30Z</time></trkpt>
<trkpt lat="-22.8955569" lon="-43.1517633"><ele>81.1</ele><time>2026-05-01T08:12:40Z</time></trkpt>
<trkpt lat="-22.8955673" lon="-43.1517576"><ele>81.1</ele><time>2026-05-01T08:12:50Z</time></trkpt>
<trkpt lat="-22.8955546" lon="-43.1517572"><ele>81.1</ele><time>2026-05-01T08:13:00Z</time></trkpt>
<trkpt lat="-22.8955497" lon="-43.1517607"><ele>81.1</ele><time>2026-05-01T08:13:10Z</time></trkpt>
<trkpt lat="-22.8955577" lon="-43.1517714"><ele>81.1</ele><time>2026-05-01T08:13:20Z</time></trkpt>
<trkpt lat="-22.8955555" lon="-43.1517663"><ele>81.1</ele><time>2026-05-01T08:13:30Z</time></trkpt>
<trkpt lat="-22.8955612" lon="-43.1517713"><ele>81.1</ele><time>2026-05-01T08:13:40Z</time></trkpt>
<trkpt lat="-22.8955638" lon="-43.1517663"><ele>81.1</ele><time>2026-05-01T08:13:50Z</time></trkpt>
<trkpt lat="-22.8955516" lon="-43.1517747"><ele>81.1</ele><time>2026-05-01T08:14:00Z</time></trkpt>
<trkpt lat="-22.8955673" lon="-43.1517615"><ele>81.1</ele><time>2026-05-01T08:14:10Z</time></trkpt>
<trkpt lat="-22.8955497" lon="-43.1517592"><ele>81.1</ele><time>2026-05-01T08:14:20Z</time></trkpt>
<trkpt lat="-22.8955665" lon="-43.1517747"><ele>81.1</ele><time>2026-05-01T08:14:30Z</time></trkpt>
<trkpt lat="-22.8955568" lon="-43.1517668"><ele>81.1</ele><time>2026-05-01T08:14:40Z</time></trkpt>
<trkpt lat="-22.8955652" lon="-43.1517566"><ele>81.1</ele><time>2026-05-01T08:14:50Z</time></trkpt>
<trkpt lat="-22.8955523" lon="-43.1517621"><ele>81.1</ele><time>2026-05-01T08:15:00Z</time></trkpt>
<trkpt lat="-22.8955577" lon="-43.1517616"><ele>81.1</ele><time>2026-05-01T08:15:10Z</time></trkpt>
<trkpt lat="-22.8955488" lon="-43.1517590"><ele>81.1</ele><time>2026-05-01T08:15:20Z</time></trkpt>
<trkpt lat="-22.8955562" lon="-43.1517604"><ele>81.1</ele><time>2026-05-01T08:15:30Z</time></trkpt>
<trkpt lat="-22.8955676" lon="-43.1517550"><ele>81.1</ele><time>2026-05-01T08:15:40Z</time></trkpt>
<trkpt lat="-22.8955532" lon="-43.1517599"><ele>81.1</ele><time>2026-05-01T08:15:50Z</time></trkpt>
<trkpt lat="-22.8955698" lon="-43.1517670"><ele>81.1</ele><time>2026-05-01T08:16:00Z</time></trkpt>
<trkpt lat="-22.8955535" lon="-43.1517745"><ele>81.1</ele><time>2026-05-01T08:16:10Z</time></trkpt>
<trkpt lat="-22.8955594" lon="-43.1517571"><ele>81.1</ele><time>2026-05-01T08:16:20Z</time></trkpt>
<trkpt lat="-22.8955660" lon="-43.1517530"><ele>81.1</ele><time>2026-05-01T08:16:30Z</time></trkpt>
<trkpt lat="-22.8955565" lon="-43.1517636"><ele>81.1</ele><time>2026-05-01T08:16:40Z</time></trkpt>
<trkpt lat="-22.8955571" lon="-43.1517600"><ele>81.1</ele><time>2026-05-01T08:16:50Z</time></trkpt>
<trkpt lat="-22.8955578" lon="-43.1517560"><ele>81.1</ele><time>2026-05-01T08:17:00Z</time></trkpt>
<trkpt lat="-22.8955615" lon="-43.1517651"><ele>81.1</ele><time>2026-05-01T08:17:10Z</time></trkpt>
<trkpt lat="-22.8955528" lon="-43.1517629"><ele>81.1</ele><time>2026-05-01T08:17:20Z</time></trkpt>
<trkpt lat="-22.8955637" lon="-43.1517570"><ele>81.1</ele><time>2026-05-01T08:17:30Z</time></trkpt>
<trkpt lat="-22.8955495" lon="-43.1517660"><ele>81.1</ele><time>2026-05-01T08:17:40Z</time></trkpt>
<trkpt lat="-22.8955667" lon="-43.1517639"><ele>81.1</ele><time>2026-05-01T08:17:50Z</time></trkpt>
<trkpt lat="-22.8955588" lon="-43.1517638"><ele>81.1</ele><time>2026-05-01T08:18:00Z</time></trkpt>
<trkpt lat="-22.8955500" lon="-43.1517698"><ele>81.1</ele><time>2026-05-01T08:18:10Z</time></trkpt>
<trkpt lat="-22.8955509" lon="-43.1517714"><ele>81.1</ele><time>2026-05-01T08:18:20Z</time></trkpt>
<trkpt lat="-22.8954421" lon="-43.1512916"><ele>81.1</ele><time>2026-05-01T08:18:30Z</time></trkpt>
<trkpt lat="-22.8953257" lon="-43.1508201"><ele>81.2</ele><time>2026-05-01T08:18:40Z</time></trkpt>
<trkpt lat="-22.8952093" lon="-43.1503486"><ele>81.2</ele><time>2026-05-01T08:18:50Z</time></trkpt>
<trkpt lat="-22.8950929" lon="-43.1498771"><ele>81.3</ele><time>2026-05-01T08:19:00Z</time></trkpt>
<trkpt lat="-22.8949765" lon="-43.1494056"><ele>81.3</ele><time>2026-05-01T08:19:10Z</time></trkpt>
<trkpt lat="-22.8948602" lon="-43.1489342"><ele>81.3</ele><time>2026-05-01T08:19:20Z</time></trkpt>
<trkpt lat="-22.8947438" lon="-43.1484627"><ele>81.4</ele><time>2026-05-01T08:19:30Z</time></trkpt>
<trkpt lat="-22.8946274" lon="-43.1479912"><ele>81.4</ele><time>2026-05-01T08:19:40Z</time></trkpt>
<trkpt lat="-22.8945110" lon="-43.1475197"><ele>81.5</ele><time>2026-05-01T08:19:50Z</time></trkpt>
<trkpt lat="-22.8943946" lon="-43.1470482"><ele>81.5</ele><time>2026-05-01T08:20:00Z</time></trkpt>
<trkpt lat="-22.8942783" lon="-43.1465768"><ele>81.6</ele><time>2026-05-01T08:20:10Z</time></trkpt>
<trkpt lat="-22.8941619" lon="-43.1461053"><ele>81.6</ele><time>2026-05-01T08:20:20Z</time></trkpt>
<trkpt lat="-22.8940455" lon="-43.1456338"><ele>81.6</ele><time>2026-05-01T08:20:30Z</time></trkpt>
<trkpt lat="-22.8939291" lon="-43.1451623"><ele>81.7</ele><time>2026-05-01T08:20:40Z</time></trkpt>
<trkpt lat="-22.8938127" lon="-43.1446908"><ele>81.7</ele><time>2026-05-01T08:20:50Z</time></trkpt>
<trkpt lat="-22.8936963" lon="-43.1442194"><ele>81.8</ele><time>2026-05-01T08:21:00Z</time></trkpt>
<trkpt lat="-22.8935800" lon="-43.1437479"><ele>81.8</ele><time>2026-05-01T08:21:10Z</time></trkpt>
<trkpt lat="-22.8934636" lon="-43.1432764"><ele>81.9</ele><time>2026-05-01T08:21:20Z</time></trkpt>
<trkpt lat="-22.8933472" lon="-43.1428049"><ele>81.9</ele><time>2026-05-01T08:21:30Z</time></trkpt>
<trkpt lat="-22.8932308" lon="-43.1423335"><ele>82.0</ele><time>2026-05-01T08:21:40Z</time></trkpt>
<trkpt lat="-22.8931144" lon="-43.1418620"><ele>82.0</ele><time>2026-05-01T08:21:50Z</time></trkpt>
<trkpt lat="-22.8929981" lon="-43.1413905"><ele>82.1</ele><time>2026-05-01T08:22:00Z</time></trkpt>
<trkpt lat="-22.8928817" lon="-43.1409190"><ele>82.1</ele><time>2026-05-01T08:22:10Z</time></trkpt>
<trkpt lat="-22.8927653" lon="-43.1404476"><ele>82.2</ele><time>2026-05-01T08:22:20Z</time></trkpt>
<trkpt lat="-22.8926489" lon="-43.1399761"><ele>82.2</ele><time>2026-05-01T08:22:30Z</time></trkpt>
<trkpt lat="-22.8925325" lon="-43.1395046"><ele>82.3</ele><time>2026-05-01T08:22:40Z</time></trkpt>
<trkpt lat="-22.8924162" lon="-43.1390331"><ele>82.4</ele><time>2026-05-01T08:22:50Z</time></trkpt>
<trkpt lat="-22.8922998" lon="-43.1385617"><ele>82.4</ele><time>2026-05-01T08:23:00Z</time></trkpt>
<trkpt lat="-22.8921834" lon="-43.1380902"><ele>82.5</ele><time>2026-05-01T08:23:10Z</time></trkpt>
<trkpt lat="-22.8920670" lon="-43.1376187"><ele>82.5</ele><time>2026-05-01T08:23:20Z</time></trkpt>
<trkpt lat="-22.8919506" lon="-43.1371472"><ele>82.6</ele><time>2026-05-01T08:23:30Z</time></trkpt>
<trkpt lat="-22.8918342" lon="-43.1366758"><ele>82.6</ele><time>2026-05-01T08:23:40Z</time></trkpt>
<trkpt lat="-22.8917179" lon="-43.1362043"><ele>82.7</ele><time>2026-05-01T08:23:50Z</time></trkpt>
<trkpt lat="-22.8916015" lon="-43.1357328"><ele>82.7</ele><time>2026-05-01T08:24:00Z</time></trkpt>
<trkpt lat="-22.8914851" lon="-43.1352614"><ele>82.8</ele><time>2026-05-01T08:24:10Z</time></trkpt>
<trkpt lat="-22.8913687" lon="-43.1347899"><ele>82.9</ele><time>2026-05-01T08:24:20Z</time></trkpt>
<trkpt lat="-22.8912523" lon="-43.1343184"><ele>82.9</ele><time>2026-05-01T08:24:30Z</time></trkpt>
<trkpt lat="-22.8911360" lon="-43.1338469"><ele>83.0</ele><time>2026-05-01T08:24:40Z</time></trkpt>
<trkpt lat="-22.8910196" lon="-43.1333755"><ele>83.1</ele><time>2026-05-01T08:24:50Z</time></trkpt>
<trkpt lat="-22.8909032" lon="-43.1329040"><ele>83.1</ele><time>2026-05-01T08:25:00Z</time></trkpt>
<trkpt lat="-22.8907868" lon="-43.1324325"><ele>83.2</ele><time>2026-05-01T08:25:10Z</time></trkpt>
<trkpt lat="-22.8906704" lon="-43.1319611"><ele>83.2</ele><time>2026-05-01T08:25:20Z</time></trkpt>
<trkpt lat="-22.8905540" lon="-43.1314896"><ele>83.3</ele><time>2026-05-01T08:25:30Z</time></trkpt>
<trkpt lat="-22.8904377" lon="-43.1310181"><ele>83.4</ele><time>2026-05-01T08:25:40Z</time></trkpt>
<trkpt lat="-22.8903213" lon="-43.1305467"><ele>83.4</ele><time>2026-05-01T08:25:50Z</time></trkpt>
<trkpt lat="-22.8902049" lon="-43.1300752"><ele>83.5</ele><time>2026-05-01T08:26:00Z</time></trkpt>
<trkpt lat="-22.8900885" lon="-43.1296037"><ele>83.6</ele><time>2026-05-01T08:26:10Z</time></trkpt>
<trkpt lat="-22.8899721" lon="-43.1291323"><ele>83.6</ele><time>2026-05-01T08:26:20Z</time></trkpt>
<trkpt lat="-22.8898558" lon="-43.1286608"><ele>83.7</ele><time>2026-05-01T08:26:30Z</time></trkpt>
<trkpt lat="-22.8897394" lon="-43.1281893"><ele>83.8</ele><time>2026-05-01T08:26:40Z</time></trkpt>
</trkseg></trk></gpx>
