<?xml version="1.0" encoding="UTF-8"?>
<gpx version="1.1" creator="sobrevoo-samples" xmlns="http://www.topografix.com/GPX/1/1">
<trk><name>enorme.gpx</name><trkseg>
<trkpt lat="40.0000000" lon="-10.0000000"><ele>118.6</ele><time>2026-05-01T08:00:00Z</time></trkpt>
<trkpt lat="39.9999520" lon="-9.8943418"><ele>118.6</ele><time>2026-05-01T08:05:00Z</time></trkpt>
<trkpt lat="39.9999041" lon="-9.7886836"><ele>118.6</ele><time>2026-05-01T08:10:00Z</time></trkpt>
<trkpt lat="39.9998561" lon="-9.6830255"><ele>118.7</ele><time>2026-05-01T08:15:00Z</time></trkpt>
<trkpt lat="39.9998081" lon="-9.5773675"><ele>118.7</ele><time>2026-05-01T08:20:00Z</time></trkpt>
<trkpt lat="39.9997601" lon="-9.4717095"><ele>118.7</ele><time>2026-05-01T08:25:00Z</time></trkpt>
<trkpt lat="39.9997122" lon="-9.3660517"><ele>118.7</ele><time>2026-05-01T08:30:00Z</time></trkpt>
<trkpt lat="39.9996642" lon="-9.2603939"><ele>118.7</ele><time>2026-05-01T08:35:00Z</time></trkpt>
<trkpt lat="39.9996162" lon="-9.1547362"><ele>118.7</ele><time>2026-05-01T08:40:00Z</time></trkpt>
<trkpt lat="39.9995683" lon="-9.0490785"><ele>118.8</ele><time>2026-05-01T08:45:00Z</time></trkpt>
<trkpt lat="39.9995203" lon="-8.9434210"><ele>118.8</ele><time>2026-05-01T08:50:00Z</time></trkpt>
<trkpt lat="39.9994723" lon="-8.8377635"><ele>118.8</ele><time>2026-05-01T08:55:00Z</time></trkpt>
<trkpt lat="39.9994244" lon="-8.7321060"><ele>118.8</ele><time>2026-05-01T09:00:00Z</time></trkpt>
<trkpt lat="39.9993764" lon="-8.6264487"><ele>118.8</ele><time>2026-05-01T09:05:00Z</time></trkpt>
<trkpt lat="39.9993284" lon="-8.5207914"><ele>118.8</ele><time>2026-05-01T09:10:00Z</time></trkpt>
<trkpt lat="39.9992804" lon="-8.4151342"><ele>118.9</ele><time>2026-05-01T09:15:00Z</time></trkpt>
<trkpt lat="39.9992325" lon="-8.3094771"><ele>118.9</ele><time>2026-05-01T09:20:00Z</time></trkpt>
<trkpt lat="39.9991845" lon="-8.2038200"><ele>118.9</ele><time>2026-05-01T09:25:00Z</time></trkpt>
<trkpt lat="39.9991365" lon="-8.0981631"><ele>118.9</ele><time>2026-05-01T09:30:00Z</time></trkpt>
<trkpt lat="39.9990886" lon="-7.9925062"><ele>118.9</ele><time>2026-05-01T09:35:00Z</time></trkpt>
<trkpt lat="39.9990406" lon="-7.8868493"><ele>118.9</ele><time>2026-05-01T09:40:00Z</time></trkpt>
<trkpt lat="39.9989926" lon="-7.7811926"><ele>118.9</ele><time>2026-05-01T09:45:00Z</time></trkpt>
<trkpt lat="39.9989447" lon="-7.6755359"><ele>119.0</ele><time>2026-05-01T09:50:00Z</time></trkpt>
<trkpt lat="39.9988967" lon="-7.5698793"><ele>119.0</ele><time>2026-05-01T09:55:00Z</time></trkpt>
<trkpt lat="39.9988487" lon="-7.4642228"><ele>119.0</ele><time>2026-05-01T10:00:00Z</time></trkpt>
<trkpt lat="39.9988008" lon="-7.3585663"><ele>119.0</ele><time>2026-05-01T10:05:00Z</time></trkpt>
<trkpt lat="39.9987528" lon="-7.2529099"><ele>119.0</ele><time>2026-05-01T10:10:00Z</time></trkpt>
<trkpt lat="39.9987048" lon="-7.1472536"><ele>119.0</ele><time>2026-05-01T10:15:00Z</time></trkpt>
<trkpt lat="39.9986569" lon="-7.0415974"><ele>119.1</ele><time>2026-05-01T10:20:00Z</time></trkpt>
<trkpt lat="39.9986089" lon="-6.9359412"><ele>119.1</ele><time>2026-05-01T10:25:00Z</time></trkpt>
<trkpt lat="39.9985609" lon="-6.8302851"><ele>119.1</ele><time>2026-05-01T10:30:00Z</time></trkpt>
<trkpt lat="39.9985129" lon="-6.7246291"><ele>119.1</ele><time>2026-05-01T10:35:00Z</time></trkpt>
<trkpt lat="39.9984650" lon="-6.6189732"><ele>119.1</ele><time>2026-05-01T10:40:00Z</time></trkpt>
<trkpt lat="39.9984170" lon="-6.5133173"><ele>119.1</ele><time>2026-05-01T10:45:00Z</time></trkpt>
<trkpt lat="39.9983690" lon="-6.4076615"><ele>119.1</ele><time>2026-05-01T10:50:00Z</time></trkpt>
<trkpt lat="39.9983211" lon="-6.3020058"><ele>119.2</ele><time>2026-05-01T10:55:00Z</time></trkpt>
<trkpt lat="39.9982731" lon="-6.1963502"><ele>119.2</ele><time>2026-05-01T11:00:00Z</time></trkpt>
<trkpt lat="39.9982251" lon="-6.0906946"><ele>119.2</ele><time>2026-05-01T11:05:00Z</time></trkpt>
<trkpt lat="39.9981772" lon="-5.9850391"><ele>119.2</ele><time>2026-05-01T11:10:00Z</time></trkpt>
<trkpt lat="39.9981292" lon="-5.8793837"><ele>119.2</ele><time>2026-05-01T11:15:00Z</time></trkpt>
<trkpt lat="39.9980812" lon="-5.7737283"><ele>119.2</ele><time>2026-05-01T11:20:00Z</time></trkpt>
<trkpt lat="39.9980333" lon="-5.6680731"><ele>119.2</ele><time>2026-05-01T11:25:00Z</time></trkpt>
<trkpt lat="39.9979853" lon="-5.5624179"><ele>119.2</ele><time>2026-05-01T11:30:00Z</time></trkpt>
<trkpt lat="39.9979373" lon="-5.4567628"><ele>119.3</ele><time>2026-05-01T11:35:00Z</time></trkpt>
<trkpt lat="39.9978894" lon="-5.3511077"><ele>119.3</ele><time>2026-05-01T11:40:00Z</time></trkpt>
<trkpt lat="39.9978414" lon="-5.2454527"><ele>119.3</ele><time>2026-05-01T11:45:00Z</time></trkpt>
<trkpt lat="39.9977934" lon="-5.1397978"><ele>119.3</ele><time>2026-05-01T11:50:00Z</time></trkpt>
<trkpt lat="39.9977455" lon="-5.0341430"><ele>119.3</ele><time>2026-05-01T11:55:00Z</time></trkpt>
<trkpt lat="39.9976975" lon="-4.9284883"><ele>119.3</ele><time>2026-05-01T12:00:00Z</time></trkpt>
<trkpt lat="39.9976495" lon="-4.8228336"><ele>119.3</ele><time>2026-05-01T12:05:00Z</time></trkpt>
<trkpt lat="39.9976016" lon="-4.7171790"><ele>119.3</ele><time>2026-05-01T12:10:00Z</time></trkpt>
<trkpt lat="39.9975536" lon="-4.6115245"><ele>119.4</ele><time>2026-05-01T12:15:00Z</time></trkpt>
<trkpt lat="39.9975056" lon="-4.5058700"><ele>119.4</ele><time>2026-05-01T12:20:00Z</time></trkpt>
<trkpt lat="39.9974577" lon="-4.4002156"><ele>119.4</ele><time>2026-05-01T12:25:00Z</time></trkpt>
<trkpt lat="39.9974097" lon="-4.2945613"><ele>119.4</ele><time>2026-05-01T12:30:00Z</time></trkpt>
<trkpt lat="39.9973617" lon="-4.1889071"><ele>119.4</ele><time>2026-05-01T12:35:00Z</time></trkpt>
<trkpt lat="39.9973138" lon="-4.0832529"><ele>119.4</ele><time>2026-05-01T12:40:00Z</time></trkpt>
<trkpt lat="39.9972658" lon="-3.9775989"><ele>119.4</ele><time>2026-05-01T12:45:00Z</time></trkpt>
<trkpt lat="39.9972178" lon="-3.8719448"><ele>119.4</ele><time>2026-05-01T12:50:00Z</time></trkpt>
<trkpt lat="39.9971699" lon="-3.7662909"><ele>119.5</ele><time>2026-05-01T12:55:00Z</time></trkpt>
<trkpt lat="39.9971219" lon="-3.6606371"><ele>119.5</ele><time>2026-05-01T13:00:00Z</time></trkpt>
<trkpt lat="39.9970739" lon="-3.5549833"><ele>119.5</ele><time>2026-05-01T13:05:00Z</time></trkpt>
<trkpt lat="39.9970260" lon="-3.4493296"><ele>119.5</ele><time>2026-05-01T13:10:00Z</time></trkpt>
<trkpt lat="39.9969780" lon="-3.3436759"><ele>119.5</ele><time>2026-05-01T13:15:00Z</time></trkpt>
<trkpt lat="39.9969300" lon="-3.2380224"><ele>119.5</ele><time>2026-05-01T13:20:00Z</time></trkpt>
<trkpt lat="39.9968821" lon="-3.1323689"><ele>119.5</ele><time>2026-05-01T13:25:00Z</time></trkpt>
<trkpt lat="39.9968341" lon="-3.0267155"><ele>119.5</ele><time>2026-05-01T13:30:00Z</time></trkpt>
<trkpt lat="39.9967861" lon="-2.9210621"><ele>119.5</ele><time>2026-05-01T13:35:00Z</time></trkpt>
<trkpt lat="39.9967382" lon="-2.8154088"><ele>119.5</ele><time>2026-05-01T13:40:00Z</time></trkpt>
<trkpt lat="39.9966902" lon="-2.7097557"><ele>119.6</ele><time>2026-05-01T13:45:00Z</time></trkpt>
<trkpt lat="39.9966423" lon="-2.6041025"><ele>119.6</ele><time>2026-05-01T13:50:00Z</time></trkpt>
<trkpt lat="39.9965943" lon="-2.4984495"><ele>119.6</ele><time>2026-05-01T13:55:00Z</time></trkpt>
<trkpt lat="39.9965463" lon="-2.3927965"><ele>119.6</ele><time>2026-05-01T14:00:00Z</time></trkpt>
<trkpt lat="39.9964984" lon="-2.2871436"><ele>119.6</ele><time>2026-05-01T14:05:00Z</time></trkpt>
<trkpt lat="39.9964504" lon="-2.1814908"><ele>119.6</ele><time>2026-05-01T14:10:00Z</time></trkpt>
<trkpt lat="39.9964024" lon="-2.0758381"><ele>119.6</ele><time>2026-05-01T14:15:00Z</time></trkpt>
<trkpt lat="39.9963545" lon="-1.9701854"><ele>119.6</ele><time>2026-05-01T14:20:00Z</time></trkpt>
<trkpt lat="39.9963065" lon="-1.8645328"><ele>119.6</ele><time>2026-05-01T14:25:00Z</time></trkpt>
<trkpt lat="39.9962585" lon="-1.7588803"><ele>119.6</ele><time>2026-05-01T14:30:00Z</time></trkpt>
<trkpt lat="39.9962106" lon="-1.6532278"><ele>119.7</ele><time>2026-05-01T14:35:00Z</time></trkpt>
<trkpt lat="39.9961626" lon="-1.5475754"><ele>119.7</ele><time>2026-05-01T14:40:00Z</time></trkpt>
<trkpt lat="39.9961146" lon="-1.4419231"><ele>119.7</ele><time>2026-05-01T14:45:00Z</time></trkpt>
<trkpt lat="39.9960667" lon="-1.3362709"><ele>119.7</ele><time>2026-05-01T14:50:00Z</time></trkpt>
<trkpt lat="39.9960187" lon="-1.2306188"><ele>119.7</ele><time>2026-05-01T14:55:00Z</time></trkpt>
<trkpt lat="39.9959707" lon="-1.1249667"><ele>119.7</ele><time>2026-05-01T15:00:00Z</time></trkpt>
<trkpt lat="39.9959228" lon="-1.0193147"><ele>119.7</ele><time>2026-05-01T15:05:00Z</time></trkpt>
<trkpt lat="39.9958748" lon="-0.9136627"><ele>119.7</ele><time>2026-05-01T15:10:00Z</time></trkpt>
<trkpt lat="39.9958269" lon="-0.8080109"><ele>119.7</ele><time>2026-05-01T15:15:00Z</time></trkpt>
<trkpt lat="39.9957789" lon="-0.7023591"><ele>119.7</ele><time>2026-05-01T15:20:00Z</time></trkpt>
<trkpt lat="39.9957309" lon="-0.5967074"><ele>119.7</ele><time>2026-05-01T15:25:00Z</time></trkpt>
<trkpt lat="39.9956830" lon="-0.4910558"><ele>119.7</ele><time>2026-05-01T15:30:00Z</time></trkpt>
<trkpt lat="39.9956350" lon="-0.3854042"><ele>119.8</ele><time>2026-05-01T15:35:00Z</time></trkpt>
<trkpt lat="39.9955870" lon="-0.2797527"><ele>119.8</ele><time>2026-05-01T15:40:00Z</time></trkpt>
<trkpt lat="39.9955391" lon="-0.1741013"><ele>119.8</ele><time>2026-05-01T15:45:00Z</time></trkpt>
<trkpt lat="39.9954911" lon="-0.0684500"><ele>119.8</ele><time>2026-05-01T15:50:00Z</time></trkpt>
<trkpt lat="39.9954432" lon="0.0372013"><ele>119.8</ele><time>2026-05-01T15:55:00Z</time></trkpt>
<trkpt lat="39.9953952" lon="0.1428525"><ele>119.8</ele><time>2026-05-01T16:00:00Z</time></trkpt>
<trkpt lat="39.9953472" lon="0.2485036"><ele>119.8</ele><time>2026-05-01T16:05:00Z</time></trkpt>
<trkpt lat="39.9952993" lon="0.3541546"><ele>119.8</ele><time>2026-05-01T16:10:00Z</time></trkpt>
<trkpt lat="39.9952513" lon="0.4598056"><ele>119.8</ele><time>2026-05-01T16:15:00Z</time></trkpt>
<trkpt lat="39.9952033" lon="0.5654565"><ele>119.8</ele><time>2026-05-01T16:20:00Z</time></trkpt>
<trkpt lat="39.9951554" lon="0.6711073"><ele>119.8</ele><time>2026-05-01T16:25:00Z</time></trkpt>
<trkpt lat="39.9951074" lon="0.7767581"><ele>119.8</ele><time>2026-05-01T16:30:00Z</time></trkpt>
<trkpt lat="39.9950594" lon="0.8824087"><ele>119.8</ele><time>2026-05-01T16:35:00Z</time></trkpt>
<trkpt lat="39.9950115" lon="0.9880593"><ele>119.8</ele><time>2026-05-01T16:40:00Z</time></trkpt>
<trkpt lat="39.9949635" lon="1.0937098"><ele>119.8</ele><time>2026-05-01T16:45:00Z</time></trkpt>
<trkpt lat="39.9949156" lon="1.1993603"><ele>119.9</ele><time>2026-05-01T16:50:00Z</time></trkpt>
<trkpt lat="39.9948676" lon="1.3050107"><ele>119.9</ele><time>2026-05-01T16:55:00Z</time></trkpt>
<trkpt lat="39.9948196" lon="1.4106610"><ele>119.9</ele><time>2026-05-01T17:00:00Z</time></trkpt>
<trkpt lat="39.9947717" lon="1.5163112"><ele>119.9</ele><time>2026-05-01T17:05:00Z</time></trkpt>
<trkpt lat="39.9947237" lon="1.6219613"><ele>119.9</ele><time>2026-05-01T17:10:00Z</time></trkpt>
<trkpt lat="39.9946758" lon="1.7276114"><ele>119.9</ele><time>2026-05-01T17:15:00Z</time></trkpt>
<trkpt lat="39.9946278" lon="1.8332614"><ele>119.9</ele><time>2026-05-01T17:20:00Z</time></trkpt>
<trkpt lat="39.9945798" lon="1.9389113"><ele>119.9</ele><time>2026-05-01T17:25:00Z</time></trkpt>
<trkpt lat="39.9945319" lon="2.0445612"><ele>119.9</ele><time>2026-05-01T17:30:00Z</time></trkpt>
<trkpt lat="39.9944839" lon="2.1502110"><ele>119.9</ele><time>2026-05-01T17:35:00Z</time></trkpt>
<trkpt lat="39.9944359" lon="2.2558607"><ele>119.9</ele><time>2026-05-01T17:40:00Z</time></trkpt>
<trkpt lat="39.9943880" lon="2.3615103"><ele>119.9</ele><time>2026-05-01T17:45:00Z</time></trkpt>
<trkpt lat="39.9943400" lon="2.4671599"><ele>119.9</ele><time>2026-05-01T17:50:00Z</time></trkpt>
<trkpt lat="39.9942921" lon="2.5728093"><ele>119.9</ele><time>2026-05-01T17:55:00Z</time></trkpt>
<trkpt lat="39.9942441" lon="2.6784587"><ele>119.9</ele><time>2026-05-01T18:00:00Z</time></trkpt>
<trkpt lat="39.9941961" lon="2.7841081"><ele>119.9</ele><time>2026-05-01T18:05:00Z</time></trkpt>
<trkpt lat="39.9941482" lon="2.8897573"><ele>119.9</ele><time>2026-05-01T18:10:00Z</time></trkpt>
<trkpt lat="39.9941002" lon="2.9954065"><ele>119.9</ele><time>2026-05-01T18:15:00Z</time></trkpt>
<trkpt lat="39.9940523" lon="3.1010556"><ele>119.9</ele><time>2026-05-01T18:20:00Z</time></trkpt>
<trkpt lat="39.9940043" lon="3.2067047"><ele>119.9</ele><time>2026-05-01T18:25:00Z</time></trkpt>
<trkpt lat="39.9939563" lon="3.3123536"><ele>119.9</ele><time>2026-05-01T18:30:00Z</time></trkpt>
<trkpt lat="39.9939084" lon="3.4180025"><ele>119.9</ele><time>2026-05-01T18:35:00Z</time></trkpt>
<trkpt lat="39.9938604" lon="3.5236513"><ele>120.0</ele><time>2026-05-01T18:40:00Z</time></trkpt>
<trkpt lat="39.9938125" lon="3.6293001"><ele>120.0</ele><time>2026-05-01T18:45:00Z</time></trkpt>
<trkpt lat="39.9937645" lon="3.7349487"><ele>120.0</ele><time>2026-05-01T18:50:00Z</time></trkpt>
<trkpt lat="39.9937165" lon="3.8405973"><ele>120.0</ele><time>2026-05-01T18:55:00Z</time></trkpt>
<trkpt lat="39.9936686" lon="3.9462458"><ele>120.0</ele><time>2026-05-01T19:00:00Z</time></trkpt>
<trkpt lat="39.9936206" lon="4.0518943"><ele>120.0</ele><time>2026-05-01T19:05:00Z</time></trkpt>
<trkpt lat="39.9935727" lon="4.1575427"><ele>120.0</ele><time>2026-05-01T19:10:00Z</time></trkpt>
<trkpt lat="39.9935247" lon="4.2631910"><ele>120.0</ele><time>2026-05-01T19:15:00Z</time></trkpt>
<trkpt lat="39.9934767" lon="4.3688392"><ele>120.0</ele><time>2026-05-01T19:20:00Z</time></trkpt>
<trkpt lat="39.9934288" lon="4.4744873"><ele>120.0</ele><time>2026-05-01T19:25:00Z</time></trkpt>
<trkpt lat="39.9933808" lon="4.5801354"><ele>120.0</ele><time>2026-05-01T19:30:00Z</time></trkpt>
<trkpt lat="39.9933329" lon="4.6857834"><ele>120.0</ele><time>2026-05-01T19:35:00Z</time></trkpt>
<trkpt lat="39.9932849" lon="4.7914313"><ele>120.0</ele><time>2026-05-01T19:40:00Z</time></trkpt>
<trkpt lat="39.9932369" lon="4.8970792"><ele>120.0</ele><time>2026-05-01T19:45:00Z</time></trkpt>
<trkpt lat="39.9931890" lon="5.0027269"><ele>120.0</ele><time>2026-05-01T19:50:00Z</time></trkpt>
<trkpt lat="39.9931410" lon="5.1083746"><ele>120.0</ele><time>2026-05-01T19:55:00Z</time></trkpt>
<trkpt lat="39.9930931" lon="5.2140223"><ele>120.0</ele><time>2026-05-01T20:00:00Z</time></trkpt>
<trkpt lat="39.9930451" lon="5.3196698"><ele>120.0</ele><time>2026-05-01T20:05:00Z</time></trkpt>
<trkpt lat="39.9929971" lon="5.4253173"><ele>120.0</ele><time>2026-05-01T20:10:00Z</time></trkpt>
<trkpt lat="39.9929492" lon="5.5309647"><ele>120.0</ele><time>2026-05-01T20:15:00Z</time></trkpt>
<trkpt lat="39.9929012" lon="5.6366120"><ele>120.0</ele><time>2026-05-01T20:20:00Z</time></trkpt>
<trkpt lat="39.9928533" lon="5.7422593"><ele>120.0</ele><time>2026-05-01T20:25:00Z</time></trkpt>
<trkpt lat="39.9928053" lon="5.8479065"><ele>120.0</ele><time>2026-05-01T20:30:00Z</time></trkpt>
<trkpt lat="39.9927574" lon="5.9535536"><ele>120.0</ele><time>2026-05-01T20:35:00Z</time></trkpt>
<trkpt lat="39.9927094" lon="6.0592006"><ele>120.0</ele><time>2026-05-01T20:40:00Z</time></trkpt>
<trkpt lat="39.9926614" lon="6.1648476"><ele>120.0</ele><time>2026-05-01T20:45:00Z</time></trkpt>
<trkpt lat="39.9926135" lon="6.2704945"><ele>120.0</ele><time>2026-05-01T20:50:00Z</time></trkpt>
<trkpt lat="39.9925655" lon="6.3761413"><ele>120.0</ele><time>2026-05-01T20:55:00Z</time></trkpt>
<trkpt lat="39.9925176" lon="6.4817880"><ele>120.0</ele><time>2026-05-01T21:00:00Z</time></trkpt>
<trkpt lat="39.9924696" lon="6.5874347"><ele>120.0</ele><time>2026-05-01T21:05:00Z</time></trkpt>
<trkpt lat="39.9924216" lon="6.6930813"><ele>120.0</ele><time>2026-05-01T21:10:00Z</time></trkpt>
<trkpt lat="39.9923737" lon="6.7987278"><ele>120.0</ele><time>2026-05-01T21:15:00Z</time></trkpt>
<trkpt lat="39.9923257" lon="6.9043742"><ele>120.0</ele><time>2026-05-01T21:20:00Z</time></trkpt>
<trkpt lat="39.9922778" lon="7.0100206"><ele>120.0</ele><time>2026-05-01T21:25:00Z</time></trkpt>
<trkpt lat="39.9922298" lon="7.1156669"><ele>120.0</ele><time>2026-05-01T21:30:00Z</time></trkpt>
<trkpt lat="39.9921819" lon="7.2213131"><ele>120.0</ele><time>2026-05-01T21:35:00Z</time></trkpt>
<trkpt lat="39.9921339" lon="7.3269592"><ele>120.0</ele><time>2026-05-01T21:40:00Z</time></trkpt>
<trkpt lat="39.9920859" lon="7.4326053"><ele>120.0</ele><time>2026-05-01T21:45:00Z</time></trkpt>
<trkpt lat="39.9920380" lon="7.5382513"><ele>120.0</ele><time>2026-05-01T21:50:00Z</time></trkpt>
<trkpt lat="39.9919900" lon="7.6438972"><ele>120.0</ele><time>2026-05-01T21:55:00Z</time></trkpt>
<trkpt lat="39.9919421" lon="7.7495431"><ele>120.0</ele><time>2026-05-01T22:00:00Z</time></trkpt>
<trkpt lat="39.9918941" lon="7.8551888"><ele>120.0</ele><time>2026-05-01T22:05:00Z</time></trkpt>
<trkpt lat="39.9918462" lon="7.9608345"><ele>120.0</ele><time>2026-05-01T22:10:00Z</time></trkpt>
<trkpt lat="39.9917982" lon="8.0664802"><ele>120.0</ele><time>2026-05-01T22:15:00Z</time></trkpt>
<trkpt lat="39.9917502" lon="8.1721257"><ele>120.0</ele><time>2026-05-01T22:20:00Z</time></trkpt>
<trkpt lat="39.9917023" lon="8.2777712"><ele>120.0</ele><time>2026-05-01T22:25:00Z</time></trkpt>
<trkpt lat="39.9916543" lon="8.3834166"><ele>120.0</ele><time>2026-05-01T22:30:00Z</time></trkpt>
<trkpt lat="39.9916064" lon="8.4890619"><ele>120.0</ele><time>2026-05-01T22:35:00Z</time></trkpt>
<trkpt lat="39.9915584" lon="8.5947072"><ele>120.0</ele><time>2026-05-01T22:40:00Z</time></trkpt>
<trkpt lat="39.9915105" lon="8.7003523"><ele>120.0</ele><time>2026-05-01T22:45:00Z</time></trkpt>
<trkpt lat="39.9914625" lon="8.8059975"><ele>120.0</ele><time>2026-05-01T22:50:00Z</time></trkpt>
<trkpt lat="39.9914145" lon="8.9116425"><ele>120.0</ele><time>2026-05-01T22:55:00Z</time></trkpt>
<trkpt lat="39.9913666" lon="9.0172874"><ele>120.0</ele><time>2026-05-01T23:00:00Z</time></trkpt>
<trkpt lat="39.9913186" lon="9.1229323"><ele>120.0</ele><time>2026-05-01T23:05:00Z</time></trkpt>
<trkpt lat="39.9912707" lon="9.2285771"><ele>120.0</ele><time>2026-05-01T23:10:00Z</time></trkpt>
<trkpt lat="39.9912227" lon="9.3342219"><ele>120.0</ele><time>2026-05-01T23:15:00Z</time></trkpt>
<trkpt lat="39.9911748" lon="9.4398665"><ele>120.0</ele><time>2026-05-01T23:20:00Z</time></trkpt>
<trkpt lat="39.9911268" lon="9.5455111"><ele>120.0</ele><time>2026-05-01T23:25:00Z</time></trkpt>
<trkpt lat="39.9910789" lon="9.6511556"><ele>120.0</ele><time>2026-05-01T23:30:00Z</time></trkpt>
<trkpt lat="39.9910309" lon="9.7568001"><ele>119.9</ele><time>2026-05-01T23:35:00Z</time></trkpt>
<trkpt lat="39.9909829" lon="9.8624444"><ele>119.9</ele><time>2026-05-01T23:40:00Z</time></trkpt>
<trkpt lat="39.9909350" lon="9.9680887"><ele>119.9</ele><time>2026-05-01T23:45:00Z</time></trkpt>
<trkpt lat="39.9908870" lon="10.0737329"><ele>119.9</ele><time>2026-05-01T23:50:00Z</time></trkpt>
<trkpt lat="39.9908391" lon="10.1793771"><ele>119.9</ele><time>2026-05-01T23:55:00Z</time></trkpt>
<trkpt lat="39.9907911" lon="10.2850211"><ele>119.9</ele><time>2026-05-02T00:00:00Z</time></trkpt>
<trkpt lat="39.9907432" lon="10.3906651"><ele>119.9</ele><time>2026-05-02T00:05:00Z</time></trkpt>
<trkpt lat="39.9906952" lon="10.4963090"><ele>119.9</ele><time>2026-05-02T00:10:00Z</time></trkpt>
<trkpt lat="39.9906473" lon="10.6019529"><ele>119.9</ele><time>2026-05-02T00:15:00Z</time></trkpt>
<trkpt lat="39.9905993" lon="10.7075967"><ele>119.9</ele><time>2026-05-02T00:20:00Z</time></trkpt>
<trkpt lat="39.9905514" lon="10.8132404"><ele>119.9</ele><time>2026-05-02T00:25:00Z</time></trkpt>
<trkpt lat="39.9905034" lon="10.9188840"><ele>119.9</ele><time>2026-05-02T00:30:00Z</time></trkpt>
<trkpt lat="39.9904554" lon="11.0245275"><ele>119.9</ele><time>2026-05-02T00:35:00Z</time></trkpt>
<trkpt lat="39.9904075" lon="11.1301710"><ele>119.9</ele><time>2026-05-02T00:40:00Z</time></trkpt>
<trkpt lat="39.9903595" lon="11.2358144"><ele>119.9</ele><time>2026-05-02T00:45:00Z</time></trkpt>
<trkpt lat="39.9903116" lon="11.3414577"><ele>119.9</ele><time>2026-05-02T00:50:00Z</time></trkpt>
<trkpt lat="39.9902636" lon="11.4471010"><ele>119.9</ele><time>2026-05-02T00:55:00Z</time></trkpt>
<trkpt lat="39.9902157" lon="11.5527442"><ele>119.9</ele><time>2026-05-02T01:00:00Z</time></trkpt>
<trkpt lat="39.9901677" lon="11.6583873"><ele>119.9</ele><time>2026-05-02T01:05:00Z</time></trkpt>
<trkpt lat="39.9901198" lon="11.7640303"><ele>119.9</ele><time>2026-05-02T01:10:00Z</time></trkpt>
<trkpt lat="39.9900718" lon="11.8696732"><ele>119.9</ele><time>2026-05-02T01:15:00Z</time></trkpt>
<trkpt lat="39.9900239" lon="11.9753161"><ele>119.9</ele><time>2026-05-02T01:20:00Z</time></trkpt>
<trkpt lat="39.9899759" lon="12.0809589"><ele>119.8</ele><time>2026-05-02T01:25:00Z</time></trkpt>
<trkpt lat="39.9899279" lon="12.1866017"><ele>119.8</ele><time>2026-05-02T01:30:00Z</time></trkpt>
<trkpt lat="39.9898800" lon="12.2922443"><ele>119.8</ele><time>2026-05-02T01:35:00Z</time></trkpt>
<trkpt lat="39.9898320" lon="12.3978869"><ele>119.8</ele><time>2026-05-02T01:40:00Z</time></trkpt>
<trkpt lat="39.9897841" lon="12.5035294"><ele>119.8</ele><time>2026-05-02T01:45:00Z</time></trkpt>
<trkpt lat="39.9897361" lon="12.6091718"><ele>119.8</ele><time>2026-05-02T01:50:00Z</time></trkpt>
<trkpt lat="39.9896882" lon="12.7148142"><ele>119.8</ele><time>2026-05-02T01:55:00Z</time></trkpt>
<trkpt lat="39.9896402" lon="12.8204565"><ele>119.8</ele><time>2026-05-02T02:00:00Z</time></trkpt>
<trkpt lat="39.9895923" lon="12.9260987"><ele>119.8</ele><time>2026-05-02T02:05:00Z</time></trkpt>
<trkpt lat="39.9895443" lon="13.0317408"><ele>119.8</ele><time>2026-05-02T02:10:00Z</time></trkpt>
<trkpt lat="39.9894964" lon="13.1373829"><ele>119.8</ele><time>2026-05-02T02:15:00Z</time></trkpt>
<trkpt lat="39.9894484" lon="13.2430249"><ele>119.8</ele><time>2026-05-02T02:20:00Z</time></trkpt>
<trkpt lat="39.9894005" lon="13.3486668"><ele>119.8</ele><time>2026-05-02T02:25:00Z</time></trkpt>
<trkpt lat="39.9893525" lon="13.4543086"><ele>119.8</ele><time>2026-05-02T02:30:00Z</time></trkpt>
<trkpt lat="39.9893046" lon="13.5599504"><ele>119.7</ele><time>2026-05-02T02:35:00Z</time></trkpt>
<trkpt lat="39.9892566" lon="13.6655921"><ele>119.7</ele><time>2026-05-02T02:40:00Z</time></trkpt>
<trkpt lat="39.9892087" lon="13.7712337"><ele>119.7</ele><time>2026-05-02T02:45:00Z</time></trkpt>
<trkpt lat="39.9891607" lon="13.8768753"><ele>119.7</ele><time>2026-05-02T02:50:00Z</time></trkpt>
<trkpt lat="39.9891128" lon="13.9825167"><ele>119.7</ele><time>2026-05-02T02:55:00Z</time></trkpt>
<trkpt lat="39.9890648" lon="14.0881581"><ele>119.7</ele><time>2026-05-02T03:00:00Z</time></trkpt>
<trkpt lat="39.9890168" lon="14.1937995"><ele>119.7</ele><time>2026-05-02T03:05:00Z</time></trkpt>
<trkpt lat="39.9889689" lon="14.2994407"><ele>119.7</ele><time>2026-05-02T03:10:00Z</time></trkpt>
<trkpt lat="39.9889209" lon="14.4050819"><ele>119.7</ele><time>2026-05-02T03:15:00Z</time></trkpt>
<trkpt lat="39.9888730" lon="14.5107230"><ele>119.7</ele><time>2026-05-02T03:20:00Z</time></trkpt>
<trkpt lat="39.9888250" lon="14.6163640"><ele>119.7</ele><time>2026-05-02T03:25:00Z</time></trkpt>
<trkpt lat="39.9887771" lon="14.7220050"><ele>119.7</ele><time>2026-05-02T03:30:00Z</time></trkpt>
<trkpt lat="39.9887291" lon="14.8276458"><ele>119.7</ele><time>2026-05-02T03:35:00Z</time></trkpt>
<trkpt lat="39.9886812" lon="14.9332866"><ele>119.6</ele><time>2026-05-02T03:40:00Z</time></trkpt>
<trkpt lat="39.9886332" lon="15.0389274"><ele>119.6</ele><time>2026-05-02T03:45:00Z</time></trkpt>
<trkpt lat="39.9885853" lon="15.1445680"><ele>119.6</ele><time>2026-05-02T03:50:00Z</time></trkpt>
<trkpt lat="39.9885373" lon="15.2502086"><ele>119.6</ele><time>2026-05-02T03:55:00Z</time></trkpt>
<trkpt lat="39.9884894" lon="15.3558491"><ele>119.6</ele><time>2026-05-02T04:00:00Z</time></trkpt>
<trkpt lat="39.9884414" lon="15.4614896"><ele>119.6</ele><time>2026-05-02T04:05:00Z</time></trkpt>
<trkpt lat="39.9883935" lon="15.5671299"><ele>119.6</ele><time>2026-05-02T04:10:00Z</time></trkpt>
<trkpt lat="39.9883455" lon="15.6727702"><ele>119.6</ele><time>2026-05-02T04:15:00Z</time></trkpt>
<trkpt lat="39.9882976" lon="15.7784104"><ele>119.6</ele><time>2026-05-02T04:20:00Z</time></trkpt>
<trkpt lat="39.9882496" lon="15.8840505"><ele>119.6</ele><time>2026-05-02T04:25:00Z</time></trkpt>
<trkpt lat="39.9882017" lon="15.9896906"><ele>119.5</ele><time>2026-05-02T04:30:00Z</time></trkpt>
<trkpt lat="39.9881537" lon="16.0953306"><ele>119.5</ele><time>2026-05-02T04:35:00Z</time></trkpt>
<trkpt lat="39.9881058" lon="16.2009705"><ele>119.5</ele><time>2026-05-02T04:40:00Z</time></trkpt>
<trkpt lat="39.9880578" lon="16.3066103"><ele>119.5</ele><time>2026-05-02T04:45:00Z</time></trkpt>
<trkpt lat="39.9880099" lon="16.4122501"><ele>119.5</ele><time>2026-05-02T04:50:00Z</time></trkpt>
<trkpt lat="39.9879619" lon="16.5178898"><ele>119.5</ele><time>2026-05-02T04:55:00Z</time></trkpt>
<trkpt lat="39.9879140" lon="16.6235294"><ele>119.5</ele><time>2026-05-02T05:00:00Z</time></trkpt>
<trkpt lat="39.9878660" lon="16.7291690"><ele>119.5</ele><time>2026-05-02T05:05:00Z</time></trkpt>
<trkpt lat="39.9878181" lon="16.8348084"><ele>119.5</ele><time>2026-05-02T05:10:00Z</time></trkpt>
<trkpt lat="39.9877701" lon="16.9404478"><ele>119.4</ele><time>2026-05-02T05:15:00Z</time></trkpt>
<trkpt lat="39.9877222" lon="17.0460871"><ele>119.4</ele><time>2026-05-02T05:20:00Z</time></trkpt>
<trkpt lat="39.9876742" lon="17.1517264"><ele>119.4</ele><time>2026-05-02T05:25:00Z</time></trkpt>
<trkpt lat="39.9876263" lon="17.2573656"><ele>119.4</ele><time>2026-05-02T05:30:00Z</time></trkpt>
<trkpt lat="39.9875783" lon="17.3630047"><ele>119.4</ele><time>2026-05-02T05:35:00Z</time></trkpt>
<trkpt lat="39.9875304" lon="17.4686437"><ele>119.4</ele><time>2026-05-02T05:40:00Z</time></trkpt>
<trkpt lat="39.9874824" lon="17.5742826"><ele>119.4</ele><time>2026-05-02T05:45:00Z</time></trkpt>
<trkpt lat="39.9874345" lon="17.6799215"><ele>119.4</ele><time>2026-05-02T05:50:00Z</time></trkpt>
<trkpt lat="39.9873865" lon="17.7855603"><ele>119.4</ele><time>2026-05-02T05:55:00Z</time></trkpt>
<trkpt lat="39.9873386" lon="17.8911990"><ele>119.3</ele><time>2026-05-02T06:00:00Z</time></trkpt>
<trkpt lat="39.9872906" lon="17.9968377"><ele>119.3</ele><time>2026-05-02T06:05:00Z</time></trkpt>
<trkpt lat="39.9872427" lon="18.1024763"><ele>119.3</ele><time>2026-05-02T06:10:00Z</time></trkpt>
<trkpt lat="39.9871947" lon="18.2081148"><ele>119.3</ele><time>2026-05-02T06:15:00Z</time></trkpt>
<trkpt lat="39.9871468" lon="18.3137532"><ele>119.3</ele><time>2026-05-02T06:20:00Z</time></trkpt>
<trkpt lat="39.9870988" lon="18.4193916"><ele>119.3</ele><time>2026-05-02T06:25:00Z</time></trkpt>
<trkpt lat="39.9870509" lon="18.5250298"><ele>119.3</ele><time>2026-05-02T06:30:00Z</time></trkpt>
<trkpt lat="39.9870029" lon="18.6306680"><ele>119.3</ele><time>2026-05-02T06:35:00Z</time></trkpt>
<trkpt lat="39.9869550" lon="18.7363062"><ele>119.2</ele><time>2026-05-02T06:40:00Z</time></trkpt>
<trkpt lat="39.9869070" lon="18.8419442"><ele>119.2</ele><time>2026-05-02T06:45:00Z</time></trkpt>
<trkpt lat="39.9868591" lon="18.9475822"><ele>119.2</ele><time>2026-05-02T06:50:00Z</time></trkpt>
<trkpt lat="39.9868111" lon="19.0532201"><ele>119.2</ele><time>2026-05-02T06:55:00Z</time></trkpt>
<trkpt lat="39.9867632" lon="19.1588580"><ele>119.2</ele><time>2026-05-02T07:00:00Z</time></trkpt>
<trkpt lat="39.9867152" lon="19.2644957"><ele>119.2</ele><time>2026-05-02T07:05:00Z</time></trkpt>
<trkpt lat="39.9866673" lon="19.3701334"><ele>119.2</ele><time>2026-05-02T07:10:00Z</time></trkpt>
<trkpt lat="39.9866193" lon="19.4757710"><ele>119.1</ele><time>2026-05-02T07:15:00Z</time></trkpt>
<trkpt lat="39.9865714" lon="19.5814086"><ele>119.1</ele><time>2026-05-02T07:20:00Z</time></trkpt>
<trkpt lat="39.9865235" lon="19.6870461"><ele>119.1</ele><time>2026-05-02T07:25:00Z</time></trkpt>
<trkpt lat="39.9864755" lon="19.7926834"><ele>119.1</ele><time>2026-05-02T07:30:00Z</time></trkpt>
<trkpt lat="39.9864276" lon="19.8983208"><ele>119.1</ele><time>2026-05-02T07:35:00Z</time></trkpt>
<trkpt lat="39.9863796" lon="20.0039580"><ele>119.1</ele><time>2026-05-02T07:40:00Z</time></trkpt>
<trkpt lat="39.9863317" lon="20.1095952"><ele>119.1</ele><time>2026-05-02T07:45:00Z</time></trkpt>
<trkpt lat="39.9862837" lon="20.2152323"><ele>119.0</ele><time>2026-05-02T07:50:00Z</time></trkpt>
<trkpt lat="39.9862358" lon="20.3208693"><ele>119.0</ele><time>2026-05-02T07:55:00Z</time></trkpt>
<trkpt lat="39.9861878" lon="20.4265062"><ele>119.0</ele><time>2026-05-02T08:00:00Z</time></trkpt>
<trkpt lat="39.9861499" lon="20.5204057"><ele>119.0</ele><time>2026-05-02T08:04:26Z</time></trkpt>
</trkseg></trk></gpx>
