<?xml version="1.0" encoding="UTF-8"?>
<gpx version="1.1" creator="sobrevoo-samples" xmlns="http://www.topografix.com/GPX/1/1">
<trk><name>longa.gpx</name><trkseg>
<trkpt lat="52.5200000" lon="13.4050000"><ele>92.7</ele><time>2026-05-01T08:00:00Z</time></trkpt>
<trkpt lat="52.5164506" lon="13.4028771"><ele>89.6</ele><time>2026-05-01T08:01:00Z</time></trkpt>
<trkpt lat="52.5129133" lon="13.4007007"><ele>86.7</ele><time>2026-05-01T08:02:00Z</time></trkpt>
<trkpt lat="52.5093883" lon="13.3984713"><ele>84.3</ele><time>2026-05-01T08:03:00Z</time></trkpt>
<trkpt lat="52.5058758" lon="13.3961893"><ele>82.4</ele><time>2026-05-01T08:04:00Z</time></trkpt>
<trkpt lat="52.5023760" lon="13.3938552"><ele>81.0</ele><time>2026-05-01T08:05:00Z</time></trkpt>
<trkpt lat="52.4988891" lon="13.3914700"><ele>80.2</ele><time>2026-05-01T08:06:00Z</time></trkpt>
<trkpt lat="52.4954151" lon="13.3890346"><ele>80.0</ele><time>2026-05-01T08:07:00Z</time></trkpt>
<trkpt lat="52.4919541" lon="13.3865499"><ele>80.4</ele><time>2026-05-01T08:08:00Z</time></trkpt>
<trkpt lat="52.4885061" lon="13.3840172"><ele>81.4</ele><time>2026-05-01T08:09:00Z</time></trkpt>
<trkpt lat="52.4850711" lon="13.3814378"><ele>82.9</ele><time>2026-05-01T08:10:00Z</time></trkpt>
<trkpt lat="52.4816488" lon="13.3788132"><ele>84.9</ele><time>2026-05-01T08:11:00Z</time></trkpt>
<trkpt lat="52.4782391" lon="13.3761448"><ele>87.4</ele><time>2026-05-01T08:12:00Z</time></trkpt>
<trkpt lat="52.4748419" lon="13.3734344"><ele>90.2</ele><time>2026-05-01T08:13:00Z</time></trkpt>
<trkpt lat="52.4714567" lon="13.3706836"><ele>93.3</ele><time>2026-05-01T08:14:00Z</time></trkpt>
<trkpt lat="52.4680833" lon="13.3678944"><ele>96.5</ele><time>2026-05-01T08:15:00Z</time></trkpt>
<trkpt lat="52.4647213" lon="13.3650687"><ele>99.9</ele><time>2026-05-01T08:16:00Z</time></trkpt>
<trkpt lat="52.4613701" lon="13.3622085"><ele>103.2</ele><time>2026-05-01T08:17:00Z</time></trkpt>
<trkpt lat="52.4580294" lon="13.3593160"><ele>106.5</ele><time>2026-05-01T08:18:00Z</time></trkpt>
<trkpt lat="52.4546985" lon="13.3563932"><ele>109.5</ele><time>2026-05-01T08:19:00Z</time></trkpt>
<trkpt lat="52.4513768" lon="13.3534426"><ele>112.3</ele><time>2026-05-01T08:20:00Z</time></trkpt>
<trkpt lat="52.4480637" lon="13.3504663"><ele>114.7</ele><time>2026-05-01T08:21:00Z</time></trkpt>
<trkpt lat="52.4447585" lon="13.3474668"><ele>116.7</ele><time>2026-05-01T08:22:00Z</time></trkpt>
<trkpt lat="52.4414604" lon="13.3444464"><ele>118.3</ele><time>2026-05-01T08:23:00Z</time></trkpt>
<trkpt lat="52.4381687" lon="13.3414076"><ele>119.4</ele><time>2026-05-01T08:24:00Z</time></trkpt>
<trkpt lat="52.4348826" lon="13.3383529"><ele>119.9</ele><time>2026-05-01T08:25:00Z</time></trkpt>
<trkpt lat="52.4316011" lon="13.3352849"><ele>119.9</ele><time>2026-05-01T08:26:00Z</time></trkpt>
<trkpt lat="52.4283235" lon="13.3322060"><ele>119.4</ele><time>2026-05-01T08:27:00Z</time></trkpt>
<trkpt lat="52.4250489" lon="13.3291189"><ele>118.4</ele><time>2026-05-01T08:28:00Z</time></trkpt>
<trkpt lat="52.4217763" lon="13.3260262"><ele>116.8</ele><time>2026-05-01T08:29:00Z</time></trkpt>
<trkpt lat="52.4185049" lon="13.3229303"><ele>114.9</ele><time>2026-05-01T08:30:00Z</time></trkpt>
<trkpt lat="52.4152337" lon="13.3198340"><ele>112.5</ele><time>2026-05-01T08:31:00Z</time></trkpt>
<trkpt lat="52.4119618" lon="13.3167399"><ele>109.8</ele><time>2026-05-01T08:32:00Z</time></trkpt>
<trkpt lat="52.4086884" lon="13.3136505"><ele>106.8</ele><time>2026-05-01T08:33:00Z</time></trkpt>
<trkpt lat="52.4054125" lon="13.3105685"><ele>103.6</ele><time>2026-05-01T08:34:00Z</time></trkpt>
<trkpt lat="52.4021331" lon="13.3074964"><ele>100.4</ele><time>2026-05-01T08:35:00Z</time></trkpt>
<trkpt lat="52.3988495" lon="13.3044368"><ele>97.1</ele><time>2026-05-01T08:36:00Z</time></trkpt>
<trkpt lat="52.3955608" lon="13.3013922"><ele>93.9</ele><time>2026-05-01T08:37:00Z</time></trkpt>
<trkpt lat="52.3922662" lon="13.2983651"><ele>90.9</ele><time>2026-05-01T08:38:00Z</time></trkpt>
<trkpt lat="52.3889648" lon="13.2953581"><ele>88.1</ele><time>2026-05-01T08:39:00Z</time></trkpt>
<trkpt lat="52.3856559" lon="13.2923734"><ele>85.6</ele><time>2026-05-01T08:40:00Z</time></trkpt>
<trkpt lat="52.3823388" lon="13.2894136"><ele>83.5</ele><time>2026-05-01T08:41:00Z</time></trkpt>
<trkpt lat="52.3790128" lon="13.2864809"><ele>81.8</ele><time>2026-05-01T08:42:00Z</time></trkpt>
<trkpt lat="52.3756773" lon="13.2835775"><ele>80.7</ele><time>2026-05-01T08:43:00Z</time></trkpt>
<trkpt lat="52.3723317" lon="13.2807058"><ele>80.1</ele><time>2026-05-01T08:44:00Z</time></trkpt>
<trkpt lat="52.3689754" lon="13.2778679"><ele>80.0</ele><time>2026-05-01T08:45:00Z</time></trkpt>
<trkpt lat="52.3656080" lon="13.2750657"><ele>80.6</ele><time>2026-05-01T08:46:00Z</time></trkpt>
<trkpt lat="52.3622291" lon="13.2723013"><ele>81.6</ele><time>2026-05-01T08:47:00Z</time></trkpt>
<trkpt lat="52.3588382" lon="13.2695766"><ele>83.2</ele><time>2026-05-01T08:48:00Z</time></trkpt>
<trkpt lat="52.3554351" lon="13.2668933"><ele>85.3</ele><time>2026-05-01T08:49:00Z</time></trkpt>
<trkpt lat="52.3520194" lon="13.2642532"><ele>87.8</ele><time>2026-05-01T08:50:00Z</time></trkpt>
<trkpt lat="52.3485911" lon="13.2616579"><ele>90.7</ele><time>2026-05-01T08:51:00Z</time></trkpt>
<trkpt lat="52.3451499" lon="13.2591088"><ele>93.9</ele><time>2026-05-01T08:52:00Z</time></trkpt>
<trkpt lat="52.3416957" lon="13.2566072"><ele>97.2</ele><time>2026-05-01T08:53:00Z</time></trkpt>
<trkpt lat="52.3382285" lon="13.2541545"><ele>100.7</ele><time>2026-05-01T08:54:00Z</time></trkpt>
<trkpt lat="52.3347484" lon="13.2517517"><ele>104.2</ele><time>2026-05-01T08:55:00Z</time></trkpt>
<trkpt lat="52.3312553" lon="13.2493998"><ele>107.5</ele><time>2026-05-01T08:56:00Z</time></trkpt>
<trkpt lat="52.3277495" lon="13.2470997"><ele>110.6</ele><time>2026-05-01T08:57:00Z</time></trkpt>
<trkpt lat="52.3242310" lon="13.2448520"><ele>113.4</ele><time>2026-05-01T08:58:00Z</time></trkpt>
<trkpt lat="52.3207001" lon="13.2426573"><ele>115.8</ele><time>2026-05-01T08:59:00Z</time></trkpt>
<trkpt lat="52.3171570" lon="13.2405159"><ele>117.7</ele><time>2026-05-01T09:00:00Z</time></trkpt>
<trkpt lat="52.3136020" lon="13.2384283"><ele>119.1</ele><time>2026-05-01T09:01:00Z</time></trkpt>
<trkpt lat="52.3100354" lon="13.2363943"><ele>119.8</ele><time>2026-05-01T09:02:00Z</time></trkpt>
<trkpt lat="52.3064575" lon="13.2344141"><ele>120.0</ele><time>2026-05-01T09:03:00Z</time></trkpt>
<trkpt lat="52.3028688" lon="13.2324873"><ele>119.5</ele><time>2026-05-01T09:04:00Z</time></trkpt>
<trkpt lat="52.2992696" lon="13.2306136"><ele>118.3</ele><time>2026-05-01T09:05:00Z</time></trkpt>
<trkpt lat="52.2956604" lon="13.2287925"><ele>116.6</ele><time>2026-05-01T09:06:00Z</time></trkpt>
<trkpt lat="52.2920416" lon="13.2270232"><ele>114.3</ele><time>2026-05-01T09:07:00Z</time></trkpt>
<trkpt lat="52.2884136" lon="13.2253051"><ele>111.5</ele><time>2026-05-01T09:08:00Z</time></trkpt>
<trkpt lat="52.2847769" lon="13.2236369"><ele>108.4</ele><time>2026-05-01T09:09:00Z</time></trkpt>
<trkpt lat="52.2811319" lon="13.2220177"><ele>105.0</ele><time>2026-05-01T09:10:00Z</time></trkpt>
<trkpt lat="52.2774792" lon="13.2204461"><ele>101.4</ele><time>2026-05-01T09:11:00Z</time></trkpt>
<trkpt lat="52.2738192" lon="13.2189207"><ele>97.7</ele><time>2026-05-01T09:12:00Z</time></trkpt>
<trkpt lat="52.2701523" lon="13.2174399"><ele>94.1</ele><time>2026-05-01T09:13:00Z</time></trkpt>
<trkpt lat="52.2664791" lon="13.2160020"><ele>90.7</ele><time>2026-05-01T09:14:00Z</time></trkpt>
<trkpt lat="52.2628000" lon="13.2146052"><ele>87.7</ele><time>2026-05-01T09:15:00Z</time></trkpt>
<trkpt lat="52.2591154" lon="13.2132475"><ele>85.0</ele><time>2026-05-01T09:16:00Z</time></trkpt>
<trkpt lat="52.2554258" lon="13.2119268"><ele>82.8</ele><time>2026-05-01T09:17:00Z</time></trkpt>
<trkpt lat="52.2517316" lon="13.2106409"><ele>81.2</ele><time>2026-05-01T09:18:00Z</time></trkpt>
<trkpt lat="52.2480332" lon="13.2093875"><ele>80.3</ele><time>2026-05-01T09:19:00Z</time></trkpt>
<trkpt lat="52.2443310" lon="13.2081642"><ele>80.0</ele><time>2026-05-01T09:20:00Z</time></trkpt>
<trkpt lat="52.2406255" lon="13.2069685"><ele>80.4</ele><time>2026-05-01T09:21:00Z</time></trkpt>
<trkpt lat="52.2369170" lon="13.2057978"><ele>81.5</ele><time>2026-05-01T09:22:00Z</time></trkpt>
<trkpt lat="52.2332059" lon="13.2046496"><ele>83.2</ele><time>2026-05-01T09:23:00Z</time></trkpt>
<trkpt lat="52.2294925" lon="13.2035210"><ele>85.5</ele><time>2026-05-01T09:24:00Z</time></trkpt>
<trkpt lat="52.2257773" lon="13.2024093"><ele>88.3</ele><time>2026-05-01T09:25:00Z</time></trkpt>
<trkpt lat="52.2220605" lon="13.2013116"><ele>91.5</ele><time>2026-05-01T09:26:00Z</time></trkpt>
<trkpt lat="52.2183424" lon="13.2002251"><ele>95.0</ele><time>2026-05-01T09:27:00Z</time></trkpt>
<trkpt lat="52.2146235" lon="13.1991470"><ele>98.6</ele><time>2026-05-01T09:28:00Z</time></trkpt>
<trkpt lat="52.2109040" lon="13.1980741"><ele>102.4</ele><time>2026-05-01T09:29:00Z</time></trkpt>
<trkpt lat="52.2071842" lon="13.1970037"><ele>106.0</ele><time>2026-05-01T09:30:00Z</time></trkpt>
<trkpt lat="52.2034645" lon="13.1959327"><ele>109.4</ele><time>2026-05-01T09:31:00Z</time></trkpt>
<trkpt lat="52.1997452" lon="13.1948582"><ele>112.5</ele><time>2026-05-01T09:32:00Z</time></trkpt>
<trkpt lat="52.1960266" lon="13.1937774"><ele>115.2</ele><time>2026-05-01T09:33:00Z</time></trkpt>
<trkpt lat="52.1923091" lon="13.1926871"><ele>117.3</ele><time>2026-05-01T09:34:00Z</time></trkpt>
<trkpt lat="52.1885929" lon="13.1915847"><ele>118.9</ele><time>2026-05-01T09:35:00Z</time></trkpt>
<trkpt lat="52.1848784" lon="13.1904671"><ele>119.8</ele><time>2026-05-01T09:36:00Z</time></trkpt>
<trkpt lat="52.1811659" lon="13.1893317"><ele>120.0</ele><time>2026-05-01T09:37:00Z</time></trkpt>
<trkpt lat="52.1774559" lon="13.1881757"><ele>119.5</ele><time>2026-05-01T09:38:00Z</time></trkpt>
<trkpt lat="52.1737486" lon="13.1869964"><ele>118.4</ele><time>2026-05-01T09:39:00Z</time></trkpt>
<trkpt lat="52.1700445" lon="13.1857911"><ele>116.6</ele><time>2026-05-01T09:40:00Z</time></trkpt>
<trkpt lat="52.1663439" lon="13.1845574"><ele>114.3</ele><time>2026-05-01T09:41:00Z</time></trkpt>
<trkpt lat="52.1626473" lon="13.1832929"><ele>111.5</ele><time>2026-05-01T09:42:00Z</time></trkpt>
<trkpt lat="52.1589550" lon="13.1819951"><ele>108.3</ele><time>2026-05-01T09:43:00Z</time></trkpt>
<trkpt lat="52.1552675" lon="13.1806618"><ele>104.8</ele><time>2026-05-01T09:44:00Z</time></trkpt>
<trkpt lat="52.1515852" lon="13.1792909"><ele>101.1</ele><time>2026-05-01T09:45:00Z</time></trkpt>
<trkpt lat="52.1479085" lon="13.1778805"><ele>97.5</ele><time>2026-05-01T09:46:00Z</time></trkpt>
<trkpt lat="52.1442379" lon="13.1764284"><ele>93.9</ele><time>2026-05-01T09:47:00Z</time></trkpt>
<trkpt lat="52.1405740" lon="13.1749332"><ele>90.5</ele><time>2026-05-01T09:48:00Z</time></trkpt>
<trkpt lat="52.1369170" lon="13.1733930"><ele>87.5</ele><time>2026-05-01T09:49:00Z</time></trkpt>
<trkpt lat="52.1332676" lon="13.1718063"><ele>84.9</ele><time>2026-05-01T09:50:00Z</time></trkpt>
<trkpt lat="52.1296261" lon="13.1701719"><ele>82.7</ele><time>2026-05-01T09:51:00Z</time></trkpt>
<trkpt lat="52.1259931" lon="13.1684886"><ele>81.2</ele><time>2026-05-01T09:52:00Z</time></trkpt>
<trkpt lat="52.1223689" lon="13.1667552"><ele>80.3</ele><time>2026-05-01T09:53:00Z</time></trkpt>
<trkpt lat="52.1187542" lon="13.1649708"><ele>80.0</ele><time>2026-05-01T09:54:00Z</time></trkpt>
<trkpt lat="52.1151492" lon="13.1631348"><ele>80.4</ele><time>2026-05-01T09:55:00Z</time></trkpt>
<trkpt lat="52.1115545" lon="13.1612465"><ele>81.4</ele><time>2026-05-01T09:56:00Z</time></trkpt>
<trkpt lat="52.1079704" lon="13.1593054"><ele>83.0</ele><time>2026-05-01T09:57:00Z</time></trkpt>
<trkpt lat="52.1043973" lon="13.1573113"><ele>85.1</ele><time>2026-05-01T09:58:00Z</time></trkpt>
<trkpt lat="52.1008356" lon="13.1552641"><ele>87.7</ele><time>2026-05-01T09:59:00Z</time></trkpt>
<trkpt lat="52.0972857" lon="13.1531637"><ele>90.7</ele><time>2026-05-01T10:00:00Z</time></trkpt>
<trkpt lat="52.0937478" lon="13.1510104"><ele>94.0</ele><time>2026-05-01T10:01:00Z</time></trkpt>
<trkpt lat="52.0902222" lon="13.1488045"><ele>97.4</ele><time>2026-05-01T10:02:00Z</time></trkpt>
<trkpt lat="52.0867091" lon="13.1465464"><ele>100.9</ele><time>2026-05-01T10:03:00Z</time></trkpt>
<trkpt lat="52.0832087" lon="13.1442368"><ele>104.4</ele><time>2026-05-01T10:04:00Z</time></trkpt>
<trkpt lat="52.0797211" lon="13.1418765"><ele>107.7</ele><time>2026-05-01T10:05:00Z</time></trkpt>
<trkpt lat="52.0762466" lon="13.1394663"><ele>110.8</ele><time>2026-05-01T10:06:00Z</time></trkpt>
<trkpt lat="52.0727850" lon="13.1370073"><ele>113.5</ele><time>2026-05-01T10:07:00Z</time></trkpt>
<trkpt lat="52.0693364" lon="13.1345007"><ele>115.8</ele><time>2026-05-01T10:08:00Z</time></trkpt>
<trkpt lat="52.0659007" lon="13.1319478"><ele>117.7</ele><time>2026-05-01T10:09:00Z</time></trkpt>
<trkpt lat="52.0624778" lon="13.1293500"><ele>119.0</ele><time>2026-05-01T10:10:00Z</time></trkpt>
<trkpt lat="52.0590675" lon="13.1267087"><ele>119.8</ele><time>2026-05-01T10:11:00Z</time></trkpt>
<trkpt lat="52.0556697" lon="13.1240257"><ele>120.0</ele><time>2026-05-01T10:12:00Z</time></trkpt>
<trkpt lat="52.0522840" lon="13.1213027"><ele>119.6</ele><time>2026-05-01T10:13:00Z</time></trkpt>
<trkpt lat="52.0489100" lon="13.1185415"><ele>118.7</ele><time>2026-05-01T10:14:00Z</time></trkpt>
<trkpt lat="52.0455474" lon="13.1157441"><ele>117.2</ele><time>2026-05-01T10:15:00Z</time></trkpt>
<trkpt lat="52.0421958" lon="13.1129124"><ele>115.3</ele><time>2026-05-01T10:16:00Z</time></trkpt>
<trkpt lat="52.0388546" lon="13.1100486"><ele>112.9</ele><time>2026-05-01T10:17:00Z</time></trkpt>
<trkpt lat="52.0355232" lon="13.1071547"><ele>110.2</ele><time>2026-05-01T10:18:00Z</time></trkpt>
<trkpt lat="52.0322011" lon="13.1042331"><ele>107.3</ele><time>2026-05-01T10:19:00Z</time></trkpt>
<trkpt lat="52.0288876" lon="13.1012859"><ele>104.1</ele><time>2026-05-01T10:20:00Z</time></trkpt>
<trkpt lat="52.0255821" lon="13.0983156"><ele>100.8</ele><time>2026-05-01T10:21:00Z</time></trkpt>
<trkpt lat="52.0222837" lon="13.0953246"><ele>97.5</ele><time>2026-05-01T10:22:00Z</time></trkpt>
<trkpt lat="52.0189917" lon="13.0923152"><ele>94.3</ele><time>2026-05-01T10:23:00Z</time></trkpt>
<trkpt lat="52.0157053" lon="13.0892899"><ele>91.2</ele><time>2026-05-01T10:24:00Z</time></trkpt>
<trkpt lat="52.0124236" lon="13.0862513"><ele>88.4</ele><time>2026-05-01T10:25:00Z</time></trkpt>
<trkpt lat="52.0091458" lon="13.0832018"><ele>85.9</ele><time>2026-05-01T10:26:00Z</time></trkpt>
<trkpt lat="52.0058711" lon="13.0801440"><ele>83.8</ele><time>2026-05-01T10:27:00Z</time></trkpt>
<trkpt lat="52.0025984" lon="13.0770805"><ele>82.1</ele><time>2026-05-01T10:28:00Z</time></trkpt>
<trkpt lat="51.9993270" lon="13.0740139"><ele>80.9</ele><time>2026-05-01T10:29:00Z</time></trkpt>
<trkpt lat="51.9960558" lon="13.0709466"><ele>80.2</ele><time>2026-05-01T10:30:00Z</time></trkpt>
<trkpt lat="51.9927840" lon="13.0678814"><ele>80.0</ele><time>2026-05-01T10:31:00Z</time></trkpt>
<trkpt lat="51.9895107" lon="13.0648208"><ele>80.4</ele><time>2026-05-01T10:32:00Z</time></trkpt>
<trkpt lat="51.9862349" lon="13.0617673"><ele>81.3</ele><time>2026-05-01T10:33:00Z</time></trkpt>
<trkpt lat="51.9829557" lon="13.0587235"><ele>82.6</ele><time>2026-05-01T10:34:00Z</time></trkpt>
<trkpt lat="51.9796723" lon="13.0556919"><ele>84.5</ele><time>2026-05-01T10:35:00Z</time></trkpt>
<trkpt lat="51.9763839" lon="13.0526752"><ele>86.8</ele><time>2026-05-01T10:36:00Z</time></trkpt>
<trkpt lat="51.9730895" lon="13.0496756"><ele>89.4</ele><time>2026-05-01T10:37:00Z</time></trkpt>
<trkpt lat="51.9697885" lon="13.0466958"><ele>92.4</ele><time>2026-05-01T10:38:00Z</time></trkpt>
<trkpt lat="51.9664800" lon="13.0437380"><ele>95.5</ele><time>2026-05-01T10:39:00Z</time></trkpt>
<trkpt lat="51.9631633" lon="13.0408047"><ele>98.8</ele><time>2026-05-01T10:40:00Z</time></trkpt>
<trkpt lat="51.9598378" lon="13.0378982"><ele>102.1</ele><time>2026-05-01T10:41:00Z</time></trkpt>
<trkpt lat="51.9565027" lon="13.0350207"><ele>105.4</ele><time>2026-05-01T10:42:00Z</time></trkpt>
<trkpt lat="51.9531576" lon="13.0321743"><ele>108.5</ele><time>2026-05-01T10:43:00Z</time></trkpt>
<trkpt lat="51.9498019" lon="13.0293613"><ele>111.4</ele><time>2026-05-01T10:44:00Z</time></trkpt>
<trkpt lat="51.9464350" lon="13.0265837"><ele>114.0</ele><time>2026-05-01T10:45:00Z</time></trkpt>
<trkpt lat="51.9430566" lon="13.0238434"><ele>116.2</ele><time>2026-05-01T10:46:00Z</time></trkpt>
<trkpt lat="51.9396663" lon="13.0211423"><ele>117.9</ele><time>2026-05-01T10:47:00Z</time></trkpt>
<trkpt lat="51.9362638" lon="13.0184822"><ele>119.2</ele><time>2026-05-01T10:48:00Z</time></trkpt>
<trkpt lat="51.9328487" lon="13.0158648"><ele>119.9</ele><time>2026-05-01T10:49:00Z</time></trkpt>
<trkpt lat="51.9294210" lon="13.0132916"><ele>120.0</ele><time>2026-05-01T10:50:00Z</time></trkpt>
<trkpt lat="51.9259804" lon="13.0107642"><ele>119.5</ele><time>2026-05-01T10:51:00Z</time></trkpt>
<trkpt lat="51.9225268" lon="13.0082838"><ele>118.4</ele><time>2026-05-01T10:52:00Z</time></trkpt>
<trkpt lat="51.9190603" lon="13.0058517"><ele>116.8</ele><time>2026-05-01T10:53:00Z</time></trkpt>
<trkpt lat="51.9155807" lon="13.0034691"><ele>114.7</ele><time>2026-05-01T10:54:00Z</time></trkpt>
<trkpt lat="51.9120883" lon="13.0011368"><ele>112.1</ele><time>2026-05-01T10:55:00Z</time></trkpt>
<trkpt lat="51.9085831" lon="12.9988557"><ele>109.1</ele><time>2026-05-01T10:56:00Z</time></trkpt>
<trkpt lat="51.9050652" lon="12.9966266"><ele>105.9</ele><time>2026-05-01T10:57:00Z</time></trkpt>
<trkpt lat="51.9015348" lon="12.9944499"><ele>102.4</ele><time>2026-05-01T10:58:00Z</time></trkpt>
<trkpt lat="51.8979923" lon="12.9923261"><ele>98.9</ele><time>2026-05-01T10:59:00Z</time></trkpt>
<trkpt lat="51.8944379" lon="12.9902554"><ele>95.4</ele><time>2026-05-01T11:00:00Z</time></trkpt>
<trkpt lat="51.8908718" lon="12.9882380"><ele>92.0</ele><time>2026-05-01T11:01:00Z</time></trkpt>
<trkpt lat="51.8872945" lon="12.9862737"><ele>88.9</ele><time>2026-05-01T11:02:00Z</time></trkpt>
<trkpt lat="51.8837063" lon="12.9843624"><ele>86.1</ele><time>2026-05-01T11:03:00Z</time></trkpt>
<trkpt lat="51.8801076" lon="12.9825038"><ele>83.7</ele><time>2026-05-01T11:04:00Z</time></trkpt>
<trkpt lat="51.8764989" lon="12.9806972"><ele>81.9</ele><time>2026-05-01T11:05:00Z</time></trkpt>
<trkpt lat="51.8728805" lon="12.9789421"><ele>80.7</ele><time>2026-05-01T11:06:00Z</time></trkpt>
<trkpt lat="51.8692529" lon="12.9772376"><ele>80.1</ele><time>2026-05-01T11:07:00Z</time></trkpt>
<trkpt lat="51.8656166" lon="12.9755827"><ele>80.1</ele><time>2026-05-01T11:08:00Z</time></trkpt>
<trkpt lat="51.8619720" lon="12.9739764"><ele>80.8</ele><time>2026-05-01T11:09:00Z</time></trkpt>
<trkpt lat="51.8583197" lon="12.9724173"><ele>82.2</ele><time>2026-05-01T11:10:00Z</time></trkpt>
<trkpt lat="51.8546600" lon="12.9709040"><ele>84.1</ele><time>2026-05-01T11:11:00Z</time></trkpt>
<trkpt lat="51.8509935" lon="12.9694349"><ele>86.6</ele><time>2026-05-01T11:12:00Z</time></trkpt>
<trkpt lat="51.8473205" lon="12.9680085"><ele>89.5</ele><time>2026-05-01T11:13:00Z</time></trkpt>
<trkpt lat="51.8436417" lon="12.9666228"><ele>92.8</ele><time>2026-05-01T11:14:00Z</time></trkpt>
<trkpt lat="51.8399573" lon="12.9652760"><ele>96.3</ele><time>2026-05-01T11:15:00Z</time></trkpt>
<trkpt lat="51.8362679" lon="12.9639659"><ele>100.0</ele><time>2026-05-01T11:16:00Z</time></trkpt>
<trkpt lat="51.8325739" lon="12.9626904"><ele>103.7</ele><time>2026-05-01T11:17:00Z</time></trkpt>
<trkpt lat="51.8288757" lon="12.9614472"><ele>107.2</ele><time>2026-05-01T11:18:00Z</time></trkpt>
<trkpt lat="51.8251737" lon="12.9602340"><ele>110.5</ele><time>2026-05-01T11:19:00Z</time></trkpt>
<trkpt lat="51.8214684" lon="12.9590482"><ele>113.5</ele><time>2026-05-01T11:20:00Z</time></trkpt>
<trkpt lat="51.8177600" lon="12.9578874"><ele>116.0</ele><time>2026-05-01T11:21:00Z</time></trkpt>
<trkpt lat="51.8140490" lon="12.9567489"><ele>117.9</ele><time>2026-05-01T11:22:00Z</time></trkpt>
<trkpt lat="51.8103358" lon="12.9556299"><ele>119.3</ele><time>2026-05-01T11:23:00Z</time></trkpt>
<trkpt lat="51.8066206" lon="12.9545279"><ele>119.9</ele><time>2026-05-01T11:24:00Z</time></trkpt>
<trkpt lat="51.8029038" lon="12.9534398"><ele>119.9</ele><time>2026-05-01T11:25:00Z</time></trkpt>
<trkpt lat="51.7991858" lon="12.9523630"><ele>119.2</ele><time>2026-05-01T11:26:00Z</time></trkpt>
<trkpt lat="51.7954669" lon="12.9512946"><ele>117.8</ele><time>2026-05-01T11:27:00Z</time></trkpt>
<trkpt lat="51.7917474" lon="12.9502316"><ele>115.9</ele><time>2026-05-01T11:28:00Z</time></trkpt>
<trkpt lat="51.7880277" lon="12.9491711"><ele>113.3</ele><time>2026-05-01T11:29:00Z</time></trkpt>
<trkpt lat="51.7843080" lon="12.9481102"><ele>110.3</ele><time>2026-05-01T11:30:00Z</time></trkpt>
<trkpt lat="51.7805887" lon="12.9470459"><ele>107.0</ele><time>2026-05-01T11:31:00Z</time></trkpt>
<trkpt lat="51.7768700" lon="12.9459755"><ele>103.4</ele><time>2026-05-01T11:32:00Z</time></trkpt>
<trkpt lat="51.7731524" lon="12.9448959"><ele>99.7</ele><time>2026-05-01T11:33:00Z</time></trkpt>
<trkpt lat="51.7694361" lon="12.9438044"><ele>96.0</ele><time>2026-05-01T11:34:00Z</time></trkpt>
<trkpt lat="51.7657216" lon="12.9426980"><ele>92.5</ele><time>2026-05-01T11:35:00Z</time></trkpt>
<trkpt lat="51.7620090" lon="12.9415741"><ele>89.2</ele><time>2026-05-01T11:36:00Z</time></trkpt>
<trkpt lat="51.7582989" lon="12.9404299"><ele>86.3</ele><time>2026-05-01T11:37:00Z</time></trkpt>
<trkpt lat="51.7545915" lon="12.9392627"><ele>83.8</ele><time>2026-05-01T11:38:00Z</time></trkpt>
<trkpt lat="51.7508872" lon="12.9380699"><ele>81.9</ele><time>2026-05-01T11:39:00Z</time></trkpt>
<trkpt lat="51.7471864" lon="12.9368491"><ele>80.7</ele><time>2026-05-01T11:40:00Z</time></trkpt>
<trkpt lat="51.7434896" lon="12.9355978"><ele>80.1</ele><time>2026-05-01T11:41:00Z</time></trkpt>
<trkpt lat="51.7397971" lon="12.9343137"><ele>80.1</ele><time>2026-05-01T11:42:00Z</time></trkpt>
<trkpt lat="51.7361093" lon="12.9329946"><ele>80.9</ele><time>2026-05-01T11:43:00Z</time></trkpt>
<trkpt lat="51.7324267" lon="12.9316383"><ele>82.3</ele><time>2026-05-01T11:44:00Z</time></trkpt>
<trkpt lat="51.7287498" lon="12.9302429"><ele>84.3</ele><time>2026-05-01T11:45:00Z</time></trkpt>
<trkpt lat="51.7250789" lon="12.9288064"><ele>86.8</ele><time>2026-05-01T11:46:00Z</time></trkpt>
<trkpt lat="51.7214146" lon="12.9273271"><ele>89.7</ele><time>2026-05-01T11:47:00Z</time></trkpt>
<trkpt lat="51.7177573" lon="12.9258033"><ele>93.0</ele><time>2026-05-01T11:48:00Z</time></trkpt>
<trkpt lat="51.7141075" lon="12.9242337"><ele>96.5</ele><time>2026-05-01T11:49:00Z</time></trkpt>
<trkpt lat="51.7104657" lon="12.9226168"><ele>100.1</ele><time>2026-05-01T11:50:00Z</time></trkpt>
<trkpt lat="51.7068322" lon="12.9209514"><ele>103.8</ele><time>2026-05-01T11:51:00Z</time></trkpt>
<trkpt lat="51.7032077" lon="12.9192365"><ele>107.2</ele><time>2026-05-01T11:52:00Z</time></trkpt>
<trkpt lat="51.6995924" lon="12.9174712"><ele>110.5</ele><time>2026-05-01T11:53:00Z</time></trkpt>
<trkpt lat="51.6959870" lon="12.9156547"><ele>113.4</ele><time>2026-05-01T11:54:00Z</time></trkpt>
<trkpt lat="51.6923918" lon="12.9137863"><ele>115.8</ele><time>2026-05-01T11:55:00Z</time></trkpt>
<trkpt lat="51.6888071" lon="12.9118658"><ele>117.7</ele><time>2026-05-01T11:56:00Z</time></trkpt>
<trkpt lat="51.6852335" lon="12.9098927"><ele>119.1</ele><time>2026-05-01T11:57:00Z</time></trkpt>
<trkpt lat="51.6816713" lon="12.9078670"><ele>119.8</ele><time>2026-05-01T11:58:00Z</time></trkpt>
<trkpt lat="51.6781208" lon="12.9057887"><ele>120.0</ele><time>2026-05-01T11:59:00Z</time></trkpt>
<trkpt lat="51.6745823" lon="12.9036578"><ele>119.5</ele><time>2026-05-01T12:00:00Z</time></trkpt>
<trkpt lat="51.6710561" lon="12.9014748"><ele>118.4</ele><time>2026-05-01T12:01:00Z</time></trkpt>
<trkpt lat="51.6675424" lon="12.8992402"><ele>116.7</ele><time>2026-05-01T12:02:00Z</time></trkpt>
<trkpt lat="51.6640414" lon="12.8969544"><ele>114.5</ele><time>2026-05-01T12:03:00Z</time></trkpt>
<trkpt lat="51.6605533" lon="12.8946184"><ele>111.9</ele><time>2026-05-01T12:04:00Z</time></trkpt>
<trkpt lat="51.6570781" lon="12.8922329"><ele>109.0</ele><time>2026-05-01T12:05:00Z</time></trkpt>
<trkpt lat="51.6536159" lon="12.8897990"><ele>105.8</ele><time>2026-05-01T12:06:00Z</time></trkpt>
<trkpt lat="51.6501666" lon="12.8873179"><ele>102.4</ele><time>2026-05-01T12:07:00Z</time></trkpt>
<trkpt lat="51.6467303" lon="12.8847908"><ele>98.9</ele><time>2026-05-01T12:08:00Z</time></trkpt>
<trkpt lat="51.6433068" lon="12.8822192"><ele>95.6</ele><time>2026-05-01T12:09:00Z</time></trkpt>
<trkpt lat="51.6398960" lon="12.8796044"><ele>92.3</ele><time>2026-05-01T12:10:00Z</time></trkpt>
<trkpt lat="51.6364976" lon="12.8769483"><ele>89.3</ele><time>2026-05-01T12:11:00Z</time></trkpt>
<trkpt lat="51.6331113" lon="12.8742524"><ele>86.6</ele><time>2026-05-01T12:12:00Z</time></trkpt>
<trkpt lat="51.6297368" lon="12.8715185"><ele>84.3</ele><time>2026-05-01T12:13:00Z</time></trkpt>
<trkpt lat="51.6263737" lon="12.8687487"><ele>82.5</ele><time>2026-05-01T12:14:00Z</time></trkpt>
<trkpt lat="51.6230215" lon="12.8659448"><ele>81.1</ele><time>2026-05-01T12:15:00Z</time></trkpt>
<trkpt lat="51.6196798" lon="12.8631090"><ele>80.3</ele><time>2026-05-01T12:16:00Z</time></trkpt>
<trkpt lat="51.6163480" lon="12.8602433"><ele>80.0</ele><time>2026-05-01T12:17:00Z</time></trkpt>
<trkpt lat="51.6130255" lon="12.8573500"><ele>80.3</ele><time>2026-05-01T12:18:00Z</time></trkpt>
<trkpt lat="51.6097116" lon="12.8544313"><ele>81.1</ele><time>2026-05-01T12:19:00Z</time></trkpt>
<trkpt lat="51.6064057" lon="12.8514895"><ele>82.4</ele><time>2026-05-01T12:20:00Z</time></trkpt>
<trkpt lat="51.6031069" lon="12.8485271"><ele>84.2</ele><time>2026-05-01T12:21:00Z</time></trkpt>
<trkpt lat="51.5998147" lon="12.8455464"><ele>86.5</ele><time>2026-05-01T12:22:00Z</time></trkpt>
<trkpt lat="51.5965280" lon="12.8425498"><ele>89.1</ele><time>2026-05-01T12:23:00Z</time></trkpt>
<trkpt lat="51.5932461" lon="12.8395399"><ele>91.9</ele><time>2026-05-01T12:24:00Z</time></trkpt>
<trkpt lat="51.5899682" lon="12.8365191"><ele>95.0</ele><time>2026-05-01T12:25:00Z</time></trkpt>
<trkpt lat="51.5866933" lon="12.8334900"><ele>98.3</ele><time>2026-05-01T12:26:00Z</time></trkpt>
<trkpt lat="51.5834206" lon="12.8304550"><ele>101.5</ele><time>2026-05-01T12:27:00Z</time></trkpt>
<trkpt lat="51.5801491" lon="12.8274169"><ele>104.8</ele><time>2026-05-01T12:28:00Z</time></trkpt>
<trkpt lat="51.5768779" lon="12.8243780"><ele>107.9</ele><time>2026-05-01T12:29:00Z</time></trkpt>
<trkpt lat="51.5736062" lon="12.8213409"><ele>110.7</ele><time>2026-05-01T12:30:00Z</time></trkpt>
<trkpt lat="51.5703329" lon="12.8183083"><ele>113.4</ele><time>2026-05-01T12:31:00Z</time></trkpt>
<trkpt lat="51.5670573" lon="12.8152827"><ele>115.6</ele><time>2026-05-01T12:32:00Z</time></trkpt>
<trkpt lat="51.5637783" lon="12.8122665"><ele>117.4</ele><time>2026-05-01T12:33:00Z</time></trkpt>
<trkpt lat="51.5604952" lon="12.8092624"><ele>118.8</ele><time>2026-05-01T12:34:00Z</time></trkpt>
<trkpt lat="51.5572070" lon="12.8062728"><ele>119.7</ele><time>2026-05-01T12:35:00Z</time></trkpt>
<trkpt lat="51.5539129" lon="12.8033001"><ele>120.0</ele><time>2026-05-01T12:36:00Z</time></trkpt>
<trkpt lat="51.5506122" lon="12.8003468"><ele>119.8</ele><time>2026-05-01T12:37:00Z</time></trkpt>
<trkpt lat="51.5473041" lon="12.7974153"><ele>119.0</ele><time>2026-05-01T12:38:00Z</time></trkpt>
<trkpt lat="51.5439878" lon="12.7945079"><ele>117.8</ele><time>2026-05-01T12:39:00Z</time></trkpt>
<trkpt lat="51.5406627" lon="12.7916269"><ele>116.0</ele><time>2026-05-01T12:40:00Z</time></trkpt>
<trkpt lat="51.5373281" lon="12.7887746"><ele>113.8</ele><time>2026-05-01T12:41:00Z</time></trkpt>
<trkpt lat="51.5339835" lon="12.7859530"><ele>111.2</ele><time>2026-05-01T12:42:00Z</time></trkpt>
<trkpt lat="51.5306283" lon="12.7831644"><ele>108.3</ele><time>2026-05-01T12:43:00Z</time></trkpt>
<trkpt lat="51.5272620" lon="12.7804107"><ele>105.1</ele><time>2026-05-01T12:44:00Z</time></trkpt>
<trkpt lat="51.5238841" lon="12.7776939"><ele>101.8</ele><time>2026-05-01T12:45:00Z</time></trkpt>
<trkpt lat="51.5204944" lon="12.7750159"><ele>98.4</ele><time>2026-05-01T12:46:00Z</time></trkpt>
<trkpt lat="51.5170924" lon="12.7723784"><ele>95.0</ele><time>2026-05-01T12:47:00Z</time></trkpt>
<trkpt lat="51.5136780" lon="12.7697831"><ele>91.8</ele><time>2026-05-01T12:48:00Z</time></trkpt>
<trkpt lat="51.5102509" lon="12.7672315"><ele>88.8</ele><time>2026-05-01T12:49:00Z</time></trkpt>
<trkpt lat="51.5068109" lon="12.7647252"><ele>86.1</ele><time>2026-05-01T12:50:00Z</time></trkpt>
<trkpt lat="51.5033579" lon="12.7622655"><ele>83.9</ele><time>2026-05-01T12:51:00Z</time></trkpt>
<trkpt lat="51.4998920" lon="12.7598535"><ele>82.1</ele><time>2026-05-01T12:52:00Z</time></trkpt>
<trkpt lat="51.4964131" lon="12.7574905"><ele>80.8</ele><time>2026-05-01T12:53:00Z</time></trkpt>
<trkpt lat="51.4929213" lon="12.7551773"><ele>80.1</ele><time>2026-05-01T12:54:00Z</time></trkpt>
<trkpt lat="51.4894166" lon="12.7529149"><ele>80.0</ele><time>2026-05-01T12:55:00Z</time></trkpt>
<trkpt lat="51.4858994" lon="12.7507038"><ele>80.6</ele><time>2026-05-01T12:56:00Z</time></trkpt>
<trkpt lat="51.4823696" lon="12.7485447"><ele>81.7</ele><time>2026-05-01T12:57:00Z</time></trkpt>
<trkpt lat="51.4788277" lon="12.7464380"><ele>83.4</ele><time>2026-05-01T12:58:00Z</time></trkpt>
<trkpt lat="51.4752738" lon="12.7443839"><ele>85.7</ele><time>2026-05-01T12:59:00Z</time></trkpt>
<trkpt lat="51.4717083" lon="12.7423826"><ele>88.4</ele><time>2026-05-01T13:00:00Z</time></trkpt>
<trkpt lat="51.4681315" lon="12.7404339"><ele>91.4</ele><time>2026-05-01T13:01:00Z</time></trkpt>
<trkpt lat="51.4645438" lon="12.7385377"><ele>94.8</ele><time>2026-05-01T13:02:00Z</time></trkpt>
<trkpt lat="51.4609456" lon="12.7366937"><ele>98.3</ele><time>2026-05-01T13:03:00Z</time></trkpt>
<trkpt lat="51.4573373" lon="12.7349014"><ele>101.9</ele><time>2026-05-01T13:04:00Z</time></trkpt>
<trkpt lat="51.4537194" lon="12.7331600"><ele>105.5</ele><time>2026-05-01T13:05:00Z</time></trkpt>
<trkpt lat="51.4500922" lon="12.7314689"><ele>108.9</ele><time>2026-05-01T13:06:00Z</time></trkpt>
<trkpt lat="51.4464563" lon="12.7298269"><ele>112.0</ele><time>2026-05-01T13:07:00Z</time></trkpt>
<trkpt lat="51.4428122" lon="12.7282331"><ele>114.7</ele><time>2026-05-01T13:08:00Z</time></trkpt>
<trkpt lat="51.4391602" lon="12.7266861"><ele>116.9</ele><time>2026-05-01T13:09:00Z</time></trkpt>
<trkpt lat="51.4355008" lon="12.7251846"><ele>118.6</ele><time>2026-05-01T13:10:00Z</time></trkpt>
<trkpt lat="51.4318346" lon="12.7237271"><ele>119.6</ele><time>2026-05-01T13:11:00Z</time></trkpt>
<trkpt lat="51.4281619" lon="12.7223118"><ele>120.0</ele><time>2026-05-01T13:12:00Z</time></trkpt>
<trkpt lat="51.4244834" lon="12.7209370"><ele>119.7</ele><time>2026-05-01T13:13:00Z</time></trkpt>
<trkpt lat="51.4207993" lon="12.7196008"><ele>118.8</ele><time>2026-05-01T13:14:00Z</time></trkpt>
<trkpt lat="51.4171101" lon="12.7183011"><ele>117.2</ele><time>2026-05-01T13:15:00Z</time></trkpt>
<trkpt lat="51.4134163" lon="12.7170357"><ele>115.0</ele><time>2026-05-01T13:16:00Z</time></trkpt>
<trkpt lat="51.4097183" lon="12.7158025"><ele>112.3</ele><time>2026-05-01T13:17:00Z</time></trkpt>
<trkpt lat="51.4060165" lon="12.7145991"><ele>109.2</ele><time>2026-05-01T13:18:00Z</time></trkpt>
<trkpt lat="51.4023113" lon="12.7134230"><ele>105.8</ele><time>2026-05-01T13:19:00Z</time></trkpt>
<trkpt lat="51.3986031" lon="12.7122717"><ele>102.1</ele><time>2026-05-01T13:20:00Z</time></trkpt>
<trkpt lat="51.3948922" lon="12.7111426"><ele>98.4</ele><time>2026-05-01T13:21:00Z</time></trkpt>
<trkpt lat="51.3911790" lon="12.7100331"><ele>94.8</ele><time>2026-05-01T13:22:00Z</time></trkpt>
<trkpt lat="51.3874639" lon="12.7089404"><ele>91.3</ele><time>2026-05-01T13:23:00Z</time></trkpt>
<trkpt lat="51.3837472" lon="12.7078618"><ele>88.1</ele><time>2026-05-01T13:24:00Z</time></trkpt>
<trkpt lat="51.3800293" lon="12.7067944"><ele>85.4</ele><time>2026-05-01T13:25:00Z</time></trkpt>
<trkpt lat="51.3763104" lon="12.7057355"><ele>83.1</ele><time>2026-05-01T13:26:00Z</time></trkpt>
<trkpt lat="51.3725910" lon="12.7046820"><ele>81.4</ele><time>2026-05-01T13:27:00Z</time></trkpt>
<trkpt lat="51.3688712" lon="12.7036312"><ele>80.4</ele><time>2026-05-01T13:28:00Z</time></trkpt>
<trkpt lat="51.3651515" lon="12.7025801"><ele>80.0</ele><time>2026-05-01T13:29:00Z</time></trkpt>
<trkpt lat="51.3614321" lon="12.7015259"><ele>80.3</ele><time>2026-05-01T13:30:00Z</time></trkpt>
<trkpt lat="51.3577135" lon="12.7004656"><ele>81.3</ele><time>2026-05-01T13:31:00Z</time></trkpt>
<trkpt lat="51.3539958" lon="12.6993965"><ele>83.0</ele><time>2026-05-01T13:32:00Z</time></trkpt>
<trkpt lat="51.3502795" lon="12.6983156"><ele>85.2</ele><time>2026-05-01T13:33:00Z</time></trkpt>
<trkpt lat="51.3465648" lon="12.6972201"><ele>87.9</ele><time>2026-05-01T13:34:00Z</time></trkpt>
<trkpt lat="51.3428521" lon="12.6961074"><ele>91.1</ele><time>2026-05-01T13:35:00Z</time></trkpt>
<trkpt lat="51.3391419" lon="12.6949747"><ele>94.6</ele><time>2026-05-01T13:36:00Z</time></trkpt>
<trkpt lat="51.3354343" lon="12.6938194"><ele>98.2</ele><time>2026-05-01T13:37:00Z</time></trkpt>
<trkpt lat="51.3317299" lon="12.6926388"><ele>101.9</ele><time>2026-05-01T13:38:00Z</time></trkpt>
<trkpt lat="51.3280289" lon="12.6914306"><ele>105.5</ele><time>2026-05-01T13:39:00Z</time></trkpt>
<trkpt lat="51.3243319" lon="12.6901923"><ele>109.0</ele><time>2026-05-01T13:40:00Z</time></trkpt>
<trkpt lat="51.3206392" lon="12.6889216"><ele>112.1</ele><time>2026-05-01T13:41:00Z</time></trkpt>
<trkpt lat="51.3169512" lon="12.6876162"><ele>114.8</ele><time>2026-05-01T13:42:00Z</time></trkpt>
<trkpt lat="51.3132684" lon="12.6862742"><ele>117.0</ele><time>2026-05-01T13:43:00Z</time></trkpt>
<trkpt lat="51.3095911" lon="12.6848934"><ele>118.7</ele><time>2026-05-01T13:44:00Z</time></trkpt>
<trkpt lat="51.3059200" lon="12.6834720"><ele>119.7</ele><time>2026-05-01T13:45:00Z</time></trkpt>
<trkpt lat="51.3022554" lon="12.6820083"><ele>120.0</ele><time>2026-05-01T13:46:00Z</time></trkpt>
<trkpt lat="51.2985977" lon="12.6805007"><ele>119.7</ele><time>2026-05-01T13:47:00Z</time></trkpt>
<trkpt lat="51.2949475" lon="12.6789476"><ele>118.7</ele><time>2026-05-01T13:48:00Z</time></trkpt>
<trkpt lat="51.2913053" lon="12.6773478"><ele>117.1</ele><time>2026-05-01T13:49:00Z</time></trkpt>
<trkpt lat="51.2876714" lon="12.6757000"><ele>114.9</ele><time>2026-05-01T13:50:00Z</time></trkpt>
<trkpt lat="51.2840464" lon="12.6740031"><ele>112.3</ele><time>2026-05-01T13:51:00Z</time></trkpt>
<trkpt lat="51.2804308" lon="12.6722564"><ele>109.3</ele><time>2026-05-01T13:52:00Z</time></trkpt>
<trkpt lat="51.2768248" lon="12.6704589"><ele>105.9</ele><time>2026-05-01T13:53:00Z</time></trkpt>
<trkpt lat="51.2732291" lon="12.6686101"><ele>102.4</ele><time>2026-05-01T13:54:00Z</time></trkpt>
<trkpt lat="51.2696440" lon="12.6667097"><ele>98.9</ele><time>2026-05-01T13:55:00Z</time></trkpt>
<trkpt lat="51.2660699" lon="12.6647571"><ele>95.3</ele><time>2026-05-01T13:56:00Z</time></trkpt>
<trkpt lat="51.2625071" lon="12.6627524"><ele>91.9</ele><time>2026-05-01T13:57:00Z</time></trkpt>
<trkpt lat="51.2619998" lon="12.6624586"><ele>91.5</ele><time>2026-05-01T13:57:08Z</time></trkpt>
</trkseg></trk></gpx>
