<?xml version="1.0" encoding="UTF-8"?>
<gpx version="1.1" creator="sobrevoo-samples" xmlns="http://www.topografix.com/GPX/1/1">
<trk><name>muito-longa.gpx</name><trkseg>
<trkpt lat="48.0000000" lon="2.0000000"><ele>96.5</ele><time>2026-05-01T08:00:00Z</time></trkpt>
<trkpt lat="47.9635389" lon="2.0942135"><ele>81.8</ele><time>2026-05-01T08:05:00Z</time></trkpt>
<trkpt lat="47.9265204" lon="2.1878739"><ele>113.0</ele><time>2026-05-01T08:10:00Z</time></trkpt>
<trkpt lat="47.8889529" lon="2.2809787"><ele>110.5</ele><time>2026-05-01T08:15:00Z</time></trkpt>
<trkpt lat="47.8508508" lon="2.3735312"><ele>80.5</ele><time>2026-05-01T08:20:00Z</time></trkpt>
<trkpt lat="47.8122336" lon="2.4655399"><ele>102.8</ele><time>2026-05-01T08:25:00Z</time></trkpt>
<trkpt lat="47.7731260" lon="2.5570193"><ele>117.3</ele><time>2026-05-01T08:30:00Z</time></trkpt>
<trkpt lat="47.7335574" lon="2.6479896"><ele>83.9</ele><time>2026-05-01T08:35:00Z</time></trkpt>
<trkpt lat="47.6935615" lon="2.7384765"><ele>95.8</ele><time>2026-05-01T08:40:00Z</time></trkpt>
<trkpt lat="47.6531761" lon="2.8285109"><ele>119.4</ele><time>2026-05-01T08:45:00Z</time></trkpt>
<trkpt lat="47.6124424" lon="2.9181290"><ele>87.0</ele><time>2026-05-01T08:50:00Z</time></trkpt>
<trkpt lat="47.5714050" lon="3.0073717"><ele>92.5</ele><time>2026-05-01T08:55:00Z</time></trkpt>
<trkpt lat="47.5301110" lon="3.0962838"><ele>119.9</ele><time>2026-05-01T09:00:00Z</time></trkpt>
<trkpt lat="47.4886098" lon="3.1849139"><ele>88.5</ele><time>2026-05-01T09:05:00Z</time></trkpt>
<trkpt lat="47.4469525" lon="3.2733133"><ele>91.4</ele><time>2026-05-01T09:10:00Z</time></trkpt>
<trkpt lat="47.4051917" lon="3.3615358"><ele>119.9</ele><time>2026-05-01T09:15:00Z</time></trkpt>
<trkpt lat="47.3633807" lon="3.4496366"><ele>88.8</ele><time>2026-05-01T09:20:00Z</time></trkpt>
<trkpt lat="47.3215735" lon="3.5376714"><ele>91.1</ele><time>2026-05-01T09:25:00Z</time></trkpt>
<trkpt lat="47.2798238" lon="3.6256959"><ele>120.0</ele><time>2026-05-01T09:30:00Z</time></trkpt>
<trkpt lat="47.2381849" lon="3.7137651"><ele>89.2</ele><time>2026-05-01T09:35:00Z</time></trkpt>
<trkpt lat="47.1967091" lon="3.8019321"><ele>90.4</ele><time>2026-05-01T09:40:00Z</time></trkpt>
<trkpt lat="47.1554476" lon="3.8902478"><ele>120.0</ele><time>2026-05-01T09:45:00Z</time></trkpt>
<trkpt lat="47.1144493" lon="3.9787599"><ele>90.9</ele><time>2026-05-01T09:50:00Z</time></trkpt>
<trkpt lat="47.0737610" lon="4.0675125"><ele>88.1</ele><time>2026-05-01T09:55:00Z</time></trkpt>
<trkpt lat="47.0334269" lon="4.1565454"><ele>119.6</ele><time>2026-05-01T10:00:00Z</time></trkpt>
<trkpt lat="46.9934878" lon="4.2458939"><ele>95.3</ele><time>2026-05-01T10:05:00Z</time></trkpt>
<trkpt lat="46.9539808" lon="4.3355881"><ele>84.0</ele><time>2026-05-01T10:10:00Z</time></trkpt>
<trkpt lat="46.9149393" lon="4.4256528"><ele>117.1</ele><time>2026-05-01T10:15:00Z</time></trkpt>
<trkpt lat="46.8763919" lon="4.5161073"><ele>103.8</ele><time>2026-05-01T10:20:00Z</time></trkpt>
<trkpt lat="46.8383627" lon="4.6069655"><ele>80.2</ele><time>2026-05-01T10:25:00Z</time></trkpt>
<trkpt lat="46.8008705" lon="4.6982356"><ele>108.6</ele><time>2026-05-01T10:30:00Z</time></trkpt>
<trkpt lat="46.7639288" lon="4.7899203"><ele>115.0</ele><time>2026-05-01T10:35:00Z</time></trkpt>
<trkpt lat="46.7275454" lon="4.8820173"><ele>83.5</ele><time>2026-05-01T10:40:00Z</time></trkpt>
<trkpt lat="46.6917225" lon="4.9745190"><ele>92.5</ele><time>2026-05-01T10:45:00Z</time></trkpt>
<trkpt lat="46.6564562" lon="5.0674134"><ele>119.6</ele><time>2026-05-01T10:50:00Z</time></trkpt>
<trkpt lat="46.6217367" lon="5.1606839"><ele>100.5</ele><time>2026-05-01T10:55:00Z</time></trkpt>
<trkpt lat="46.5875484" lon="5.2543101"><ele>80.1</ele><time>2026-05-01T11:00:00Z</time></trkpt>
<trkpt lat="46.5538697" lon="5.3482680"><ele>104.5</ele><time>2026-05-01T11:05:00Z</time></trkpt>
<trkpt lat="46.5206736" lon="5.4425304"><ele>119.0</ele><time>2026-05-01T11:10:00Z</time></trkpt>
<trkpt lat="46.4879274" lon="5.5370675"><ele>92.5</ele><time>2026-05-01T11:15:00Z</time></trkpt>
<trkpt lat="46.4555937" lon="5.6318471"><ele>81.8</ele><time>2026-05-01T11:20:00Z</time></trkpt>
<trkpt lat="46.4236302" lon="5.7268349"><ele>108.8</ele><time>2026-05-01T11:25:00Z</time></trkpt>
<trkpt lat="46.3919903" lon="5.8219951"><ele>117.9</ele><time>2026-05-01T11:30:00Z</time></trkpt>
<trkpt lat="46.3606239" lon="5.9172905"><ele>91.0</ele><time>2026-05-01T11:35:00Z</time></trkpt>
<trkpt lat="46.3294777" lon="6.0126830"><ele>82.0</ele><time>2026-05-01T11:40:00Z</time></trkpt>
<trkpt lat="46.2984958" lon="6.1081334"><ele>108.3</ele><time>2026-05-01T11:45:00Z</time></trkpt>
<trkpt lat="46.2676203" lon="6.2036021"><ele>118.4</ele><time>2026-05-01T11:50:00Z</time></trkpt>
<trkpt lat="46.2367923" lon="6.2990492"><ele>92.7</ele><time>2026-05-01T11:55:00Z</time></trkpt>
<trkpt lat="46.2059522" lon="6.3944346"><ele>81.2</ele><time>2026-05-01T12:00:00Z</time></trkpt>
<trkpt lat="46.1750406" lon="6.4897180"><ele>106.3</ele><time>2026-05-01T12:05:00Z</time></trkpt>
<trkpt lat="46.1439988" lon="6.5848594"><ele>119.1</ele><time>2026-05-01T12:10:00Z</time></trkpt>
<trkpt lat="46.1127698" lon="6.6798194"><ele>94.3</ele><time>2026-05-01T12:15:00Z</time></trkpt>
<trkpt lat="46.0812987" lon="6.7745588"><ele>80.9</ele><time>2026-05-01T12:20:00Z</time></trkpt>
<trkpt lat="46.0495333" lon="6.8690397"><ele>106.1</ele><time>2026-05-01T12:25:00Z</time></trkpt>
<trkpt lat="46.0174249" lon="6.9632249"><ele>118.8</ele><time>2026-05-01T12:30:00Z</time></trkpt>
<trkpt lat="45.9849287" lon="7.0570789"><ele>92.2</ele><time>2026-05-01T12:35:00Z</time></trkpt>
<trkpt lat="45.9520042" lon="7.1505678"><ele>82.2</ele><time>2026-05-01T12:40:00Z</time></trkpt>
<trkpt lat="45.9186159" lon="7.2436599"><ele>110.9</ele><time>2026-05-01T12:45:00Z</time></trkpt>
<trkpt lat="45.8847335" lon="7.3363259"><ele>115.3</ele><time>2026-05-01T12:50:00Z</time></trkpt>
<trkpt lat="45.8503320" lon="7.4285395"><ele>85.0</ele><time>2026-05-01T12:55:00Z</time></trkpt>
<trkpt lat="45.8153924" lon="7.5202776"><ele>89.6</ele><time>2026-05-01T13:00:00Z</time></trkpt>
<trkpt lat="45.7799013" lon="7.6115209"><ele>118.8</ele><time>2026-05-01T13:05:00Z</time></trkpt>
<trkpt lat="45.7438514" lon="7.7022542"><ele>102.3</ele><time>2026-05-01T13:10:00Z</time></trkpt>
<trkpt lat="45.7072413" lon="7.7924667"><ele>80.2</ele><time>2026-05-01T13:15:00Z</time></trkpt>
<trkpt lat="45.6700754" lon="7.8821525"><ele>108.4</ele><time>2026-05-01T13:20:00Z</time></trkpt>
<trkpt lat="45.6323639" lon="7.9713106"><ele>114.6</ele><time>2026-05-01T13:25:00Z</time></trkpt>
<trkpt lat="45.5941226" lon="8.0599456"><ele>82.3</ele><time>2026-05-01T13:30:00Z</time></trkpt>
<trkpt lat="45.5553723" lon="8.1480672"><ele>97.7</ele><time>2026-05-01T13:35:00Z</time></trkpt>
<trkpt lat="45.5161391" lon="8.2356909"><ele>119.2</ele><time>2026-05-01T13:40:00Z</time></trkpt>
<trkpt lat="45.4764537" lon="8.3228372"><ele>87.3</ele><time>2026-05-01T13:45:00Z</time></trkpt>
<trkpt lat="45.4363508" lon="8.4095324"><ele>91.4</ele><time>2026-05-01T13:50:00Z</time></trkpt>
<trkpt lat="45.3958692" lon="8.4958076"><ele>120.0</ele><time>2026-05-01T13:55:00Z</time></trkpt>
<trkpt lat="45.3550511" lon="8.5816986"><ele>90.8</ele><time>2026-05-01T14:00:00Z</time></trkpt>
<trkpt lat="45.3139419" lon="8.6672457"><ele>88.6</ele><time>2026-05-01T14:05:00Z</time></trkpt>
<trkpt lat="45.2725892" lon="8.7524930"><ele>119.9</ele><time>2026-05-01T14:10:00Z</time></trkpt>
<trkpt lat="45.2310430" lon="8.8374879"><ele>92.3</ele><time>2026-05-01T14:15:00Z</time></trkpt>
<trkpt lat="45.1893549" lon="8.9222804"><ele>87.7</ele><time>2026-05-01T14:20:00Z</time></trkpt>
<trkpt lat="45.1475777" lon="9.0069224"><ele>119.8</ele><time>2026-05-01T14:25:00Z</time></trkpt>
<trkpt lat="45.1057650" lon="9.0914671"><ele>92.7</ele><time>2026-05-01T14:30:00Z</time></trkpt>
<trkpt lat="45.0639707" lon="9.1759681"><ele>87.5</ele><time>2026-05-01T14:35:00Z</time></trkpt>
<trkpt lat="45.0222483" lon="9.2604787"><ele>119.7</ele><time>2026-05-01T14:40:00Z</time></trkpt>
<trkpt lat="44.9806512" lon="9.3450513"><ele>93.2</ele><time>2026-05-01T14:45:00Z</time></trkpt>
<trkpt lat="44.9392312" lon="9.4297363"><ele>86.8</ele><time>2026-05-01T14:50:00Z</time></trkpt>
<trkpt lat="44.8980389" lon="9.5145817"><ele>119.5</ele><time>2026-05-01T14:55:00Z</time></trkpt>
<trkpt lat="44.8571229" lon="9.5996326"><ele>95.2</ele><time>2026-05-01T15:00:00Z</time></trkpt>
<trkpt lat="44.8165292" lon="9.6849301"><ele>84.7</ele><time>2026-05-01T15:05:00Z</time></trkpt>
<trkpt lat="44.7763011" lon="9.7705114"><ele>118.2</ele><time>2026-05-01T15:10:00Z</time></trkpt>
<trkpt lat="44.7364784" lon="9.8564089"><ele>100.2</ele><time>2026-05-01T15:15:00Z</time></trkpt>
<trkpt lat="44.6970974" lon="9.9426501"><ele>81.5</ele><time>2026-05-01T15:20:00Z</time></trkpt>
<trkpt lat="44.6581902" lon="10.0292576"><ele>113.8</ele><time>2026-05-01T15:25:00Z</time></trkpt>
<trkpt lat="44.6197840" lon="10.1162483"><ele>108.9</ele><time>2026-05-01T15:30:00Z</time></trkpt>
<trkpt lat="44.5819017" lon="10.2036341"><ele>80.2</ele><time>2026-05-01T15:35:00Z</time></trkpt>
<trkpt lat="44.5445607" lon="10.2914213"><ele>103.2</ele><time>2026-05-01T15:40:00Z</time></trkpt>
<trkpt lat="44.5077729" lon="10.3796114"><ele>118.2</ele><time>2026-05-01T15:45:00Z</time></trkpt>
<trkpt lat="44.4715446" lon="10.4682004"><ele>87.6</ele><time>2026-05-01T15:50:00Z</time></trkpt>
<trkpt lat="44.4358763" lon="10.5571801"><ele>87.3</ele><time>2026-05-01T15:55:00Z</time></trkpt>
<trkpt lat="44.4007625" lon="10.6465375"><ele>117.5</ele><time>2026-05-01T16:00:00Z</time></trkpt>
<trkpt lat="44.3661920" lon="10.7362556"><ele>106.8</ele><time>2026-05-01T16:05:00Z</time></trkpt>
<trkpt lat="44.3321473" lon="10.8263139"><ele>80.5</ele><time>2026-05-01T16:10:00Z</time></trkpt>
<trkpt lat="44.2986055" lon="10.9166883"><ele>97.9</ele><time>2026-05-01T16:15:00Z</time></trkpt>
<trkpt lat="44.2655380" lon="11.0073520"><ele>120.0</ele><time>2026-05-01T16:20:00Z</time></trkpt>
<trkpt lat="44.2329107" lon="11.0982755"><ele>99.3</ele><time>2026-05-01T16:25:00Z</time></trkpt>
<trkpt lat="44.2006848" lon="11.1894275"><ele>80.1</ele><time>2026-05-01T16:30:00Z</time></trkpt>
<trkpt lat="44.1688169" lon="11.2807743"><ele>102.0</ele><time>2026-05-01T16:35:00Z</time></trkpt>
<trkpt lat="44.1372594" lon="11.3722813"><ele>119.9</ele><time>2026-05-01T16:40:00Z</time></trkpt>
<trkpt lat="44.1059613" lon="11.4639124"><ele>98.0</ele><time>2026-05-01T16:45:00Z</time></trkpt>
<trkpt lat="44.0748683" lon="11.5556305"><ele>80.1</ele><time>2026-05-01T16:50:00Z</time></trkpt>
<trkpt lat="44.0439240" lon="11.6473979"><ele>101.2</ele><time>2026-05-01T16:55:00Z</time></trkpt>
<trkpt lat="44.0130703" lon="11.7391765"><ele>120.0</ele><time>2026-05-01T17:00:00Z</time></trkpt>
<trkpt lat="43.9822479" lon="11.8309277"><ele>100.0</ele><time>2026-05-01T17:05:00Z</time></trkpt>
<trkpt lat="43.9513972" lon="11.9226129"><ele>80.0</ele><time>2026-05-01T17:10:00Z</time></trkpt>
<trkpt lat="43.9204590" lon="12.0141935"><ele>99.0</ele><time>2026-05-01T17:15:00Z</time></trkpt>
<trkpt lat="43.8893749" lon="12.1056311"><ele>120.0</ele><time>2026-05-01T17:20:00Z</time></trkpt>
<trkpt lat="43.8580885" lon="12.1968879"><ele>101.5</ele><time>2026-05-01T17:25:00Z</time></trkpt>
<trkpt lat="43.8265454" lon="12.2879266"><ele>80.0</ele><time>2026-05-01T17:30:00Z</time></trkpt>
<trkpt lat="43.7946944" lon="12.3787108"><ele>99.1</ele><time>2026-05-01T17:35:00Z</time></trkpt>
<trkpt lat="43.7624879" lon="12.4692051"><ele>120.0</ele><time>2026-05-01T17:40:00Z</time></trkpt>
<trkpt lat="43.7298820" lon="12.5593760"><ele>98.9</ele><time>2026-05-01T17:45:00Z</time></trkpt>
<trkpt lat="43.6968377" lon="12.6491912"><ele>80.2</ele><time>2026-05-01T17:50:00Z</time></trkpt>
<trkpt lat="43.6633209" lon="12.7386210"><ele>104.8</ele><time>2026-05-01T17:55:00Z</time></trkpt>
<trkpt lat="43.6293025" lon="12.8276380"><ele>118.6</ele><time>2026-05-01T18:00:00Z</time></trkpt>
<trkpt lat="43.5947593" lon="12.9162175"><ele>89.9</ele><time>2026-05-01T18:05:00Z</time></trkpt>
<trkpt lat="43.5596737" lon="13.0043385"><ele>84.8</ele><time>2026-05-01T18:10:00Z</time></trkpt>
<trkpt lat="43.5240340" lon="13.0919833"><ele>115.9</ele><time>2026-05-01T18:15:00Z</time></trkpt>
<trkpt lat="43.4878346" lon="13.1791385"><ele>108.0</ele><time>2026-05-01T18:20:00Z</time></trkpt>
<trkpt lat="43.4510755" lon="13.2657950"><ele>80.2</ele><time>2026-05-01T18:25:00Z</time></trkpt>
<trkpt lat="43.4137628" lon="13.3519483"><ele>103.0</ele><time>2026-05-01T18:30:00Z</time></trkpt>
<trkpt lat="43.3759083" lon="13.4375990"><ele>117.8</ele><time>2026-05-01T18:35:00Z</time></trkpt>
<trkpt lat="43.3375290" lon="13.5227527"><ele>85.3</ele><time>2026-05-01T18:40:00Z</time></trkpt>
<trkpt lat="43.2986474" lon="13.6074204"><ele>92.7</ele><time>2026-05-01T18:45:00Z</time></trkpt>
<trkpt lat="43.2592906" lon="13.6916182"><ele>120.0</ele><time>2026-05-01T18:50:00Z</time></trkpt>
<trkpt lat="43.2194907" lon="13.7753674"><ele>91.5</ele><time>2026-05-01T18:55:00Z</time></trkpt>
<trkpt lat="43.1792834" lon="13.8586947"><ele>87.3</ele><time>2026-05-01T19:00:00Z</time></trkpt>
<trkpt lat="43.1387086" lon="13.9416310"><ele>119.5</ele><time>2026-05-01T19:05:00Z</time></trkpt>
<trkpt lat="43.0978093" lon="14.0242123"><ele>95.2</ele><time>2026-05-01T19:10:00Z</time></trkpt>
<trkpt lat="43.0566315" lon="14.1064783"><ele>85.1</ele><time>2026-05-01T19:15:00Z</time></trkpt>
<trkpt lat="43.0152236" lon="14.1884723"><ele>118.8</ele><time>2026-05-01T19:20:00Z</time></trkpt>
<trkpt lat="42.9736361" lon="14.2702407"><ele>96.7</ele><time>2026-05-01T19:25:00Z</time></trkpt>
<trkpt lat="42.9319209" lon="14.3518322"><ele>84.5</ele><time>2026-05-01T19:30:00Z</time></trkpt>
<trkpt lat="42.8901311" lon="14.4332971"><ele>118.6</ele><time>2026-05-01T19:35:00Z</time></trkpt>
<trkpt lat="42.8483204" lon="14.5146868"><ele>97.0</ele><time>2026-05-01T19:40:00Z</time></trkpt>
<trkpt lat="42.8065426" lon="14.5960529"><ele>84.3</ele><time>2026-05-01T19:45:00Z</time></trkpt>
<trkpt lat="42.7648514" lon="14.6774467"><ele>118.5</ele><time>2026-05-01T19:50:00Z</time></trkpt>
<trkpt lat="42.7232997" lon="14.7589179"><ele>97.6</ele><time>2026-05-01T19:55:00Z</time></trkpt>
<trkpt lat="42.6819390" lon="14.8405146"><ele>83.7</ele><time>2026-05-01T20:00:00Z</time></trkpt>
<trkpt lat="42.6408194" lon="14.9222824"><ele>117.8</ele><time>2026-05-01T20:05:00Z</time></trkpt>
<trkpt lat="42.5999889" lon="15.0042636"><ele>100.0</ele><time>2026-05-01T20:10:00Z</time></trkpt>
<trkpt lat="42.5594927" lon="15.0864969"><ele>82.0</ele><time>2026-05-01T20:15:00Z</time></trkpt>
<trkpt lat="42.5193733" lon="15.1690167"><ele>115.5</ele><time>2026-05-01T20:20:00Z</time></trkpt>
<trkpt lat="42.4796697" lon="15.2518532"><ele>105.3</ele><time>2026-05-01T20:25:00Z</time></trkpt>
<trkpt lat="42.4404168" lon="15.3350314"><ele>80.2</ele><time>2026-05-01T20:30:00Z</time></trkpt>
<trkpt lat="42.4016456" lon="15.4185716"><ele>109.5</ele><time>2026-05-01T20:35:00Z</time></trkpt>
<trkpt lat="42.3633822" lon="15.5024889"><ele>113.4</ele><time>2026-05-01T20:40:00Z</time></trkpt>
<trkpt lat="42.3256480" lon="15.5867931"><ele>81.7</ele><time>2026-05-01T20:45:00Z</time></trkpt>
<trkpt lat="42.2884588" lon="15.6714891"><ele>97.4</ele><time>2026-05-01T20:50:00Z</time></trkpt>
<trkpt lat="42.2518251" lon="15.7565768"><ele>119.8</ele><time>2026-05-01T20:55:00Z</time></trkpt>
<trkpt lat="42.2157517" lon="15.8420512"><ele>92.9</ele><time>2026-05-01T21:00:00Z</time></trkpt>
<trkpt lat="42.1802374" lon="15.9279029"><ele>83.1</ele><time>2026-05-01T21:05:00Z</time></trkpt>
<trkpt lat="42.1452752" lon="16.0141185"><ele>113.6</ele><time>2026-05-01T21:10:00Z</time></trkpt>
<trkpt lat="42.1108521" lon="16.1006806"><ele>112.5</ele><time>2026-05-01T21:15:00Z</time></trkpt>
<trkpt lat="42.0769492" lon="16.1875683"><ele>83.0</ele><time>2026-05-01T21:20:00Z</time></trkpt>
<trkpt lat="42.0435420" lon="16.2747577"><ele>91.3</ele><time>2026-05-01T21:25:00Z</time></trkpt>
<trkpt lat="42.0106003" lon="16.3622222"><ele>118.6</ele><time>2026-05-01T21:30:00Z</time></trkpt>
<trkpt lat="41.9780889" lon="16.4499328"><ele>106.3</ele><time>2026-05-01T21:35:00Z</time></trkpt>
<trkpt lat="41.9459675" lon="16.5378586"><ele>80.8</ele><time>2026-05-01T21:40:00Z</time></trkpt>
<trkpt lat="41.9141915" lon="16.6259669"><ele>94.7</ele><time>2026-05-01T21:45:00Z</time></trkpt>
<trkpt lat="41.8827124" lon="16.7142238"><ele>119.3</ele><time>2026-05-01T21:50:00Z</time></trkpt>
<trkpt lat="41.8514781" lon="16.8025942"><ele>105.4</ele><time>2026-05-01T21:55:00Z</time></trkpt>
<trkpt lat="41.8204340" lon="16.8910423"><ele>80.8</ele><time>2026-05-01T22:00:00Z</time></trkpt>
<trkpt lat="41.7895229" lon="16.9795314"><ele>93.8</ele><time>2026-05-01T22:05:00Z</time></trkpt>
<trkpt lat="41.7586864" lon="17.0680247"><ele>118.8</ele><time>2026-05-01T22:10:00Z</time></trkpt>
<trkpt lat="41.7278650" lon="17.1564850"><ele>107.3</ele><time>2026-05-01T22:15:00Z</time></trkpt>
<trkpt lat="41.6969991" lon="17.2448750"><ele>81.6</ele><time>2026-05-01T22:20:00Z</time></trkpt>
<trkpt lat="41.6660297" lon="17.3331575"><ele>91.7</ele><time>2026-05-01T22:25:00Z</time></trkpt>
<trkpt lat="41.6348990" lon="17.4212957"><ele>118.1</ele><time>2026-05-01T22:30:00Z</time></trkpt>
<trkpt lat="41.6035508" lon="17.5092532"><ele>108.6</ele><time>2026-05-01T22:35:00Z</time></trkpt>
<trkpt lat="41.5719318" lon="17.5969941"><ele>81.8</ele><time>2026-05-01T22:40:00Z</time></trkpt>
<trkpt lat="41.5399915" lon="17.6844838"><ele>92.1</ele><time>2026-05-01T22:45:00Z</time></trkpt>
<trkpt lat="41.5076833" lon="17.7716886"><ele>118.7</ele><time>2026-05-01T22:50:00Z</time></trkpt>
<trkpt lat="41.4749647" lon="17.8585763"><ele>105.9</ele><time>2026-05-01T22:55:00Z</time></trkpt>
<trkpt lat="41.4417979" lon="17.9451166"><ele>80.4</ele><time>2026-05-01T23:00:00Z</time></trkpt>
<trkpt lat="41.4081501" lon="18.0312813"><ele>98.0</ele><time>2026-05-01T23:05:00Z</time></trkpt>
<trkpt lat="41.3739939" lon="18.1170447"><ele>120.0</ele><time>2026-05-01T23:10:00Z</time></trkpt>
<trkpt lat="41.3393074" lon="18.2023840"><ele>96.0</ele><time>2026-05-01T23:15:00Z</time></trkpt>
<trkpt lat="41.3040748" lon="18.2872797"><ele>81.5</ele><time>2026-05-01T23:20:00Z</time></trkpt>
<trkpt lat="41.2682859" lon="18.3717158"><ele>111.5</ele><time>2026-05-01T23:25:00Z</time></trkpt>
<trkpt lat="41.2615592" lon="18.3872719"><ele>116.2</ele><time>2026-05-01T23:25:55Z</time></trkpt>
</trkseg></trk></gpx>
