<?xml version="1.0" encoding="UTF-8"?>
<gpx version="1.1" creator="sobrevoo-samples" xmlns="http://www.topografix.com/GPX/1/1">
<trk><name>pedalada.gpx</name><trkseg>
<trkpt lat="-23.5505000" lon="-46.6333000"><ele>89.2</ele><time>2026-05-01T08:00:00Z</time></trkpt>
<trkpt lat="-23.5501820" lon="-46.6329532"><ele>88.9</ele><time>2026-05-01T08:00:10Z</time></trkpt>
<trkpt lat="-23.5498891" lon="-46.6325810"><ele>88.7</ele><time>2026-05-01T08:00:20Z</time></trkpt>
<trkpt lat="-23.5496219" lon="-46.6321865"><ele>88.4</ele><time>2026-05-01T08:00:30Z</time></trkpt>
<trkpt lat="-23.5493803" lon="-46.6317728"><ele>88.2</ele><time>2026-05-01T08:00:40Z</time></trkpt>
<trkpt lat="-23.5491628" lon="-46.6313435"><ele>88.1</ele><time>2026-05-01T08:00:50Z</time></trkpt>
<trkpt lat="-23.5489667" lon="-46.6309021"><ele>87.9</ele><time>2026-05-01T08:01:00Z</time></trkpt>
<trkpt lat="-23.5487885" lon="-46.6304517"><ele>87.8</ele><time>2026-05-01T08:01:10Z</time></trkpt>
<trkpt lat="-23.5486237" lon="-46.6299954"><ele>87.6</ele><time>2026-05-01T08:01:20Z</time></trkpt>
<trkpt lat="-23.5484671" lon="-46.6295356"><ele>87.5</ele><time>2026-05-01T08:01:30Z</time></trkpt>
<trkpt lat="-23.5483133" lon="-46.6290746"><ele>87.4</ele><time>2026-05-01T08:01:40Z</time></trkpt>
<trkpt lat="-23.5481567" lon="-46.6286148"><ele>87.3</ele><time>2026-05-01T08:01:50Z</time></trkpt>
<trkpt lat="-23.5479918" lon="-46.6281585"><ele>87.2</ele><time>2026-05-01T08:02:00Z</time></trkpt>
<trkpt lat="-23.5478136" lon="-46.6277081"><ele>87.0</ele><time>2026-05-01T08:02:10Z</time></trkpt>
<trkpt lat="-23.5476176" lon="-46.6272667"><ele>86.9</ele><time>2026-05-01T08:02:20Z</time></trkpt>
<trkpt lat="-23.5474000" lon="-46.6268374"><ele>86.7</ele><time>2026-05-01T08:02:30Z</time></trkpt>
<trkpt lat="-23.5471584" lon="-46.6264237"><ele>86.5</ele><time>2026-05-01T08:02:40Z</time></trkpt>
<trkpt lat="-23.5468913" lon="-46.6260292"><ele>86.3</ele><time>2026-05-01T08:02:50Z</time></trkpt>
<trkpt lat="-23.5465983" lon="-46.6256571"><ele>86.1</ele><time>2026-05-01T08:03:00Z</time></trkpt>
<trkpt lat="-23.5462803" lon="-46.6253102"><ele>85.9</ele><time>2026-05-01T08:03:10Z</time></trkpt>
<trkpt lat="-23.5459392" lon="-46.6249907"><ele>85.6</ele><time>2026-05-01T08:03:20Z</time></trkpt>
<trkpt lat="-23.5455775" lon="-46.6246992"><ele>85.4</ele><time>2026-05-01T08:03:30Z</time></trkpt>
<trkpt lat="-23.5451983" lon="-46.6244357"><ele>85.1</ele><time>2026-05-01T08:03:40Z</time></trkpt>
<trkpt lat="-23.5448047" lon="-46.6241984"><ele>84.9</ele><time>2026-05-01T08:03:50Z</time></trkpt>
<trkpt lat="-23.5444001" lon="-46.6239846"><ele>84.6</ele><time>2026-05-01T08:04:00Z</time></trkpt>
<trkpt lat="-23.5439872" lon="-46.6237902"><ele>84.4</ele><time>2026-05-01T08:04:10Z</time></trkpt>
<trkpt lat="-23.5435689" lon="-46.6236103"><ele>84.1</ele><time>2026-05-01T08:04:20Z</time></trkpt>
<trkpt lat="-23.5431474" lon="-46.6234395"><ele>83.9</ele><time>2026-05-01T08:04:30Z</time></trkpt>
<trkpt lat="-23.5427248" lon="-46.6232718"><ele>83.6</ele><time>2026-05-01T08:04:40Z</time></trkpt>
<trkpt lat="-23.5423033" lon="-46.6231010"><ele>83.4</ele><time>2026-05-01T08:04:50Z</time></trkpt>
<trkpt lat="-23.5418850" lon="-46.6229211"><ele>83.1</ele><time>2026-05-01T08:05:00Z</time></trkpt>
<trkpt lat="-23.5414721" lon="-46.6227267"><ele>82.9</ele><time>2026-05-01T08:05:10Z</time></trkpt>
<trkpt lat="-23.5410675" lon="-46.6225129"><ele>82.7</ele><time>2026-05-01T08:05:20Z</time></trkpt>
<trkpt lat="-23.5406739" lon="-46.6222756"><ele>82.5</ele><time>2026-05-01T08:05:30Z</time></trkpt>
<trkpt lat="-23.5402947" lon="-46.6220121"><ele>82.3</ele><time>2026-05-01T08:05:40Z</time></trkpt>
<trkpt lat="-23.5399330" lon="-46.6217207"><ele>82.2</ele><time>2026-05-01T08:05:50Z</time></trkpt>
<trkpt lat="-23.5395919" lon="-46.6214011"><ele>82.0</ele><time>2026-05-01T08:06:00Z</time></trkpt>
<trkpt lat="-23.5392739" lon="-46.6210543"><ele>81.9</ele><time>2026-05-01T08:06:10Z</time></trkpt>
<trkpt lat="-23.5389809" lon="-46.6206822"><ele>81.8</ele><time>2026-05-01T08:06:20Z</time></trkpt>
<trkpt lat="-23.5387138" lon="-46.6202877"><ele>81.7</ele><time>2026-05-01T08:06:30Z</time></trkpt>
<trkpt lat="-23.5384722" lon="-46.6198740"><ele>81.6</ele><time>2026-05-01T08:06:40Z</time></trkpt>
<trkpt lat="-23.5382546" lon="-46.6194448"><ele>81.5</ele><time>2026-05-01T08:06:50Z</time></trkpt>
<trkpt lat="-23.5380586" lon="-46.6190034"><ele>81.4</ele><time>2026-05-01T08:07:00Z</time></trkpt>
<trkpt lat="-23.5378804" lon="-46.6185531"><ele>81.3</ele><time>2026-05-01T08:07:10Z</time></trkpt>
<trkpt lat="-23.5377155" lon="-46.6180968"><ele>81.3</ele><time>2026-05-01T08:07:20Z</time></trkpt>
<trkpt lat="-23.5375589" lon="-46.6176370"><ele>81.2</ele><time>2026-05-01T08:07:30Z</time></trkpt>
<trkpt lat="-23.5374051" lon="-46.6171761"><ele>81.2</ele><time>2026-05-01T08:07:40Z</time></trkpt>
<trkpt lat="-23.5372485" lon="-46.6167163"><ele>81.1</ele><time>2026-05-01T08:07:50Z</time></trkpt>
<trkpt lat="-23.5370837" lon="-46.6162600"><ele>81.1</ele><time>2026-05-01T08:08:00Z</time></trkpt>
<trkpt lat="-23.5369055" lon="-46.6158097"><ele>81.0</ele><time>2026-05-01T08:08:10Z</time></trkpt>
<trkpt lat="-23.5367094" lon="-46.6153683"><ele>80.9</ele><time>2026-05-01T08:08:20Z</time></trkpt>
<trkpt lat="-23.5364919" lon="-46.6149391"><ele>80.9</ele><time>2026-05-01T08:08:30Z</time></trkpt>
<trkpt lat="-23.5362503" lon="-46.6145254"><ele>80.8</ele><time>2026-05-01T08:08:40Z</time></trkpt>
<trkpt lat="-23.5359831" lon="-46.6141309"><ele>80.7</ele><time>2026-05-01T08:08:50Z</time></trkpt>
<trkpt lat="-23.5356902" lon="-46.6137588"><ele>80.7</ele><time>2026-05-01T08:09:00Z</time></trkpt>
<trkpt lat="-23.5353722" lon="-46.6134120"><ele>80.6</ele><time>2026-05-01T08:09:10Z</time></trkpt>
<trkpt lat="-23.5350311" lon="-46.6130925"><ele>80.5</ele><time>2026-05-01T08:09:20Z</time></trkpt>
<trkpt lat="-23.5346694" lon="-46.6128011"><ele>80.4</ele><time>2026-05-01T08:09:30Z</time></trkpt>
<trkpt lat="-23.5342901" lon="-46.6125376"><ele>80.4</ele><time>2026-05-01T08:09:40Z</time></trkpt>
<trkpt lat="-23.5338966" lon="-46.6123003"><ele>80.3</ele><time>2026-05-01T08:09:50Z</time></trkpt>
<trkpt lat="-23.5334919" lon="-46.6120865"><ele>80.2</ele><time>2026-05-01T08:10:00Z</time></trkpt>
<trkpt lat="-23.5330791" lon="-46.6118921"><ele>80.2</ele><time>2026-05-01T08:10:10Z</time></trkpt>
<trkpt lat="-23.5326607" lon="-46.6117123"><ele>80.1</ele><time>2026-05-01T08:10:20Z</time></trkpt>
<trkpt lat="-23.5322392" lon="-46.6115415"><ele>80.1</ele><time>2026-05-01T08:10:30Z</time></trkpt>
<trkpt lat="-23.5318167" lon="-46.6113737"><ele>80.0</ele><time>2026-05-01T08:10:40Z</time></trkpt>
<trkpt lat="-23.5313952" lon="-46.6112029"><ele>80.0</ele><time>2026-05-01T08:10:50Z</time></trkpt>
<trkpt lat="-23.5309768" lon="-46.6110231"><ele>80.0</ele><time>2026-05-01T08:11:00Z</time></trkpt>
<trkpt lat="-23.5305640" lon="-46.6108288"><ele>80.0</ele><time>2026-05-01T08:11:10Z</time></trkpt>
<trkpt lat="-23.5301593" lon="-46.6106149"><ele>80.0</ele><time>2026-05-01T08:11:20Z</time></trkpt>
<trkpt lat="-23.5297658" lon="-46.6103777"><ele>80.0</ele><time>2026-05-01T08:11:30Z</time></trkpt>
<trkpt lat="-23.5293865" lon="-46.6101142"><ele>80.0</ele><time>2026-05-01T08:11:40Z</time></trkpt>
<trkpt lat="-23.5290248" lon="-46.6098228"><ele>80.1</ele><time>2026-05-01T08:11:50Z</time></trkpt>
<trkpt lat="-23.5286837" lon="-46.6095032"><ele>80.1</ele><time>2026-05-01T08:12:00Z</time></trkpt>
<trkpt lat="-23.5283658" lon="-46.6091564"><ele>80.1</ele><time>2026-05-01T08:12:10Z</time></trkpt>
<trkpt lat="-23.5280728" lon="-46.6087844"><ele>80.2</ele><time>2026-05-01T08:12:20Z</time></trkpt>
<trkpt lat="-23.5278056" lon="-46.6083899"><ele>80.2</ele><time>2026-05-01T08:12:30Z</time></trkpt>
<trkpt lat="-23.5275640" lon="-46.6079763"><ele>80.2</ele><time>2026-05-01T08:12:40Z</time></trkpt>
<trkpt lat="-23.5273465" lon="-46.6075471"><ele>80.3</ele><time>2026-05-01T08:12:50Z</time></trkpt>
<trkpt lat="-23.5271504" lon="-46.6071057"><ele>80.3</ele><time>2026-05-01T08:13:00Z</time></trkpt>
<trkpt lat="-23.5269722" lon="-46.6066554"><ele>80.3</ele><time>2026-05-01T08:13:10Z</time></trkpt>
<trkpt lat="-23.5268074" lon="-46.6061992"><ele>80.3</ele><time>2026-05-01T08:13:20Z</time></trkpt>
<trkpt lat="-23.5266508" lon="-46.6057394"><ele>80.4</ele><time>2026-05-01T08:13:30Z</time></trkpt>
<trkpt lat="-23.5264970" lon="-46.6052786"><ele>80.4</ele><time>2026-05-01T08:13:40Z</time></trkpt>
<trkpt lat="-23.5263404" lon="-46.6048188"><ele>80.4</ele><time>2026-05-01T08:13:50Z</time></trkpt>
<trkpt lat="-23.5261755" lon="-46.6043626"><ele>80.5</ele><time>2026-05-01T08:14:00Z</time></trkpt>
<trkpt lat="-23.5259973" lon="-46.6039123"><ele>80.5</ele><time>2026-05-01T08:14:10Z</time></trkpt>
<trkpt lat="-23.5258013" lon="-46.6034709"><ele>80.6</ele><time>2026-05-01T08:14:20Z</time></trkpt>
<trkpt lat="-23.5255837" lon="-46.6030417"><ele>80.6</ele><time>2026-05-01T08:14:30Z</time></trkpt>
<trkpt lat="-23.5253421" lon="-46.6026281"><ele>80.7</ele><time>2026-05-01T08:14:40Z</time></trkpt>
<trkpt lat="-23.5250750" lon="-46.6022336"><ele>80.7</ele><time>2026-05-01T08:14:50Z</time></trkpt>
<trkpt lat="-23.5247820" lon="-46.6018616"><ele>80.8</ele><time>2026-05-01T08:15:00Z</time></trkpt>
<trkpt lat="-23.5244641" lon="-46.6015148"><ele>80.9</ele><time>2026-05-01T08:15:10Z</time></trkpt>
<trkpt lat="-23.5241229" lon="-46.6011953"><ele>81.0</ele><time>2026-05-01T08:15:20Z</time></trkpt>
<trkpt lat="-23.5237612" lon="-46.6009039"><ele>81.1</ele><time>2026-05-01T08:15:30Z</time></trkpt>
<trkpt lat="-23.5233820" lon="-46.6006404"><ele>81.3</ele><time>2026-05-01T08:15:40Z</time></trkpt>
<trkpt lat="-23.5229885" lon="-46.6004032"><ele>81.4</ele><time>2026-05-01T08:15:50Z</time></trkpt>
<trkpt lat="-23.5225838" lon="-46.6001894"><ele>81.6</ele><time>2026-05-01T08:16:00Z</time></trkpt>
<trkpt lat="-23.5221709" lon="-46.5999950"><ele>81.7</ele><time>2026-05-01T08:16:10Z</time></trkpt>
<trkpt lat="-23.5217526" lon="-46.5998152"><ele>81.9</ele><time>2026-05-01T08:16:20Z</time></trkpt>
<trkpt lat="-23.5213311" lon="-46.5996444"><ele>82.1</ele><time>2026-05-01T08:16:30Z</time></trkpt>
<trkpt lat="-23.5209085" lon="-46.5994767"><ele>82.3</ele><time>2026-05-01T08:16:40Z</time></trkpt>
<trkpt lat="-23.5204870" lon="-46.5993059"><ele>82.5</ele><time>2026-05-01T08:16:50Z</time></trkpt>
<trkpt lat="-23.5200687" lon="-46.5991261"><ele>82.7</ele><time>2026-05-01T08:17:00Z</time></trkpt>
<trkpt lat="-23.5196558" lon="-46.5989317"><ele>82.9</ele><time>2026-05-01T08:17:10Z</time></trkpt>
<trkpt lat="-23.5192512" lon="-46.5987179"><ele>83.1</ele><time>2026-05-01T08:17:20Z</time></trkpt>
<trkpt lat="-23.5188576" lon="-46.5984807"><ele>83.3</ele><time>2026-05-01T08:17:30Z</time></trkpt>
<trkpt lat="-23.5184784" lon="-46.5982172"><ele>83.5</ele><time>2026-05-01T08:17:40Z</time></trkpt>
<trkpt lat="-23.5181167" lon="-46.5979259"><ele>83.7</ele><time>2026-05-01T08:17:50Z</time></trkpt>
<trkpt lat="-23.5177756" lon="-46.5976063"><ele>83.9</ele><time>2026-05-01T08:18:00Z</time></trkpt>
<trkpt lat="-23.5174576" lon="-46.5972596"><ele>84.1</ele><time>2026-05-01T08:18:10Z</time></trkpt>
<trkpt lat="-23.5171646" lon="-46.5968876"><ele>84.3</ele><time>2026-05-01T08:18:20Z</time></trkpt>
<trkpt lat="-23.5168975" lon="-46.5964931"><ele>84.5</ele><time>2026-05-01T08:18:30Z</time></trkpt>
<trkpt lat="-23.5166559" lon="-46.5960795"><ele>84.6</ele><time>2026-05-01T08:18:40Z</time></trkpt>
<trkpt lat="-23.5164384" lon="-46.5956503"><ele>84.8</ele><time>2026-05-01T08:18:50Z</time></trkpt>
<trkpt lat="-23.5162423" lon="-46.5952090"><ele>84.9</ele><time>2026-05-01T08:19:00Z</time></trkpt>
<trkpt lat="-23.5160641" lon="-46.5947588"><ele>85.0</ele><time>2026-05-01T08:19:10Z</time></trkpt>
<trkpt lat="-23.5158992" lon="-46.5943025"><ele>85.1</ele><time>2026-05-01T08:19:20Z</time></trkpt>
<trkpt lat="-23.5157426" lon="-46.5938428"><ele>85.2</ele><time>2026-05-01T08:19:30Z</time></trkpt>
<trkpt lat="-23.5155888" lon="-46.5933820"><ele>85.3</ele><time>2026-05-01T08:19:40Z</time></trkpt>
<trkpt lat="-23.5154322" lon="-46.5929223"><ele>85.4</ele><time>2026-05-01T08:19:50Z</time></trkpt>
<trkpt lat="-23.5152674" lon="-46.5924661"><ele>85.5</ele><time>2026-05-01T08:20:00Z</time></trkpt>
<trkpt lat="-23.5154922" lon="-46.5920414"><ele>85.4</ele><time>2026-05-01T08:20:10Z</time></trkpt>
<trkpt lat="-23.5157625" lon="-46.5916495"><ele>85.2</ele><time>2026-05-01T08:20:20Z</time></trkpt>
<trkpt lat="-23.5160730" lon="-46.5912948"><ele>85.0</ele><time>2026-05-01T08:20:30Z</time></trkpt>
<trkpt lat="-23.5164175" lon="-46.5909796"><ele>84.8</ele><time>2026-05-01T08:20:40Z</time></trkpt>
<trkpt lat="-23.5167890" lon="-46.5907034"><ele>84.5</ele><time>2026-05-01T08:20:50Z</time></trkpt>
<trkpt lat="-23.5171809" lon="-46.5904629"><ele>84.3</ele><time>2026-05-01T08:21:00Z</time></trkpt>
<trkpt lat="-23.5175873" lon="-46.5902529"><ele>84.0</ele><time>2026-05-01T08:21:10Z</time></trkpt>
<trkpt lat="-23.5180030" lon="-46.5900659"><ele>83.8</ele><time>2026-05-01T08:21:20Z</time></trkpt>
<trkpt lat="-23.5184238" lon="-46.5898933"><ele>83.6</ele><time>2026-05-01T08:21:30Z</time></trkpt>
<trkpt lat="-23.5188464" lon="-46.5897256"><ele>83.3</ele><time>2026-05-01T08:21:40Z</time></trkpt>
<trkpt lat="-23.5192673" lon="-46.5895530"><ele>83.1</ele><time>2026-05-01T08:21:50Z</time></trkpt>
<trkpt lat="-23.5196830" lon="-46.5893660"><ele>82.9</ele><time>2026-05-01T08:22:00Z</time></trkpt>
<trkpt lat="-23.5200893" lon="-46.5891560"><ele>82.7</ele><time>2026-05-01T08:22:10Z</time></trkpt>
<trkpt lat="-23.5204812" lon="-46.5889156"><ele>82.5</ele><time>2026-05-01T08:22:20Z</time></trkpt>
<trkpt lat="-23.5208527" lon="-46.5886393"><ele>82.3</ele><time>2026-05-01T08:22:30Z</time></trkpt>
<trkpt lat="-23.5211972" lon="-46.5883240"><ele>82.1</ele><time>2026-05-01T08:22:40Z</time></trkpt>
<trkpt lat="-23.5215077" lon="-46.5879694"><ele>82.0</ele><time>2026-05-01T08:22:50Z</time></trkpt>
<trkpt lat="-23.5217780" lon="-46.5875774"><ele>81.9</ele><time>2026-05-01T08:23:00Z</time></trkpt>
<trkpt lat="-23.5220028" lon="-46.5871527"><ele>81.8</ele><time>2026-05-01T08:23:10Z</time></trkpt>
<trkpt lat="-23.5221789" lon="-46.5867015"><ele>81.7</ele><time>2026-05-01T08:23:20Z</time></trkpt>
<trkpt lat="-23.5223053" lon="-46.5862308"><ele>81.7</ele><time>2026-05-01T08:23:30Z</time></trkpt>
<trkpt lat="-23.5223834" lon="-46.5857479"><ele>81.6</ele><time>2026-05-01T08:23:40Z</time></trkpt>
<trkpt lat="-23.5224170" lon="-46.5852588"><ele>81.6</ele><time>2026-05-01T08:23:50Z</time></trkpt>
<trkpt lat="-23.5224120" lon="-46.5847685"><ele>81.6</ele><time>2026-05-01T08:24:00Z</time></trkpt>
<trkpt lat="-23.5223756" lon="-46.5842797"><ele>81.6</ele><time>2026-05-01T08:24:10Z</time></trkpt>
<trkpt lat="-23.5223162" lon="-46.5837935"><ele>81.7</ele><time>2026-05-01T08:24:20Z</time></trkpt>
<trkpt lat="-23.5222428" lon="-46.5833097"><ele>81.7</ele><time>2026-05-01T08:24:30Z</time></trkpt>
<trkpt lat="-23.5221647" lon="-46.5828267"><ele>81.7</ele><time>2026-05-01T08:24:40Z</time></trkpt>
<trkpt lat="-23.5220913" lon="-46.5823429"><ele>81.8</ele><time>2026-05-01T08:24:50Z</time></trkpt>
<trkpt lat="-23.5220320" lon="-46.5818568"><ele>81.8</ele><time>2026-05-01T08:25:00Z</time></trkpt>
<trkpt lat="-23.5219956" lon="-46.5813680"><ele>81.8</ele><time>2026-05-01T08:25:10Z</time></trkpt>
<trkpt lat="-23.5219905" lon="-46.5808776"><ele>81.8</ele><time>2026-05-01T08:25:20Z</time></trkpt>
<trkpt lat="-23.5220242" lon="-46.5803886"><ele>81.8</ele><time>2026-05-01T08:25:30Z</time></trkpt>
<trkpt lat="-23.5221023" lon="-46.5799056"><ele>81.7</ele><time>2026-05-01T08:25:40Z</time></trkpt>
<trkpt lat="-23.5222286" lon="-46.5794350"><ele>81.7</ele><time>2026-05-01T08:25:50Z</time></trkpt>
<trkpt lat="-23.5224047" lon="-46.5789837"><ele>81.6</ele><time>2026-05-01T08:26:00Z</time></trkpt>
<trkpt lat="-23.5226295" lon="-46.5785590"><ele>81.5</ele><time>2026-05-01T08:26:10Z</time></trkpt>
<trkpt lat="-23.5228998" lon="-46.5781671"><ele>81.4</ele><time>2026-05-01T08:26:20Z</time></trkpt>
<trkpt lat="-23.5232103" lon="-46.5778124"><ele>81.3</ele><time>2026-05-01T08:26:30Z</time></trkpt>
<trkpt lat="-23.5235548" lon="-46.5774972"><ele>81.2</ele><time>2026-05-01T08:26:40Z</time></trkpt>
<trkpt lat="-23.5239263" lon="-46.5772209"><ele>81.1</ele><time>2026-05-01T08:26:50Z</time></trkpt>
<trkpt lat="-23.5243182" lon="-46.5769804"><ele>81.0</ele><time>2026-05-01T08:27:00Z</time></trkpt>
<trkpt lat="-23.5247246" lon="-46.5767704"><ele>80.8</ele><time>2026-05-01T08:27:10Z</time></trkpt>
<trkpt lat="-23.5251403" lon="-46.5765834"><ele>80.7</ele><time>2026-05-01T08:27:20Z</time></trkpt>
<trkpt lat="-23.5255611" lon="-46.5764108"><ele>80.6</ele><time>2026-05-01T08:27:30Z</time></trkpt>
<trkpt lat="-23.5259837" lon="-46.5762431"><ele>80.5</ele><time>2026-05-01T08:27:40Z</time></trkpt>
<trkpt lat="-23.5264046" lon="-46.5760705"><ele>80.4</ele><time>2026-05-01T08:27:50Z</time></trkpt>
<trkpt lat="-23.5268203" lon="-46.5758835"><ele>80.3</ele><time>2026-05-01T08:28:00Z</time></trkpt>
<trkpt lat="-23.5272266" lon="-46.5756734"><ele>80.3</ele><time>2026-05-01T08:28:10Z</time></trkpt>
<trkpt lat="-23.5276185" lon="-46.5754330"><ele>80.2</ele><time>2026-05-01T08:28:20Z</time></trkpt>
<trkpt lat="-23.5279900" lon="-46.5751567"><ele>80.2</ele><time>2026-05-01T08:28:30Z</time></trkpt>
<trkpt lat="-23.5283345" lon="-46.5748414"><ele>80.1</ele><time>2026-05-01T08:28:40Z</time></trkpt>
<trkpt lat="-23.5286450" lon="-46.5744868"><ele>80.1</ele><time>2026-05-01T08:28:50Z</time></trkpt>
<trkpt lat="-23.5289153" lon="-46.5740948"><ele>80.1</ele><time>2026-05-01T08:29:00Z</time></trkpt>
<trkpt lat="-23.5291401" lon="-46.5736701"><ele>80.0</ele><time>2026-05-01T08:29:10Z</time></trkpt>
<trkpt lat="-23.5293162" lon="-46.5732188"><ele>80.0</ele><time>2026-05-01T08:29:20Z</time></trkpt>
<trkpt lat="-23.5294426" lon="-46.5727481"><ele>80.0</ele><time>2026-05-01T08:29:30Z</time></trkpt>
<trkpt lat="-23.5295207" lon="-46.5722651"><ele>80.0</ele><time>2026-05-01T08:29:40Z</time></trkpt>
<trkpt lat="-23.5295543" lon="-46.5717761"><ele>80.0</ele><time>2026-05-01T08:29:50Z</time></trkpt>
<trkpt lat="-23.5295493" lon="-46.5712857"><ele>80.0</ele><time>2026-05-01T08:30:00Z</time></trkpt>
<trkpt lat="-23.5295129" lon="-46.5707968"><ele>80.0</ele><time>2026-05-01T08:30:10Z</time></trkpt>
<trkpt lat="-23.5294535" lon="-46.5703107"><ele>80.0</ele><time>2026-05-01T08:30:20Z</time></trkpt>
<trkpt lat="-23.5293801" lon="-46.5698268"><ele>80.0</ele><time>2026-05-01T08:30:30Z</time></trkpt>
<trkpt lat="-23.5293020" lon="-46.5693438"><ele>80.0</ele><time>2026-05-01T08:30:40Z</time></trkpt>
<trkpt lat="-23.5292286" lon="-46.5688600"><ele>80.0</ele><time>2026-05-01T08:30:50Z</time></trkpt>
<trkpt lat="-23.5291693" lon="-46.5683738"><ele>80.0</ele><time>2026-05-01T08:31:00Z</time></trkpt>
<trkpt lat="-23.5291329" lon="-46.5678850"><ele>80.0</ele><time>2026-05-01T08:31:10Z</time></trkpt>
<trkpt lat="-23.5291278" lon="-46.5673946"><ele>80.0</ele><time>2026-05-01T08:31:20Z</time></trkpt>
<trkpt lat="-23.5291615" lon="-46.5669055"><ele>80.0</ele><time>2026-05-01T08:31:30Z</time></trkpt>
<trkpt lat="-23.5292396" lon="-46.5664225"><ele>80.0</ele><time>2026-05-01T08:31:40Z</time></trkpt>
<trkpt lat="-23.5293659" lon="-46.5659519"><ele>80.0</ele><time>2026-05-01T08:31:50Z</time></trkpt>
<trkpt lat="-23.5295420" lon="-46.5655006"><ele>80.0</ele><time>2026-05-01T08:32:00Z</time></trkpt>
<trkpt lat="-23.5297668" lon="-46.5650759"><ele>80.0</ele><time>2026-05-01T08:32:10Z</time></trkpt>
<trkpt lat="-23.5300371" lon="-46.5646839"><ele>80.0</ele><time>2026-05-01T08:32:20Z</time></trkpt>
<trkpt lat="-23.5303476" lon="-46.5643292"><ele>80.0</ele><time>2026-05-01T08:32:30Z</time></trkpt>
<trkpt lat="-23.5306921" lon="-46.5640140"><ele>80.0</ele><time>2026-05-01T08:32:40Z</time></trkpt>
<trkpt lat="-23.5310636" lon="-46.5637377"><ele>80.0</ele><time>2026-05-01T08:32:50Z</time></trkpt>
<trkpt lat="-23.5314555" lon="-46.5634972"><ele>80.0</ele><time>2026-05-01T08:33:00Z</time></trkpt>
<trkpt lat="-23.5318619" lon="-46.5632872"><ele>80.0</ele><time>2026-05-01T08:33:10Z</time></trkpt>
<trkpt lat="-23.5322776" lon="-46.5631002"><ele>80.1</ele><time>2026-05-01T08:33:20Z</time></trkpt>
<trkpt lat="-23.5326984" lon="-46.5629276"><ele>80.1</ele><time>2026-05-01T08:33:30Z</time></trkpt>
<trkpt lat="-23.5331210" lon="-46.5627598"><ele>80.2</ele><time>2026-05-01T08:33:40Z</time></trkpt>
<trkpt lat="-23.5335419" lon="-46.5625872"><ele>80.2</ele><time>2026-05-01T08:33:50Z</time></trkpt>
<trkpt lat="-23.5339576" lon="-46.5624002"><ele>80.3</ele><time>2026-05-01T08:34:00Z</time></trkpt>
<trkpt lat="-23.5343639" lon="-46.5621901"><ele>80.4</ele><time>2026-05-01T08:34:10Z</time></trkpt>
<trkpt lat="-23.5347558" lon="-46.5619497"><ele>80.4</ele><time>2026-05-01T08:34:20Z</time></trkpt>
<trkpt lat="-23.5351273" lon="-46.5616734"><ele>80.5</ele><time>2026-05-01T08:34:30Z</time></trkpt>
<trkpt lat="-23.5354718" lon="-46.5613581"><ele>80.6</ele><time>2026-05-01T08:34:40Z</time></trkpt>
<trkpt lat="-23.5357823" lon="-46.5610034"><ele>80.7</ele><time>2026-05-01T08:34:50Z</time></trkpt>
<trkpt lat="-23.5360526" lon="-46.5606114"><ele>80.8</ele><time>2026-05-01T08:35:00Z</time></trkpt>
<trkpt lat="-23.5362774" lon="-46.5601867"><ele>80.8</ele><time>2026-05-01T08:35:10Z</time></trkpt>
<trkpt lat="-23.5364535" lon="-46.5597354"><ele>80.9</ele><time>2026-05-01T08:35:20Z</time></trkpt>
<trkpt lat="-23.5365799" lon="-46.5592647"><ele>80.9</ele><time>2026-05-01T08:35:30Z</time></trkpt>
<trkpt lat="-23.5366580" lon="-46.5587817"><ele>80.9</ele><time>2026-05-01T08:35:40Z</time></trkpt>
<trkpt lat="-23.5366916" lon="-46.5582926"><ele>80.9</ele><time>2026-05-01T08:35:50Z</time></trkpt>
<trkpt lat="-23.5366865" lon="-46.5578021"><ele>80.9</ele><time>2026-05-01T08:36:00Z</time></trkpt>
<trkpt lat="-23.5366502" lon="-46.5573133"><ele>80.9</ele><time>2026-05-01T08:36:10Z</time></trkpt>
<trkpt lat="-23.5365908" lon="-46.5568271"><ele>80.9</ele><time>2026-05-01T08:36:20Z</time></trkpt>
<trkpt lat="-23.5365174" lon="-46.5563432"><ele>80.9</ele><time>2026-05-01T08:36:30Z</time></trkpt>
<trkpt lat="-23.5364393" lon="-46.5558602"><ele>80.9</ele><time>2026-05-01T08:36:40Z</time></trkpt>
<trkpt lat="-23.5366642" lon="-46.5554354"><ele>80.9</ele><time>2026-05-01T08:36:50Z</time></trkpt>
<trkpt lat="-23.5369650" lon="-46.5550710"><ele>81.0</ele><time>2026-05-01T08:37:00Z</time></trkpt>
<trkpt lat="-23.5373288" lon="-46.5547827"><ele>81.1</ele><time>2026-05-01T08:37:10Z</time></trkpt>
<trkpt lat="-23.5377396" lon="-46.5545832"><ele>81.3</ele><time>2026-05-01T08:37:20Z</time></trkpt>
<trkpt lat="-23.5381794" lon="-46.5544812"><ele>81.4</ele><time>2026-05-01T08:37:30Z</time></trkpt>
<trkpt lat="-23.5386291" lon="-46.5544812"><ele>81.6</ele><time>2026-05-01T08:37:40Z</time></trkpt>
<trkpt lat="-23.5390689" lon="-46.5545832"><ele>81.8</ele><time>2026-05-01T08:37:50Z</time></trkpt>
<trkpt lat="-23.5394797" lon="-46.5547827"><ele>82.0</ele><time>2026-05-01T08:38:00Z</time></trkpt>
<trkpt lat="-23.5398435" lon="-46.5550710"><ele>82.1</ele><time>2026-05-01T08:38:10Z</time></trkpt>
<trkpt lat="-23.5401444" lon="-46.5554355"><ele>82.3</ele><time>2026-05-01T08:38:20Z</time></trkpt>
<trkpt lat="-23.5403692" lon="-46.5558602"><ele>82.4</ele><time>2026-05-01T08:38:30Z</time></trkpt>
<trkpt lat="-23.5405082" lon="-46.5563267"><ele>82.4</ele><time>2026-05-01T08:38:40Z</time></trkpt>
<trkpt lat="-23.5405552" lon="-46.5568145"><ele>82.5</ele><time>2026-05-01T08:38:50Z</time></trkpt>
<trkpt lat="-23.5405082" lon="-46.5573023"><ele>82.4</ele><time>2026-05-01T08:39:00Z</time></trkpt>
<trkpt lat="-23.5403692" lon="-46.5577688"><ele>82.4</ele><time>2026-05-01T08:39:10Z</time></trkpt>
<trkpt lat="-23.5401444" lon="-46.5581935"><ele>82.3</ele><time>2026-05-01T08:39:20Z</time></trkpt>
<trkpt lat="-23.5398435" lon="-46.5585580"><ele>82.1</ele><time>2026-05-01T08:39:30Z</time></trkpt>
<trkpt lat="-23.5394797" lon="-46.5588463"><ele>82.0</ele><time>2026-05-01T08:39:40Z</time></trkpt>
<trkpt lat="-23.5390689" lon="-46.5590458"><ele>81.8</ele><time>2026-05-01T08:39:50Z</time></trkpt>
<trkpt lat="-23.5386291" lon="-46.5591478"><ele>81.6</ele><time>2026-05-01T08:40:00Z</time></trkpt>
<trkpt lat="-23.5381794" lon="-46.5591478"><ele>81.4</ele><time>2026-05-01T08:40:10Z</time></trkpt>
<trkpt lat="-23.5377396" lon="-46.5590458"><ele>81.3</ele><time>2026-05-01T08:40:20Z</time></trkpt>
<trkpt lat="-23.5373288" lon="-46.5588463"><ele>81.1</ele><time>2026-05-01T08:40:30Z</time></trkpt>
<trkpt lat="-23.5369650" lon="-46.5585580"><ele>81.0</ele><time>2026-05-01T08:40:40Z</time></trkpt>
<trkpt lat="-23.5366641" lon="-46.5581935"><ele>80.9</ele><time>2026-05-01T08:40:50Z</time></trkpt>
<trkpt lat="-23.5364393" lon="-46.5577688"><ele>80.9</ele><time>2026-05-01T08:41:00Z</time></trkpt>
<trkpt lat="-23.5363004" lon="-46.5573023"><ele>80.8</ele><time>2026-05-01T08:41:10Z</time></trkpt>
<trkpt lat="-23.5362534" lon="-46.5568146"><ele>80.8</ele><time>2026-05-01T08:41:20Z</time></trkpt>
<trkpt lat="-23.5363004" lon="-46.5563268"><ele>80.8</ele><time>2026-05-01T08:41:30Z</time></trkpt>
<trkpt lat="-23.5364393" lon="-46.5558603"><ele>80.9</ele><time>2026-05-01T08:41:40Z</time></trkpt>
<trkpt lat="-23.5368619" lon="-46.5560281"><ele>81.0</ele><time>2026-05-01T08:41:50Z</time></trkpt>
<trkpt lat="-23.5372687" lon="-46.5562370"><ele>81.1</ele><time>2026-05-01T08:42:00Z</time></trkpt>
<trkpt lat="-23.5376571" lon="-46.5564841"><ele>81.3</ele><time>2026-05-01T08:42:10Z</time></trkpt>
<trkpt lat="-23.5380254" lon="-46.5567655"><ele>81.4</ele><time>2026-05-01T08:42:20Z</time></trkpt>
<trkpt lat="-23.5383735" lon="-46.5570760"><ele>81.5</ele><time>2026-05-01T08:42:30Z</time></trkpt>
<trkpt lat="-23.5387024" lon="-46.5574104"><ele>81.6</ele><time>2026-05-01T08:42:40Z</time></trkpt>
<trkpt lat="-23.5390149" lon="-46.5577631"><ele>81.8</ele><time>2026-05-01T08:42:50Z</time></trkpt>
<trkpt lat="-23.5393147" lon="-46.5581287"><ele>81.9</ele><time>2026-05-01T08:43:00Z</time></trkpt>
<trkpt lat="-23.5396064" lon="-46.5585019"><ele>82.0</ele><time>2026-05-01T08:43:10Z</time></trkpt>
<trkpt lat="-23.5398955" lon="-46.5588776"><ele>82.2</ele><time>2026-05-01T08:43:20Z</time></trkpt>
<trkpt lat="-23.5401872" lon="-46.5592508"><ele>82.3</ele><time>2026-05-01T08:43:30Z</time></trkpt>
<trkpt lat="-23.5404870" lon="-46.5596164"><ele>82.4</ele><time>2026-05-01T08:43:40Z</time></trkpt>
<trkpt lat="-23.5407995" lon="-46.5599691"><ele>82.6</ele><time>2026-05-01T08:43:50Z</time></trkpt>
<trkpt lat="-23.5411284" lon="-46.5603035"><ele>82.7</ele><time>2026-05-01T08:44:00Z</time></trkpt>
<trkpt lat="-23.5414765" lon="-46.5606141"><ele>82.9</ele><time>2026-05-01T08:44:10Z</time></trkpt>
<trkpt lat="-23.5418448" lon="-46.5608954"><ele>83.1</ele><time>2026-05-01T08:44:20Z</time></trkpt>
<trkpt lat="-23.5422332" lon="-46.5611426"><ele>83.3</ele><time>2026-05-01T08:44:30Z</time></trkpt>
<trkpt lat="-23.5426400" lon="-46.5613515"><ele>83.6</ele><time>2026-05-01T08:44:40Z</time></trkpt>
<trkpt lat="-23.5430626" lon="-46.5615192"><ele>83.8</ele><time>2026-05-01T08:44:50Z</time></trkpt>
<trkpt lat="-23.5434973" lon="-46.5616445"><ele>84.1</ele><time>2026-05-01T08:45:00Z</time></trkpt>
<trkpt lat="-23.5439405" lon="-46.5617274"><ele>84.3</ele><time>2026-05-01T08:45:10Z</time></trkpt>
<trkpt lat="-23.5443885" lon="-46.5617702"><ele>84.6</ele><time>2026-05-01T08:45:20Z</time></trkpt>
<trkpt lat="-23.5448381" lon="-46.5617763"><ele>84.9</ele><time>2026-05-01T08:45:30Z</time></trkpt>
<trkpt lat="-23.5452872" lon="-46.5617508"><ele>85.2</ele><time>2026-05-01T08:45:40Z</time></trkpt>
<trkpt lat="-23.5457344" lon="-46.5616997"><ele>85.5</ele><time>2026-05-01T08:45:50Z</time></trkpt>
<trkpt lat="-23.5461794" lon="-46.5616298"><ele>85.8</ele><time>2026-05-01T08:46:00Z</time></trkpt>
<trkpt lat="-23.5466229" lon="-46.5615485"><ele>86.1</ele><time>2026-05-01T08:46:10Z</time></trkpt>
<trkpt lat="-23.5470657" lon="-46.5614633"><ele>86.5</ele><time>2026-05-01T08:46:20Z</time></trkpt>
<trkpt lat="-23.5475091" lon="-46.5613820"><ele>86.8</ele><time>2026-05-01T08:46:30Z</time></trkpt>
<trkpt lat="-23.5479542" lon="-46.5613121"><ele>87.1</ele><time>2026-05-01T08:46:40Z</time></trkpt>
<trkpt lat="-23.5484014" lon="-46.5612610"><ele>87.5</ele><time>2026-05-01T08:46:50Z</time></trkpt>
<trkpt lat="-23.5488505" lon="-46.5612355"><ele>87.8</ele><time>2026-05-01T08:47:00Z</time></trkpt>
<trkpt lat="-23.5493001" lon="-46.5612416"><ele>88.2</ele><time>2026-05-01T08:47:10Z</time></trkpt>
<trkpt lat="-23.5497481" lon="-46.5612844"><ele>88.5</ele><time>2026-05-01T08:47:20Z</time></trkpt>
<trkpt lat="-23.5501912" lon="-46.5613673"><ele>88.9</ele><time>2026-05-01T08:47:30Z</time></trkpt>
<trkpt lat="-23.5506260" lon="-46.5614926"><ele>89.3</ele><time>2026-05-01T08:47:40Z</time></trkpt>
<trkpt lat="-23.5510485" lon="-46.5616603"><ele>89.6</ele><time>2026-05-01T08:47:50Z</time></trkpt>
<trkpt lat="-23.5514554" lon="-46.5618693"><ele>90.0</ele><time>2026-05-01T08:48:00Z</time></trkpt>
<trkpt lat="-23.5518438" lon="-46.5621164"><ele>90.3</ele><time>2026-05-01T08:48:10Z</time></trkpt>
<trkpt lat="-23.5522121" lon="-46.5623978"><ele>90.6</ele><time>2026-05-01T08:48:20Z</time></trkpt>
<trkpt lat="-23.5525602" lon="-46.5627084"><ele>91.0</ele><time>2026-05-01T08:48:30Z</time></trkpt>
<trkpt lat="-23.5528891" lon="-46.5630428"><ele>91.3</ele><time>2026-05-01T08:48:40Z</time></trkpt>
<trkpt lat="-23.5532016" lon="-46.5633955"><ele>91.5</ele><time>2026-05-01T08:48:50Z</time></trkpt>
<trkpt lat="-23.5535013" lon="-46.5637612"><ele>91.8</ele><time>2026-05-01T08:49:00Z</time></trkpt>
<trkpt lat="-23.5537931" lon="-46.5641344"><ele>92.1</ele><time>2026-05-01T08:49:10Z</time></trkpt>
<trkpt lat="-23.5540822" lon="-46.5645102"><ele>92.3</ele><time>2026-05-01T08:49:20Z</time></trkpt>
<trkpt lat="-23.5543739" lon="-46.5648834"><ele>92.6</ele><time>2026-05-01T08:49:30Z</time></trkpt>
<trkpt lat="-23.5546737" lon="-46.5652491"><ele>92.9</ele><time>2026-05-01T08:49:40Z</time></trkpt>
<trkpt lat="-23.5549862" lon="-46.5656018"><ele>93.2</ele><time>2026-05-01T08:49:50Z</time></trkpt>
<trkpt lat="-23.5553151" lon="-46.5659362"><ele>93.5</ele><time>2026-05-01T08:50:00Z</time></trkpt>
<trkpt lat="-23.5556632" lon="-46.5662468"><ele>93.8</ele><time>2026-05-01T08:50:10Z</time></trkpt>
<trkpt lat="-23.5560315" lon="-46.5665282"><ele>94.2</ele><time>2026-05-01T08:50:20Z</time></trkpt>
<trkpt lat="-23.5564199" lon="-46.5667754"><ele>94.5</ele><time>2026-05-01T08:50:30Z</time></trkpt>
<trkpt lat="-23.5568267" lon="-46.5669843"><ele>94.9</ele><time>2026-05-01T08:50:40Z</time></trkpt>
<trkpt lat="-23.5572493" lon="-46.5671521"><ele>95.3</ele><time>2026-05-01T08:50:50Z</time></trkpt>
<trkpt lat="-23.5576840" lon="-46.5672773"><ele>95.8</ele><time>2026-05-01T08:51:00Z</time></trkpt>
<trkpt lat="-23.5581272" lon="-46.5673603"><ele>96.2</ele><time>2026-05-01T08:51:10Z</time></trkpt>
<trkpt lat="-23.5585752" lon="-46.5674031"><ele>96.6</ele><time>2026-05-01T08:51:20Z</time></trkpt>
<trkpt lat="-23.5590248" lon="-46.5674092"><ele>97.1</ele><time>2026-05-01T08:51:30Z</time></trkpt>
<trkpt lat="-23.5594738" lon="-46.5673837"><ele>97.5</ele><time>2026-05-01T08:51:40Z</time></trkpt>
<trkpt lat="-23.5599211" lon="-46.5673326"><ele>98.0</ele><time>2026-05-01T08:51:50Z</time></trkpt>
<trkpt lat="-23.5603661" lon="-46.5672627"><ele>98.4</ele><time>2026-05-01T08:52:00Z</time></trkpt>
<trkpt lat="-23.5608096" lon="-46.5671813"><ele>98.9</ele><time>2026-05-01T08:52:10Z</time></trkpt>
<trkpt lat="-23.5612524" lon="-46.5670961"><ele>99.3</ele><time>2026-05-01T08:52:20Z</time></trkpt>
<trkpt lat="-23.5616958" lon="-46.5670148"><ele>99.8</ele><time>2026-05-01T08:52:30Z</time></trkpt>
<trkpt lat="-23.5621409" lon="-46.5669449"><ele>100.2</ele><time>2026-05-01T08:52:40Z</time></trkpt>
<trkpt lat="-23.5625881" lon="-46.5668938"><ele>100.6</ele><time>2026-05-01T08:52:50Z</time></trkpt>
<trkpt lat="-23.5630372" lon="-46.5668683"><ele>101.1</ele><time>2026-05-01T08:53:00Z</time></trkpt>
<trkpt lat="-23.5634868" lon="-46.5668744"><ele>101.5</ele><time>2026-05-01T08:53:10Z</time></trkpt>
<trkpt lat="-23.5639347" lon="-46.5669172"><ele>102.0</ele><time>2026-05-01T08:53:20Z</time></trkpt>
<trkpt lat="-23.5643779" lon="-46.5670002"><ele>102.4</ele><time>2026-05-01T08:53:30Z</time></trkpt>
<trkpt lat="-23.5648127" lon="-46.5671254"><ele>102.9</ele><time>2026-05-01T08:53:40Z</time></trkpt>
<trkpt lat="-23.5652352" lon="-46.5672932"><ele>103.3</ele><time>2026-05-01T08:53:50Z</time></trkpt>
<trkpt lat="-23.5656421" lon="-46.5675021"><ele>103.7</ele><time>2026-05-01T08:54:00Z</time></trkpt>
<trkpt lat="-23.5660305" lon="-46.5677494"><ele>104.1</ele><time>2026-05-01T08:54:10Z</time></trkpt>
<trkpt lat="-23.5663988" lon="-46.5680307"><ele>104.4</ele><time>2026-05-01T08:54:20Z</time></trkpt>
<trkpt lat="-23.5667468" lon="-46.5683414"><ele>104.8</ele><time>2026-05-01T08:54:30Z</time></trkpt>
<trkpt lat="-23.5670758" lon="-46.5686758"><ele>105.1</ele><time>2026-05-01T08:54:40Z</time></trkpt>
<trkpt lat="-23.5673883" lon="-46.5690286"><ele>105.4</ele><time>2026-05-01T08:54:50Z</time></trkpt>
<trkpt lat="-23.5676880" lon="-46.5693942"><ele>105.7</ele><time>2026-05-01T08:55:00Z</time></trkpt>
<trkpt lat="-23.5679798" lon="-46.5697675"><ele>105.9</ele><time>2026-05-01T08:55:10Z</time></trkpt>
<trkpt lat="-23.5682688" lon="-46.5701433"><ele>106.2</ele><time>2026-05-01T08:55:20Z</time></trkpt>
<trkpt lat="-23.5685606" lon="-46.5705166"><ele>106.5</ele><time>2026-05-01T08:55:30Z</time></trkpt>
<trkpt lat="-23.5688604" lon="-46.5708823"><ele>106.8</ele><time>2026-05-01T08:55:40Z</time></trkpt>
<trkpt lat="-23.5691728" lon="-46.5712351"><ele>107.1</ele><time>2026-05-01T08:55:50Z</time></trkpt>
<trkpt lat="-23.5695018" lon="-46.5715695"><ele>107.4</ele><time>2026-05-01T08:56:00Z</time></trkpt>
<trkpt lat="-23.5698498" lon="-46.5718802"><ele>107.7</ele><time>2026-05-01T08:56:10Z</time></trkpt>
<trkpt lat="-23.5702182" lon="-46.5721616"><ele>108.0</ele><time>2026-05-01T08:56:20Z</time></trkpt>
<trkpt lat="-23.5706066" lon="-46.5724088"><ele>108.4</ele><time>2026-05-01T08:56:30Z</time></trkpt>
<trkpt lat="-23.5710134" lon="-46.5726177"><ele>108.8</ele><time>2026-05-01T08:56:40Z</time></trkpt>
<trkpt lat="-23.5714360" lon="-46.5727855"><ele>109.1</ele><time>2026-05-01T08:56:50Z</time></trkpt>
<trkpt lat="-23.5718707" lon="-46.5729108"><ele>109.5</ele><time>2026-05-01T08:57:00Z</time></trkpt>
<trkpt lat="-23.5723139" lon="-46.5729938"><ele>109.9</ele><time>2026-05-01T08:57:10Z</time></trkpt>
<trkpt lat="-23.5727618" lon="-46.5730365"><ele>110.3</ele><time>2026-05-01T08:57:20Z</time></trkpt>
<trkpt lat="-23.5732115" lon="-46.5730427"><ele>110.7</ele><time>2026-05-01T08:57:30Z</time></trkpt>
<trkpt lat="-23.5736605" lon="-46.5730171"><ele>111.1</ele><time>2026-05-01T08:57:40Z</time></trkpt>
<trkpt lat="-23.5741077" lon="-46.5729660"><ele>111.4</ele><time>2026-05-01T08:57:50Z</time></trkpt>
<trkpt lat="-23.5745528" lon="-46.5728961"><ele>111.8</ele><time>2026-05-01T08:58:00Z</time></trkpt>
<trkpt lat="-23.5749962" lon="-46.5728148"><ele>112.1</ele><time>2026-05-01T08:58:10Z</time></trkpt>
<trkpt lat="-23.5754391" lon="-46.5727296"><ele>112.5</ele><time>2026-05-01T08:58:20Z</time></trkpt>
<trkpt lat="-23.5758825" lon="-46.5726482"><ele>112.8</ele><time>2026-05-01T08:58:30Z</time></trkpt>
<trkpt lat="-23.5763276" lon="-46.5725783"><ele>113.2</ele><time>2026-05-01T08:58:40Z</time></trkpt>
<trkpt lat="-23.5767748" lon="-46.5725272"><ele>113.5</ele><time>2026-05-01T08:58:50Z</time></trkpt>
<trkpt lat="-23.5772239" lon="-46.5725017"><ele>113.8</ele><time>2026-05-01T08:59:00Z</time></trkpt>
<trkpt lat="-23.5776735" lon="-46.5725078"><ele>114.2</ele><time>2026-05-01T08:59:10Z</time></trkpt>
<trkpt lat="-23.5781214" lon="-46.5725506"><ele>114.5</ele><time>2026-05-01T08:59:20Z</time></trkpt>
<trkpt lat="-23.5785646" lon="-46.5726336"><ele>114.8</ele><time>2026-05-01T08:59:30Z</time></trkpt>
<trkpt lat="-23.5789994" lon="-46.5727589"><ele>115.1</ele><time>2026-05-01T08:59:40Z</time></trkpt>
<trkpt lat="-23.5794219" lon="-46.5729267"><ele>115.3</ele><time>2026-05-01T08:59:50Z</time></trkpt>
<trkpt lat="-23.5798287" lon="-46.5731356"><ele>115.6</ele><time>2026-05-01T09:00:00Z</time></trkpt>
<trkpt lat="-23.5802171" lon="-46.5733829"><ele>115.8</ele><time>2026-05-01T09:00:10Z</time></trkpt>
<trkpt lat="-23.5805855" lon="-46.5736643"><ele>116.1</ele><time>2026-05-01T09:00:20Z</time></trkpt>
<trkpt lat="-23.5809335" lon="-46.5739749"><ele>116.3</ele><time>2026-05-01T09:00:30Z</time></trkpt>
<trkpt lat="-23.5812625" lon="-46.5743094"><ele>116.5</ele><time>2026-05-01T09:00:40Z</time></trkpt>
<trkpt lat="-23.5815750" lon="-46.5746622"><ele>116.6</ele><time>2026-05-01T09:00:50Z</time></trkpt>
<trkpt lat="-23.5818747" lon="-46.5750279"><ele>116.8</ele><time>2026-05-01T09:01:00Z</time></trkpt>
<trkpt lat="-23.5821665" lon="-46.5754013"><ele>116.9</ele><time>2026-05-01T09:01:10Z</time></trkpt>
<trkpt lat="-23.5824555" lon="-46.5757771"><ele>117.1</ele><time>2026-05-01T09:01:20Z</time></trkpt>
<trkpt lat="-23.5827473" lon="-46.5761505"><ele>117.2</ele><time>2026-05-01T09:01:30Z</time></trkpt>
<trkpt lat="-23.5830471" lon="-46.5765162"><ele>117.4</ele><time>2026-05-01T09:01:40Z</time></trkpt>
<trkpt lat="-23.5833595" lon="-46.5768690"><ele>117.6</ele><time>2026-05-01T09:01:50Z</time></trkpt>
<trkpt lat="-23.5836885" lon="-46.5772035"><ele>117.7</ele><time>2026-05-01T09:02:00Z</time></trkpt>
<trkpt lat="-23.5840365" lon="-46.5775141"><ele>117.9</ele><time>2026-05-01T09:02:10Z</time></trkpt>
<trkpt lat="-23.5844049" lon="-46.5777956"><ele>118.0</ele><time>2026-05-01T09:02:20Z</time></trkpt>
<trkpt lat="-23.5847933" lon="-46.5780428"><ele>118.2</ele><time>2026-05-01T09:02:30Z</time></trkpt>
<trkpt lat="-23.5852001" lon="-46.5782518"><ele>118.4</ele><time>2026-05-01T09:02:40Z</time></trkpt>
<trkpt lat="-23.5856226" lon="-46.5784196"><ele>118.5</ele><time>2026-05-01T09:02:50Z</time></trkpt>
<trkpt lat="-23.5860574" lon="-46.5785449"><ele>118.7</ele><time>2026-05-01T09:03:00Z</time></trkpt>
<trkpt lat="-23.5865006" lon="-46.5786279"><ele>118.8</ele><time>2026-05-01T09:03:10Z</time></trkpt>
<trkpt lat="-23.5869485" lon="-46.5786706"><ele>119.0</ele><time>2026-05-01T09:03:20Z</time></trkpt>
<trkpt lat="-23.5873982" lon="-46.5786768"><ele>119.1</ele><time>2026-05-01T09:03:30Z</time></trkpt>
<trkpt lat="-23.5878472" lon="-46.5786512"><ele>119.2</ele><time>2026-05-01T09:03:40Z</time></trkpt>
<trkpt lat="-23.5882944" lon="-46.5786001"><ele>119.4</ele><time>2026-05-01T09:03:50Z</time></trkpt>
<trkpt lat="-23.5887395" lon="-46.5785302"><ele>119.5</ele><time>2026-05-01T09:04:00Z</time></trkpt>
<trkpt lat="-23.5891829" lon="-46.5784489"><ele>119.6</ele><time>2026-05-01T09:04:10Z</time></trkpt>
<trkpt lat="-23.5896258" lon="-46.5783637"><ele>119.7</ele><time>2026-05-01T09:04:20Z</time></trkpt>
<trkpt lat="-23.5900692" lon="-46.5782823"><ele>119.7</ele><time>2026-05-01T09:04:30Z</time></trkpt>
<trkpt lat="-23.5905143" lon="-46.5782124"><ele>119.8</ele><time>2026-05-01T09:04:40Z</time></trkpt>
<trkpt lat="-23.5909615" lon="-46.5781613"><ele>119.9</ele><time>2026-05-01T09:04:50Z</time></trkpt>
<trkpt lat="-23.5914105" lon="-46.5781357"><ele>119.9</ele><time>2026-05-01T09:05:00Z</time></trkpt>
<trkpt lat="-23.5918602" lon="-46.5781419"><ele>119.9</ele><time>2026-05-01T09:05:10Z</time></trkpt>
<trkpt lat="-23.5923081" lon="-46.5781846"><ele>120.0</ele><time>2026-05-01T09:05:20Z</time></trkpt>
<trkpt lat="-23.5927513" lon="-46.5782677"><ele>120.0</ele><time>2026-05-01T09:05:30Z</time></trkpt>
<trkpt lat="-23.5931861" lon="-46.5783929"><ele>120.0</ele><time>2026-05-01T09:05:40Z</time></trkpt>
<trkpt lat="-23.5936086" lon="-46.5785607"><ele>120.0</ele><time>2026-05-01T09:05:50Z</time></trkpt>
<trkpt lat="-23.5940154" lon="-46.5787697"><ele>120.0</ele><time>2026-05-01T09:06:00Z</time></trkpt>
<trkpt lat="-23.5944038" lon="-46.5790170"><ele>120.0</ele><time>2026-05-01T09:06:10Z</time></trkpt>
<trkpt lat="-23.5947722" lon="-46.5792984"><ele>120.0</ele><time>2026-05-01T09:06:20Z</time></trkpt>
<trkpt lat="-23.5951202" lon="-46.5796091"><ele>119.9</ele><time>2026-05-01T09:06:30Z</time></trkpt>
<trkpt lat="-23.5954492" lon="-46.5799437"><ele>119.9</ele><time>2026-05-01T09:06:40Z</time></trkpt>
</trkseg></trk></gpx>
