<?xml version="1.0" encoding="UTF-8"?>
<gpx version="1.1" creator="sobrevoo-samples" xmlns="http://www.topografix.com/GPX/1/1">
<trk><name>pequena.gpx</name><trkseg>
<trkpt lat="41.9028000" lon="12.4964000"><ele>106.0</ele><time>2026-05-01T08:00:00Z</time></trkpt>
<trkpt lat="41.9029090" lon="12.4964846"><ele>105.9</ele><time>2026-05-01T08:00:10Z</time></trkpt>
<trkpt lat="41.9030143" lon="12.4965774"><ele>105.7</ele><time>2026-05-01T08:00:20Z</time></trkpt>
<trkpt lat="41.9031157" lon="12.4966777"><ele>105.7</ele><time>2026-05-01T08:00:30Z</time></trkpt>
<trkpt lat="41.9032132" lon="12.4967846"><ele>105.6</ele><time>2026-05-01T08:00:40Z</time></trkpt>
<trkpt lat="41.9033075" lon="12.4968969"><ele>105.5</ele><time>2026-05-01T08:00:50Z</time></trkpt>
<trkpt lat="41.9033990" lon="12.4970130"><ele>105.4</ele><time>2026-05-01T08:01:00Z</time></trkpt>
<trkpt lat="41.9034887" lon="12.4971317"><ele>105.3</ele><time>2026-05-01T08:01:10Z</time></trkpt>
<trkpt lat="41.9035778" lon="12.4972513"><ele>105.2</ele><time>2026-05-01T08:01:20Z</time></trkpt>
<trkpt lat="41.9036672" lon="12.4973703"><ele>105.1</ele><time>2026-05-01T08:01:30Z</time></trkpt>
<trkpt lat="41.9037581" lon="12.4974873"><ele>105.0</ele><time>2026-05-01T08:01:40Z</time></trkpt>
<trkpt lat="41.9038515" lon="12.4976008"><ele>104.9</ele><time>2026-05-01T08:01:50Z</time></trkpt>
<trkpt lat="41.9039481" lon="12.4977094"><ele>104.8</ele><time>2026-05-01T08:02:00Z</time></trkpt>
<trkpt lat="41.9040483" lon="12.4978117"><ele>104.8</ele><time>2026-05-01T08:02:10Z</time></trkpt>
<trkpt lat="41.9041525" lon="12.4979068"><ele>104.7</ele><time>2026-05-01T08:02:20Z</time></trkpt>
<trkpt lat="41.9042605" lon="12.4979937"><ele>104.5</ele><time>2026-05-01T08:02:30Z</time></trkpt>
<trkpt lat="41.9043720" lon="12.4980723"><ele>104.4</ele><time>2026-05-01T08:02:40Z</time></trkpt>
<trkpt lat="41.9044866" lon="12.4981424"><ele>104.3</ele><time>2026-05-01T08:02:50Z</time></trkpt>
<trkpt lat="41.9046037" lon="12.4982045"><ele>104.2</ele><time>2026-05-01T08:03:00Z</time></trkpt>
<trkpt lat="41.9047227" lon="12.4982598"><ele>104.1</ele><time>2026-05-01T08:03:10Z</time></trkpt>
<trkpt lat="41.9048430" lon="12.4983095"><ele>104.0</ele><time>2026-05-01T08:03:20Z</time></trkpt>
<trkpt lat="41.9049642" lon="12.4983554"><ele>103.9</ele><time>2026-05-01T08:03:30Z</time></trkpt>
<trkpt lat="41.9050858" lon="12.4983994"><ele>103.7</ele><time>2026-05-01T08:03:40Z</time></trkpt>
<trkpt lat="41.9052073" lon="12.4984435"><ele>103.6</ele><time>2026-05-01T08:03:50Z</time></trkpt>
<trkpt lat="41.9053284" lon="12.4984898"><ele>103.5</ele><time>2026-05-01T08:04:00Z</time></trkpt>
<trkpt lat="41.9054486" lon="12.4985402"><ele>103.4</ele><time>2026-05-01T08:04:10Z</time></trkpt>
<trkpt lat="41.9055674" lon="12.4985964"><ele>103.3</ele><time>2026-05-01T08:04:20Z</time></trkpt>
<trkpt lat="41.9056841" lon="12.4986596"><ele>103.1</ele><time>2026-05-01T08:04:30Z</time></trkpt>
<trkpt lat="41.9057983" lon="12.4987309"><ele>103.0</ele><time>2026-05-01T08:04:40Z</time></trkpt>
<trkpt lat="41.9059094" lon="12.4988107"><ele>102.9</ele><time>2026-05-01T08:04:50Z</time></trkpt>
<trkpt lat="41.9060168" lon="12.4988988"><ele>102.8</ele><time>2026-05-01T08:05:00Z</time></trkpt>
<trkpt lat="41.9061204" lon="12.4989950"><ele>102.7</ele><time>2026-05-01T08:05:10Z</time></trkpt>
<trkpt lat="41.9062201" lon="12.4990983"><ele>102.6</ele><time>2026-05-01T08:05:20Z</time></trkpt>
<trkpt lat="41.9063162" lon="12.4992076"><ele>102.5</ele><time>2026-05-01T08:05:30Z</time></trkpt>
<trkpt lat="41.9064091" lon="12.4993217"><ele>102.4</ele><time>2026-05-01T08:05:40Z</time></trkpt>
<trkpt lat="41.9064998" lon="12.4994391"><ele>102.3</ele><time>2026-05-01T08:05:50Z</time></trkpt>
<trkpt lat="41.9065891" lon="12.4995584"><ele>102.3</ele><time>2026-05-01T08:06:00Z</time></trkpt>
<trkpt lat="41.9066782" lon="12.4996779"><ele>102.2</ele><time>2026-05-01T08:06:10Z</time></trkpt>
<trkpt lat="41.9067681" lon="12.4997963"><ele>102.1</ele><time>2026-05-01T08:06:20Z</time></trkpt>
<trkpt lat="41.9068600" lon="12.4999120"><ele>102.0</ele><time>2026-05-01T08:06:30Z</time></trkpt>
<trkpt lat="41.9069547" lon="12.5000235"><ele>101.9</ele><time>2026-05-01T08:06:40Z</time></trkpt>
<trkpt lat="41.9070528" lon="12.5001296"><ele>101.8</ele><time>2026-05-01T08:06:50Z</time></trkpt>
<trkpt lat="41.9071547" lon="12.5002289"><ele>101.7</ele><time>2026-05-01T08:07:00Z</time></trkpt>
<trkpt lat="41.9072605" lon="12.5003206"><ele>101.6</ele><time>2026-05-01T08:07:10Z</time></trkpt>
<trkpt lat="41.9073700" lon="12.5004040"><ele>101.5</ele><time>2026-05-01T08:07:20Z</time></trkpt>
<trkpt lat="41.9074829" lon="12.5004788"><ele>101.4</ele><time>2026-05-01T08:07:30Z</time></trkpt>
<trkpt lat="41.9075987" lon="12.5005455"><ele>101.2</ele><time>2026-05-01T08:07:40Z</time></trkpt>
<trkpt lat="41.9077167" lon="12.5006045"><ele>101.1</ele><time>2026-05-01T08:07:50Z</time></trkpt>
<trkpt lat="41.9078363" lon="12.5006572"><ele>101.0</ele><time>2026-05-01T08:08:00Z</time></trkpt>
<trkpt lat="41.9079571" lon="12.5007051"><ele>100.9</ele><time>2026-05-01T08:08:10Z</time></trkpt>
<trkpt lat="41.9080785" lon="12.5007499"><ele>100.8</ele><time>2026-05-01T08:08:20Z</time></trkpt>
<trkpt lat="41.9082001" lon="12.5007937"><ele>100.6</ele><time>2026-05-01T08:08:30Z</time></trkpt>
<trkpt lat="41.9083215" lon="12.5008385"><ele>100.5</ele><time>2026-05-01T08:08:40Z</time></trkpt>
<trkpt lat="41.9084423" lon="12.5008863"><ele>100.4</ele><time>2026-05-01T08:08:50Z</time></trkpt>
<trkpt lat="41.9085619" lon="12.5009390"><ele>100.3</ele><time>2026-05-01T08:09:00Z</time></trkpt>
<trkpt lat="41.9086799" lon="12.5009981"><ele>100.2</ele><time>2026-05-01T08:09:10Z</time></trkpt>
<trkpt lat="41.9087956" lon="12.5010647"><ele>100.1</ele><time>2026-05-01T08:09:20Z</time></trkpt>
<trkpt lat="41.9089085" lon="12.5011396"><ele>99.9</ele><time>2026-05-01T08:09:30Z</time></trkpt>
<trkpt lat="41.9090181" lon="12.5012230"><ele>99.8</ele><time>2026-05-01T08:09:40Z</time></trkpt>
<trkpt lat="41.9091239" lon="12.5013147"><ele>99.7</ele><time>2026-05-01T08:09:50Z</time></trkpt>
<trkpt lat="41.9092258" lon="12.5014140"><ele>99.6</ele><time>2026-05-01T08:10:00Z</time></trkpt>
<trkpt lat="41.9093239" lon="12.5015200"><ele>99.5</ele><time>2026-05-01T08:10:10Z</time></trkpt>
<trkpt lat="41.9094186" lon="12.5016316"><ele>99.4</ele><time>2026-05-01T08:10:20Z</time></trkpt>
<trkpt lat="41.9095104" lon="12.5017473"><ele>99.3</ele><time>2026-05-01T08:10:30Z</time></trkpt>
<trkpt lat="41.9096004" lon="12.5018657"><ele>99.2</ele><time>2026-05-01T08:10:40Z</time></trkpt>
<trkpt lat="41.9096894" lon="12.5019852"><ele>99.2</ele><time>2026-05-01T08:10:50Z</time></trkpt>
<trkpt lat="41.9097788" lon="12.5021045"><ele>99.1</ele><time>2026-05-01T08:11:00Z</time></trkpt>
<trkpt lat="41.9098694" lon="12.5022219"><ele>99.0</ele><time>2026-05-01T08:11:10Z</time></trkpt>
<trkpt lat="41.9099624" lon="12.5023360"><ele>98.9</ele><time>2026-05-01T08:11:20Z</time></trkpt>
<trkpt lat="41.9100584" lon="12.5024453"><ele>98.8</ele><time>2026-05-01T08:11:30Z</time></trkpt>
<trkpt lat="41.9101581" lon="12.5025487"><ele>98.7</ele><time>2026-05-01T08:11:40Z</time></trkpt>
<trkpt lat="41.9102617" lon="12.5026448"><ele>98.6</ele><time>2026-05-01T08:11:50Z</time></trkpt>
<trkpt lat="41.9103078" lon="12.5026826"><ele>98.5</ele><time>2026-05-01T08:11:54Z</time></trkpt>
</trkseg></trk></gpx>
