<?xml version="1.0" encoding="UTF-8"?>
<gpx version="1.1" creator="sobrevoo-samples" xmlns="http://www.topografix.com/GPX/1/1">
<trk><name>polar.gpx</name><trkseg>
<trkpt lat="82.0000000" lon="15.0000000"><ele>95.6</ele><time>2026-05-01T08:00:00Z</time></trkpt>
<trkpt lat="82.0002248" lon="15.0027982"><ele>95.4</ele><time>2026-05-01T08:00:10Z</time></trkpt>
<trkpt lat="82.0004256" lon="15.0056891"><ele>95.2</ele><time>2026-05-01T08:00:20Z</time></trkpt>
<trkpt lat="82.0006025" lon="15.0086599"><ele>95.0</ele><time>2026-05-01T08:00:30Z</time></trkpt>
<trkpt lat="82.0007563" lon="15.0116963"><ele>94.9</ele><time>2026-05-01T08:00:40Z</time></trkpt>
<trkpt lat="82.0008888" lon="15.0147840"><ele>94.7</ele><time>2026-05-01T08:00:50Z</time></trkpt>
<trkpt lat="82.0010027" lon="15.0179099"><ele>94.6</ele><time>2026-05-01T08:01:00Z</time></trkpt>
<trkpt lat="82.0011014" lon="15.0210625"><ele>94.5</ele><time>2026-05-01T08:01:10Z</time></trkpt>
<trkpt lat="82.0011888" lon="15.0242323"><ele>94.5</ele><time>2026-05-01T08:01:20Z</time></trkpt>
<trkpt lat="82.0012692" lon="15.0274116"><ele>94.4</ele><time>2026-05-01T08:01:30Z</time></trkpt>
<trkpt lat="82.0013473" lon="15.0305940"><ele>94.3</ele><time>2026-05-01T08:01:40Z</time></trkpt>
<trkpt lat="82.0014277" lon="15.0337734"><ele>94.2</ele><time>2026-05-01T08:01:50Z</time></trkpt>
<trkpt lat="82.0015151" lon="15.0369434"><ele>94.1</ele><time>2026-05-01T08:02:00Z</time></trkpt>
<trkpt lat="82.0016138" lon="15.0400962"><ele>94.0</ele><time>2026-05-01T08:02:10Z</time></trkpt>
<trkpt lat="82.0017277" lon="15.0432223"><ele>93.9</ele><time>2026-05-01T08:02:20Z</time></trkpt>
<trkpt lat="82.0018602" lon="15.0463104"><ele>93.8</ele><time>2026-05-01T08:02:30Z</time></trkpt>
<trkpt lat="82.0020140" lon="15.0493473"><ele>93.7</ele><time>2026-05-01T08:02:40Z</time></trkpt>
<trkpt lat="82.0021909" lon="15.0523187"><ele>93.5</ele><time>2026-05-01T08:02:50Z</time></trkpt>
<trkpt lat="82.0023917" lon="15.0552103"><ele>93.3</ele><time>2026-05-01T08:03:00Z</time></trkpt>
<trkpt lat="82.0026165" lon="15.0580093"><ele>93.1</ele><time>2026-05-01T08:03:10Z</time></trkpt>
<trkpt lat="82.0028645" lon="15.0607053"><ele>92.9</ele><time>2026-05-01T08:03:20Z</time></trkpt>
<trkpt lat="82.0031341" lon="15.0632921"><ele>92.6</ele><time>2026-05-01T08:03:30Z</time></trkpt>
<trkpt lat="82.0034231" lon="15.0657682"><ele>92.3</ele><time>2026-05-01T08:03:40Z</time></trkpt>
<trkpt lat="82.0037290" lon="15.0681378"><ele>92.1</ele><time>2026-05-01T08:03:50Z</time></trkpt>
<trkpt lat="82.0040487" lon="15.0704107"><ele>91.8</ele><time>2026-05-01T08:04:00Z</time></trkpt>
<trkpt lat="82.0043793" lon="15.0726022"><ele>91.5</ele><time>2026-05-01T08:04:10Z</time></trkpt>
<trkpt lat="82.0047175" lon="15.0747319"><ele>91.2</ele><time>2026-05-01T08:04:20Z</time></trkpt>
<trkpt lat="82.0050605" lon="15.0768231"><ele>90.9</ele><time>2026-05-01T08:04:30Z</time></trkpt>
<trkpt lat="82.0054049" lon="15.0789013"><ele>90.6</ele><time>2026-05-01T08:04:40Z</time></trkpt>
<trkpt lat="82.0057478" lon="15.0809927"><ele>90.3</ele><time>2026-05-01T08:04:50Z</time></trkpt>
<trkpt lat="82.0060861" lon="15.0831228"><ele>90.0</ele><time>2026-05-01T08:05:00Z</time></trkpt>
<trkpt lat="82.0064167" lon="15.0853148"><ele>89.7</ele><time>2026-05-01T08:05:10Z</time></trkpt>
<trkpt lat="82.0067364" lon="15.0875885"><ele>89.4</ele><time>2026-05-01T08:05:20Z</time></trkpt>
<trkpt lat="82.0070423" lon="15.0899590"><ele>89.1</ele><time>2026-05-01T08:05:30Z</time></trkpt>
<trkpt lat="82.0073313" lon="15.0924363"><ele>88.9</ele><time>2026-05-01T08:05:40Z</time></trkpt>
<trkpt lat="82.0076009" lon="15.0950245"><ele>88.7</ele><time>2026-05-01T08:05:50Z</time></trkpt>
<trkpt lat="82.0078489" lon="15.0977223"><ele>88.5</ele><time>2026-05-01T08:06:00Z</time></trkpt>
<trkpt lat="82.0080737" lon="15.1005231"><ele>88.3</ele><time>2026-05-01T08:06:10Z</time></trkpt>
<trkpt lat="82.0082745" lon="15.1034169"><ele>88.1</ele><time>2026-05-01T08:06:20Z</time></trkpt>
<trkpt lat="82.0084514" lon="15.1063906"><ele>88.0</ele><time>2026-05-01T08:06:30Z</time></trkpt>
<trkpt lat="82.0086051" lon="15.1094300"><ele>87.9</ele><time>2026-05-01T08:06:40Z</time></trkpt>
<trkpt lat="82.0087377" lon="15.1125207"><ele>87.8</ele><time>2026-05-01T08:06:50Z</time></trkpt>
<trkpt lat="82.0088516" lon="15.1156496"><ele>87.7</ele><time>2026-05-01T08:07:00Z</time></trkpt>
<trkpt lat="82.0089503" lon="15.1188053"><ele>87.6</ele><time>2026-05-01T08:07:10Z</time></trkpt>
<trkpt lat="82.0090377" lon="15.1219782"><ele>87.5</ele><time>2026-05-01T08:07:20Z</time></trkpt>
<trkpt lat="82.0091181" lon="15.1251606"><ele>87.5</ele><time>2026-05-01T08:07:30Z</time></trkpt>
<trkpt lat="82.0091962" lon="15.1283461"><ele>87.4</ele><time>2026-05-01T08:07:40Z</time></trkpt>
<trkpt lat="82.0092766" lon="15.1315286"><ele>87.3</ele><time>2026-05-01T08:07:50Z</time></trkpt>
<trkpt lat="82.0093640" lon="15.1347017"><ele>87.3</ele><time>2026-05-01T08:08:00Z</time></trkpt>
<trkpt lat="82.0094626" lon="15.1378575"><ele>87.2</ele><time>2026-05-01T08:08:10Z</time></trkpt>
<trkpt lat="82.0095766" lon="15.1409868"><ele>87.1</ele><time>2026-05-01T08:08:20Z</time></trkpt>
<trkpt lat="82.0097091" lon="15.1440779"><ele>87.0</ele><time>2026-05-01T08:08:30Z</time></trkpt>
<trkpt lat="82.0098629" lon="15.1471177"><ele>86.9</ele><time>2026-05-01T08:08:40Z</time></trkpt>
<trkpt lat="82.0100397" lon="15.1500920"><ele>86.8</ele><time>2026-05-01T08:08:50Z</time></trkpt>
<trkpt lat="82.0102406" lon="15.1529864"><ele>86.6</ele><time>2026-05-01T08:09:00Z</time></trkpt>
<trkpt lat="82.0104654" lon="15.1557882"><ele>86.4</ele><time>2026-05-01T08:09:10Z</time></trkpt>
<trkpt lat="82.0107134" lon="15.1584868"><ele>86.3</ele><time>2026-05-01T08:09:20Z</time></trkpt>
<trkpt lat="82.0109830" lon="15.1610761"><ele>86.1</ele><time>2026-05-01T08:09:30Z</time></trkpt>
<trkpt lat="82.0112720" lon="15.1635546"><ele>85.9</ele><time>2026-05-01T08:09:40Z</time></trkpt>
<trkpt lat="82.0115778" lon="15.1659266"><ele>85.6</ele><time>2026-05-01T08:09:50Z</time></trkpt>
<trkpt lat="82.0118976" lon="15.1682017"><ele>85.4</ele><time>2026-05-01T08:10:00Z</time></trkpt>
<trkpt lat="82.0122281" lon="15.1703953"><ele>85.2</ele><time>2026-05-01T08:10:10Z</time></trkpt>
<trkpt lat="82.0125664" lon="15.1725271"><ele>85.0</ele><time>2026-05-01T08:10:20Z</time></trkpt>
<trkpt lat="82.0129093" lon="15.1746203"><ele>84.8</ele><time>2026-05-01T08:10:30Z</time></trkpt>
<trkpt lat="82.0132538" lon="15.1767006"><ele>84.5</ele><time>2026-05-01T08:10:40Z</time></trkpt>
<trkpt lat="82.0135967" lon="15.1787940"><ele>84.3</ele><time>2026-05-01T08:10:50Z</time></trkpt>
<trkpt lat="82.0139350" lon="15.1809262"><ele>84.1</ele><time>2026-05-01T08:11:00Z</time></trkpt>
<trkpt lat="82.0142656" lon="15.1831203"><ele>83.9</ele><time>2026-05-01T08:11:10Z</time></trkpt>
<trkpt lat="82.0145853" lon="15.1853962"><ele>83.7</ele><time>2026-05-01T08:11:20Z</time></trkpt>
<trkpt lat="82.0148911" lon="15.1877691"><ele>83.5</ele><time>2026-05-01T08:11:30Z</time></trkpt>
<trkpt lat="82.0151802" lon="15.1902488"><ele>83.4</ele><time>2026-05-01T08:11:40Z</time></trkpt>
<trkpt lat="82.0154498" lon="15.1928396"><ele>83.2</ele><time>2026-05-01T08:11:50Z</time></trkpt>
<trkpt lat="82.0156978" lon="15.1955399"><ele>83.1</ele><time>2026-05-01T08:12:00Z</time></trkpt>
<trkpt lat="82.0159226" lon="15.1983435"><ele>83.0</ele><time>2026-05-01T08:12:10Z</time></trkpt>
<trkpt lat="82.0161234" lon="15.2012401"><ele>82.9</ele><time>2026-05-01T08:12:20Z</time></trkpt>
<trkpt lat="82.0163002" lon="15.2042167"><ele>82.8</ele><time>2026-05-01T08:12:30Z</time></trkpt>
<trkpt lat="82.0164540" lon="15.2072590"><ele>82.7</ele><time>2026-05-01T08:12:40Z</time></trkpt>
<trkpt lat="82.0165866" lon="15.2103528"><ele>82.6</ele><time>2026-05-01T08:12:50Z</time></trkpt>
<trkpt lat="82.0167005" lon="15.2134848"><ele>82.6</ele><time>2026-05-01T08:13:00Z</time></trkpt>
<trkpt lat="82.0167992" lon="15.2166435"><ele>82.5</ele><time>2026-05-01T08:13:10Z</time></trkpt>
<trkpt lat="82.0168866" lon="15.2198195"><ele>82.5</ele><time>2026-05-01T08:13:20Z</time></trkpt>
<trkpt lat="82.0169670" lon="15.2230051"><ele>82.5</ele><time>2026-05-01T08:13:30Z</time></trkpt>
<trkpt lat="82.0170451" lon="15.2261937"><ele>82.4</ele><time>2026-05-01T08:13:40Z</time></trkpt>
<trkpt lat="82.0171255" lon="15.2293793"><ele>82.4</ele><time>2026-05-01T08:13:50Z</time></trkpt>
<trkpt lat="82.0172128" lon="15.2325554"><ele>82.3</ele><time>2026-05-01T08:14:00Z</time></trkpt>
<trkpt lat="82.0173115" lon="15.2357144"><ele>82.3</ele><time>2026-05-01T08:14:10Z</time></trkpt>
<trkpt lat="82.0174255" lon="15.2388467"><ele>82.2</ele><time>2026-05-01T08:14:20Z</time></trkpt>
<trkpt lat="82.0175580" lon="15.2419408"><ele>82.2</ele><time>2026-05-01T08:14:30Z</time></trkpt>
<trkpt lat="82.0177118" lon="15.2449836"><ele>82.1</ele><time>2026-05-01T08:14:40Z</time></trkpt>
<trkpt lat="82.0178886" lon="15.2479608"><ele>82.0</ele><time>2026-05-01T08:14:50Z</time></trkpt>
<trkpt lat="82.0180894" lon="15.2508581"><ele>81.9</ele><time>2026-05-01T08:15:00Z</time></trkpt>
<trkpt lat="82.0183143" lon="15.2536625"><ele>81.8</ele><time>2026-05-01T08:15:10Z</time></trkpt>
<trkpt lat="82.0185623" lon="15.2563638"><ele>81.7</ele><time>2026-05-01T08:15:20Z</time></trkpt>
<trkpt lat="82.0188319" lon="15.2589557"><ele>81.6</ele><time>2026-05-01T08:15:30Z</time></trkpt>
<trkpt lat="82.0191209" lon="15.2614366"><ele>81.5</ele><time>2026-05-01T08:15:40Z</time></trkpt>
<trkpt lat="82.0194267" lon="15.2638108"><ele>81.4</ele><time>2026-05-01T08:15:50Z</time></trkpt>
<trkpt lat="82.0197465" lon="15.2660882"><ele>81.3</ele><time>2026-05-01T08:16:00Z</time></trkpt>
<trkpt lat="82.0200770" lon="15.2682839"><ele>81.2</ele><time>2026-05-01T08:16:10Z</time></trkpt>
<trkpt lat="82.0204153" lon="15.2704178"><ele>81.1</ele><time>2026-05-01T08:16:20Z</time></trkpt>
<trkpt lat="82.0207582" lon="15.2725131"><ele>81.0</ele><time>2026-05-01T08:16:30Z</time></trkpt>
<trkpt lat="82.0211027" lon="15.2745954"><ele>80.9</ele><time>2026-05-01T08:16:40Z</time></trkpt>
<trkpt lat="82.0214456" lon="15.2766909"><ele>80.8</ele><time>2026-05-01T08:16:50Z</time></trkpt>
<trkpt lat="82.0217839" lon="15.2788251"><ele>80.7</ele><time>2026-05-01T08:17:00Z</time></trkpt>
<trkpt lat="82.0221145" lon="15.2810214"><ele>80.6</ele><time>2026-05-01T08:17:10Z</time></trkpt>
<trkpt lat="82.0224342" lon="15.2832995"><ele>80.5</ele><time>2026-05-01T08:17:20Z</time></trkpt>
<trkpt lat="82.0227400" lon="15.2856747"><ele>80.4</ele><time>2026-05-01T08:17:30Z</time></trkpt>
<trkpt lat="82.0230291" lon="15.2881569"><ele>80.4</ele><time>2026-05-01T08:17:40Z</time></trkpt>
<trkpt lat="82.0232987" lon="15.2907501"><ele>80.3</ele><time>2026-05-01T08:17:50Z</time></trkpt>
<trkpt lat="82.0235467" lon="15.2934531"><ele>80.3</ele><time>2026-05-01T08:18:00Z</time></trkpt>
<trkpt lat="82.0237715" lon="15.2962595"><ele>80.3</ele><time>2026-05-01T08:18:10Z</time></trkpt>
<trkpt lat="82.0239723" lon="15.2991589"><ele>80.2</ele><time>2026-05-01T08:18:20Z</time></trkpt>
<trkpt lat="82.0241491" lon="15.3021384"><ele>80.2</ele><time>2026-05-01T08:18:30Z</time></trkpt>
<trkpt lat="82.0243029" lon="15.3051837"><ele>80.2</ele><time>2026-05-01T08:18:40Z</time></trkpt>
<trkpt lat="82.0244355" lon="15.3082805"><ele>80.2</ele><time>2026-05-01T08:18:50Z</time></trkpt>
<trkpt lat="82.0245494" lon="15.3114155"><ele>80.1</ele><time>2026-05-01T08:19:00Z</time></trkpt>
<trkpt lat="82.0246481" lon="15.3145774"><ele>80.1</ele><time>2026-05-01T08:19:10Z</time></trkpt>
<trkpt lat="82.0247355" lon="15.3177565"><ele>80.1</ele><time>2026-05-01T08:19:20Z</time></trkpt>
<trkpt lat="82.0248159" lon="15.3209451"><ele>80.1</ele><time>2026-05-01T08:19:30Z</time></trkpt>
<trkpt lat="82.0248939" lon="15.3241369"><ele>80.1</ele><time>2026-05-01T08:19:40Z</time></trkpt>
<trkpt lat="82.0249744" lon="15.3273256"><ele>80.1</ele><time>2026-05-01T08:19:50Z</time></trkpt>
<trkpt lat="82.0250617" lon="15.3305048"><ele>80.1</ele><time>2026-05-01T08:20:00Z</time></trkpt>
<trkpt lat="82.0251604" lon="15.3336669"><ele>80.1</ele><time>2026-05-01T08:20:10Z</time></trkpt>
<trkpt lat="82.0252744" lon="15.3368022"><ele>80.1</ele><time>2026-05-01T08:20:20Z</time></trkpt>
<trkpt lat="82.0254069" lon="15.3398994"><ele>80.1</ele><time>2026-05-01T08:20:30Z</time></trkpt>
<trkpt lat="82.0255607" lon="15.3429451"><ele>80.1</ele><time>2026-05-01T08:20:40Z</time></trkpt>
<trkpt lat="82.0257375" lon="15.3459252"><ele>80.0</ele><time>2026-05-01T08:20:50Z</time></trkpt>
<trkpt lat="82.0259383" lon="15.3488254"><ele>80.0</ele><time>2026-05-01T08:21:00Z</time></trkpt>
<trkpt lat="82.0261632" lon="15.3516326"><ele>80.0</ele><time>2026-05-01T08:21:10Z</time></trkpt>
<trkpt lat="82.0264111" lon="15.3543365"><ele>80.0</ele><time>2026-05-01T08:21:20Z</time></trkpt>
<trkpt lat="82.0266808" lon="15.3569309"><ele>80.0</ele><time>2026-05-01T08:21:30Z</time></trkpt>
<trkpt lat="82.0269698" lon="15.3594142"><ele>80.0</ele><time>2026-05-01T08:21:40Z</time></trkpt>
<trkpt lat="82.0272756" lon="15.3617908"><ele>80.0</ele><time>2026-05-01T08:21:50Z</time></trkpt>
<trkpt lat="82.0275953" lon="15.3640704"><ele>80.0</ele><time>2026-05-01T08:22:00Z</time></trkpt>
<trkpt lat="82.0279259" lon="15.3662683"><ele>80.0</ele><time>2026-05-01T08:22:10Z</time></trkpt>
<trkpt lat="82.0282642" lon="15.3684042"><ele>80.0</ele><time>2026-05-01T08:22:20Z</time></trkpt>
<trkpt lat="82.0286071" lon="15.3705016"><ele>80.1</ele><time>2026-05-01T08:22:30Z</time></trkpt>
<trkpt lat="82.0289516" lon="15.3725859"><ele>80.1</ele><time>2026-05-01T08:22:40Z</time></trkpt>
<trkpt lat="82.0292945" lon="15.3746834"><ele>80.1</ele><time>2026-05-01T08:22:50Z</time></trkpt>
<trkpt lat="82.0296328" lon="15.3768197"><ele>80.2</ele><time>2026-05-01T08:23:00Z</time></trkpt>
<trkpt lat="82.0299634" lon="15.3790182"><ele>80.2</ele><time>2026-05-01T08:23:10Z</time></trkpt>
<trkpt lat="82.0302831" lon="15.3812985"><ele>80.3</ele><time>2026-05-01T08:23:20Z</time></trkpt>
<trkpt lat="82.0305889" lon="15.3836761"><ele>80.3</ele><time>2026-05-01T08:23:30Z</time></trkpt>
<trkpt lat="82.0308779" lon="15.3861607"><ele>80.4</ele><time>2026-05-01T08:23:40Z</time></trkpt>
<trkpt lat="82.0311475" lon="15.3887564"><ele>80.4</ele><time>2026-05-01T08:23:50Z</time></trkpt>
<trkpt lat="82.0313955" lon="15.3914621"><ele>80.5</ele><time>2026-05-01T08:24:00Z</time></trkpt>
<trkpt lat="82.0316204" lon="15.3942712"><ele>80.5</ele><time>2026-05-01T08:24:10Z</time></trkpt>
<trkpt lat="82.0318212" lon="15.3971735"><ele>80.6</ele><time>2026-05-01T08:24:20Z</time></trkpt>
<trkpt lat="82.0319980" lon="15.4001559"><ele>80.6</ele><time>2026-05-01T08:24:30Z</time></trkpt>
<trkpt lat="82.0321518" lon="15.4032042"><ele>80.7</ele><time>2026-05-01T08:24:40Z</time></trkpt>
<trkpt lat="82.0322843" lon="15.4063040"><ele>80.7</ele><time>2026-05-01T08:24:50Z</time></trkpt>
<trkpt lat="82.0323983" lon="15.4094421"><ele>80.7</ele><time>2026-05-01T08:25:00Z</time></trkpt>
<trkpt lat="82.0324970" lon="15.4126070"><ele>80.8</ele><time>2026-05-01T08:25:10Z</time></trkpt>
<trkpt lat="82.0325843" lon="15.4157892"><ele>80.8</ele><time>2026-05-01T08:25:20Z</time></trkpt>
<trkpt lat="82.0326648" lon="15.4189810"><ele>80.8</ele><time>2026-05-01T08:25:30Z</time></trkpt>
<trkpt lat="82.0327428" lon="15.4221759"><ele>80.8</ele><time>2026-05-01T08:25:40Z</time></trkpt>
<trkpt lat="82.0328232" lon="15.4253677"><ele>80.8</ele><time>2026-05-01T08:25:50Z</time></trkpt>
<trkpt lat="82.0329106" lon="15.4285501"><ele>80.9</ele><time>2026-05-01T08:26:00Z</time></trkpt>
<trkpt lat="82.0330093" lon="15.4317152"><ele>80.9</ele><time>2026-05-01T08:26:10Z</time></trkpt>
<trkpt lat="82.0331232" lon="15.4348536"><ele>80.9</ele><time>2026-05-01T08:26:20Z</time></trkpt>
<trkpt lat="82.0332558" lon="15.4379538"><ele>81.0</ele><time>2026-05-01T08:26:30Z</time></trkpt>
<trkpt lat="82.0334096" lon="15.4410025"><ele>81.0</ele><time>2026-05-01T08:26:40Z</time></trkpt>
<trkpt lat="82.0335864" lon="15.4439856"><ele>81.1</ele><time>2026-05-01T08:26:50Z</time></trkpt>
<trkpt lat="82.0337872" lon="15.4468885"><ele>81.1</ele><time>2026-05-01T08:27:00Z</time></trkpt>
<trkpt lat="82.0340120" lon="15.4496985"><ele>81.2</ele><time>2026-05-01T08:27:10Z</time></trkpt>
<trkpt lat="82.0342600" lon="15.4524051"><ele>81.3</ele><time>2026-05-01T08:27:20Z</time></trkpt>
<trkpt lat="82.0345296" lon="15.4550020"><ele>81.4</ele><time>2026-05-01T08:27:30Z</time></trkpt>
<trkpt lat="82.0348187" lon="15.4574878"><ele>81.5</ele><time>2026-05-01T08:27:40Z</time></trkpt>
<trkpt lat="82.0351245" lon="15.4598667"><ele>81.6</ele><time>2026-05-01T08:27:50Z</time></trkpt>
<trkpt lat="82.0354442" lon="15.4621485"><ele>81.8</ele><time>2026-05-01T08:28:00Z</time></trkpt>
<trkpt lat="82.0357748" lon="15.4643485"><ele>81.9</ele><time>2026-05-01T08:28:10Z</time></trkpt>
<trkpt lat="82.0361131" lon="15.4664866"><ele>82.0</ele><time>2026-05-01T08:28:20Z</time></trkpt>
<trkpt lat="82.0364560" lon="15.4685860"><ele>82.2</ele><time>2026-05-01T08:28:30Z</time></trkpt>
<trkpt lat="82.0368005" lon="15.4706723"><ele>82.4</ele><time>2026-05-01T08:28:40Z</time></trkpt>
<trkpt lat="82.0371434" lon="15.4727719"><ele>82.5</ele><time>2026-05-01T08:28:50Z</time></trkpt>
<trkpt lat="82.0374817" lon="15.4749103"><ele>82.7</ele><time>2026-05-01T08:29:00Z</time></trkpt>
<trkpt lat="82.0378122" lon="15.4771109"><ele>82.9</ele><time>2026-05-01T08:29:10Z</time></trkpt>
<trkpt lat="82.0381320" lon="15.4793935"><ele>83.0</ele><time>2026-05-01T08:29:20Z</time></trkpt>
<trkpt lat="82.0384378" lon="15.4817734"><ele>83.2</ele><time>2026-05-01T08:29:30Z</time></trkpt>
<trkpt lat="82.0387268" lon="15.4842604"><ele>83.3</ele><time>2026-05-01T08:29:40Z</time></trkpt>
<trkpt lat="82.0389964" lon="15.4868587"><ele>83.5</ele><time>2026-05-01T08:29:50Z</time></trkpt>
<trkpt lat="82.0392444" lon="15.4895670"><ele>83.6</ele><time>2026-05-01T08:30:00Z</time></trkpt>
<trkpt lat="82.0394692" lon="15.4923789"><ele>83.8</ele><time>2026-05-01T08:30:10Z</time></trkpt>
<trkpt lat="82.0396701" lon="15.4952840"><ele>83.9</ele><time>2026-05-01T08:30:20Z</time></trkpt>
<trkpt lat="82.0398469" lon="15.4982693"><ele>84.0</ele><time>2026-05-01T08:30:30Z</time></trkpt>
<trkpt lat="82.0400007" lon="15.5013206"><ele>84.1</ele><time>2026-05-01T08:30:40Z</time></trkpt>
<trkpt lat="82.0401332" lon="15.5044234"><ele>84.2</ele><time>2026-05-01T08:30:50Z</time></trkpt>
<trkpt lat="82.0402472" lon="15.5075646"><ele>84.2</ele><time>2026-05-01T08:31:00Z</time></trkpt>
<trkpt lat="82.0403458" lon="15.5107326"><ele>84.3</ele><time>2026-05-01T08:31:10Z</time></trkpt>
<trkpt lat="82.0404332" lon="15.5139180"><ele>84.4</ele><time>2026-05-01T08:31:20Z</time></trkpt>
<trkpt lat="82.0405136" lon="15.5171129"><ele>84.4</ele><time>2026-05-01T08:31:30Z</time></trkpt>
<trkpt lat="82.0405917" lon="15.5203109"><ele>84.5</ele><time>2026-05-01T08:31:40Z</time></trkpt>
<trkpt lat="82.0406721" lon="15.5235059"><ele>84.5</ele><time>2026-05-01T08:31:50Z</time></trkpt>
<trkpt lat="82.0407595" lon="15.5266913"><ele>84.6</ele><time>2026-05-01T08:32:00Z</time></trkpt>
<trkpt lat="82.0408582" lon="15.5298596"><ele>84.6</ele><time>2026-05-01T08:32:10Z</time></trkpt>
<trkpt lat="82.0409721" lon="15.5330010"><ele>84.7</ele><time>2026-05-01T08:32:20Z</time></trkpt>
<trkpt lat="82.0411047" lon="15.5361043"><ele>84.8</ele><time>2026-05-01T08:32:30Z</time></trkpt>
<trkpt lat="82.0412584" lon="15.5391560"><ele>84.9</ele><time>2026-05-01T08:32:40Z</time></trkpt>
<trkpt lat="82.0414353" lon="15.5421419"><ele>85.0</ele><time>2026-05-01T08:32:50Z</time></trkpt>
<trkpt lat="82.0416361" lon="15.5450478"><ele>85.1</ele><time>2026-05-01T08:33:00Z</time></trkpt>
<trkpt lat="82.0418609" lon="15.5478605"><ele>85.3</ele><time>2026-05-01T08:33:10Z</time></trkpt>
<trkpt lat="82.0421089" lon="15.5505697"><ele>85.5</ele><time>2026-05-01T08:33:20Z</time></trkpt>
<trkpt lat="82.0423785" lon="15.5531692"><ele>85.6</ele><time>2026-05-01T08:33:30Z</time></trkpt>
<trkpt lat="82.0426676" lon="15.5556574"><ele>85.8</ele><time>2026-05-01T08:33:40Z</time></trkpt>
<trkpt lat="82.0429734" lon="15.5580386"><ele>86.1</ele><time>2026-05-01T08:33:50Z</time></trkpt>
<trkpt lat="82.0432931" lon="15.5603227"><ele>86.3</ele><time>2026-05-01T08:34:00Z</time></trkpt>
<trkpt lat="82.0436237" lon="15.5625249"><ele>86.5</ele><time>2026-05-01T08:34:10Z</time></trkpt>
<trkpt lat="82.0439620" lon="15.5646650"><ele>86.8</ele><time>2026-05-01T08:34:20Z</time></trkpt>
<trkpt lat="82.0443049" lon="15.5667665"><ele>87.0</ele><time>2026-05-01T08:34:30Z</time></trkpt>
<trkpt lat="82.0446493" lon="15.5688549"><ele>87.3</ele><time>2026-05-01T08:34:40Z</time></trkpt>
<trkpt lat="82.0449923" lon="15.5709565"><ele>87.6</ele><time>2026-05-01T08:34:50Z</time></trkpt>
<trkpt lat="82.0453306" lon="15.5730970"><ele>87.8</ele><time>2026-05-01T08:35:00Z</time></trkpt>
<trkpt lat="82.0456611" lon="15.5752997"><ele>88.1</ele><time>2026-05-01T08:35:10Z</time></trkpt>
<trkpt lat="82.0459808" lon="15.5775846"><ele>88.4</ele><time>2026-05-01T08:35:20Z</time></trkpt>
<trkpt lat="82.0462867" lon="15.5799668"><ele>88.6</ele><time>2026-05-01T08:35:30Z</time></trkpt>
<trkpt lat="82.0465757" lon="15.5824562"><ele>88.9</ele><time>2026-05-01T08:35:40Z</time></trkpt>
<trkpt lat="82.0468453" lon="15.5850571"><ele>89.1</ele><time>2026-05-01T08:35:50Z</time></trkpt>
<trkpt lat="82.0470933" lon="15.5877681"><ele>89.3</ele><time>2026-05-01T08:36:00Z</time></trkpt>
<trkpt lat="82.0473181" lon="15.5905827"><ele>89.5</ele><time>2026-05-01T08:36:10Z</time></trkpt>
<trkpt lat="82.0475189" lon="15.5934906"><ele>89.6</ele><time>2026-05-01T08:36:20Z</time></trkpt>
<trkpt lat="82.0476958" lon="15.5964789"><ele>89.8</ele><time>2026-05-01T08:36:30Z</time></trkpt>
<trkpt lat="82.0478496" lon="15.5995332"><ele>89.9</ele><time>2026-05-01T08:36:40Z</time></trkpt>
<trkpt lat="82.0479821" lon="15.6026391"><ele>90.0</ele><time>2026-05-01T08:36:50Z</time></trkpt>
<trkpt lat="82.0480960" lon="15.6057833"><ele>90.1</ele><time>2026-05-01T08:37:00Z</time></trkpt>
<trkpt lat="82.0481947" lon="15.6089545"><ele>90.2</ele><time>2026-05-01T08:37:10Z</time></trkpt>
<trkpt lat="82.0482821" lon="15.6121429"><ele>90.3</ele><time>2026-05-01T08:37:20Z</time></trkpt>
<trkpt lat="82.0483625" lon="15.6153410"><ele>90.4</ele><time>2026-05-01T08:37:30Z</time></trkpt>
<trkpt lat="82.0484406" lon="15.6185421"><ele>90.4</ele><time>2026-05-01T08:37:40Z</time></trkpt>
<trkpt lat="82.0485210" lon="15.6217402"><ele>90.5</ele><time>2026-05-01T08:37:50Z</time></trkpt>
<trkpt lat="82.0486084" lon="15.6249288"><ele>90.6</ele><time>2026-05-01T08:38:00Z</time></trkpt>
<trkpt lat="82.0487071" lon="15.6281001"><ele>90.7</ele><time>2026-05-01T08:38:10Z</time></trkpt>
<trkpt lat="82.0488210" lon="15.6312447"><ele>90.8</ele><time>2026-05-01T08:38:20Z</time></trkpt>
<trkpt lat="82.0489535" lon="15.6343510"><ele>90.9</ele><time>2026-05-01T08:38:30Z</time></trkpt>
<trkpt lat="82.0491073" lon="15.6374057"><ele>91.0</ele><time>2026-05-01T08:38:40Z</time></trkpt>
<trkpt lat="82.0492842" lon="15.6403946"><ele>91.2</ele><time>2026-05-01T08:38:50Z</time></trkpt>
<trkpt lat="82.0494850" lon="15.6433032"><ele>91.4</ele><time>2026-05-01T08:39:00Z</time></trkpt>
<trkpt lat="82.0497098" lon="15.6461187"><ele>91.6</ele><time>2026-05-01T08:39:10Z</time></trkpt>
<trkpt lat="82.0499578" lon="15.6488306"><ele>91.8</ele><time>2026-05-01T08:39:20Z</time></trkpt>
<trkpt lat="82.0502274" lon="15.6514326"><ele>92.1</ele><time>2026-05-01T08:39:30Z</time></trkpt>
<trkpt lat="82.0505164" lon="15.6539233"><ele>92.3</ele><time>2026-05-01T08:39:40Z</time></trkpt>
<trkpt lat="82.0508223" lon="15.6563068"><ele>92.6</ele><time>2026-05-01T08:39:50Z</time></trkpt>
<trkpt lat="82.0511420" lon="15.6585931"><ele>92.9</ele><time>2026-05-01T08:40:00Z</time></trkpt>
</trkseg></trk></gpx>
