<?xml version="1.0" encoding="UTF-8"?>
<gpx version="1.1" creator="sobrevoo-samples" xmlns="http://www.topografix.com/GPX/1/1">
<trk><name>retorno.gpx</name><trkseg>
<trkpt lat="48.8566000" lon="2.3522000"><ele>80.6</ele><time>2026-05-01T08:00:00Z</time></trkpt>
<trkpt lat="48.8566000" lon="2.3528834"><ele>80.6</ele><time>2026-05-01T08:00:10Z</time></trkpt>
<trkpt lat="48.8566000" lon="2.3535669"><ele>80.6</ele><time>2026-05-01T08:00:20Z</time></trkpt>
<trkpt lat="48.8566000" lon="2.3542503"><ele>80.6</ele><time>2026-05-01T08:00:30Z</time></trkpt>
<trkpt lat="48.8566000" lon="2.3549337"><ele>80.6</ele><time>2026-05-01T08:00:40Z</time></trkpt>
<trkpt lat="48.8566000" lon="2.3556172"><ele>80.6</ele><time>2026-05-01T08:00:50Z</time></trkpt>
<trkpt lat="48.8566000" lon="2.3563006"><ele>80.6</ele><time>2026-05-01T08:01:00Z</time></trkpt>
<trkpt lat="48.8566000" lon="2.3569840"><ele>80.6</ele><time>2026-05-01T08:01:10Z</time></trkpt>
<trkpt lat="48.8566000" lon="2.3576675"><ele>80.6</ele><time>2026-05-01T08:01:20Z</time></trkpt>
<trkpt lat="48.8566000" lon="2.3583509"><ele>80.6</ele><time>2026-05-01T08:01:30Z</time></trkpt>
<trkpt lat="48.8566000" lon="2.3590343"><ele>80.6</ele><time>2026-05-01T08:01:40Z</time></trkpt>
<trkpt lat="48.8566000" lon="2.3597177"><ele>80.6</ele><time>2026-05-01T08:01:50Z</time></trkpt>
<trkpt lat="48.8566000" lon="2.3604012"><ele>80.6</ele><time>2026-05-01T08:02:00Z</time></trkpt>
<trkpt lat="48.8566000" lon="2.3610846"><ele>80.6</ele><time>2026-05-01T08:02:10Z</time></trkpt>
<trkpt lat="48.8566000" lon="2.3617680"><ele>80.6</ele><time>2026-05-01T08:02:20Z</time></trkpt>
<trkpt lat="48.8566000" lon="2.3624515"><ele>80.6</ele><time>2026-05-01T08:02:30Z</time></trkpt>
<trkpt lat="48.8566000" lon="2.3631349"><ele>80.6</ele><time>2026-05-01T08:02:40Z</time></trkpt>
<trkpt lat="48.8566000" lon="2.3638183"><ele>80.6</ele><time>2026-05-01T08:02:50Z</time></trkpt>
<trkpt lat="48.8566000" lon="2.3645018"><ele>80.6</ele><time>2026-05-01T08:03:00Z</time></trkpt>
<trkpt lat="48.8566000" lon="2.3651852"><ele>80.6</ele><time>2026-05-01T08:03:10Z</time></trkpt>
<trkpt lat="48.8566000" lon="2.3658686"><ele>80.6</ele><time>2026-05-01T08:03:20Z</time></trkpt>
<trkpt lat="48.8566000" lon="2.3665521"><ele>80.6</ele><time>2026-05-01T08:03:30Z</time></trkpt>
<trkpt lat="48.8566000" lon="2.3672355"><ele>80.6</ele><time>2026-05-01T08:03:40Z</time></trkpt>
<trkpt lat="48.8566000" lon="2.3679189"><ele>80.6</ele><time>2026-05-01T08:03:50Z</time></trkpt>
<trkpt lat="48.8566000" lon="2.3686024"><ele>80.6</ele><time>2026-05-01T08:04:00Z</time></trkpt>
<trkpt lat="48.8565999" lon="2.3692858"><ele>80.6</ele><time>2026-05-01T08:04:10Z</time></trkpt>
<trkpt lat="48.8565999" lon="2.3699692"><ele>80.6</ele><time>2026-05-01T08:04:20Z</time></trkpt>
<trkpt lat="48.8565999" lon="2.3706526"><ele>80.6</ele><time>2026-05-01T08:04:30Z</time></trkpt>
<trkpt lat="48.8565999" lon="2.3713361"><ele>80.6</ele><time>2026-05-01T08:04:40Z</time></trkpt>
<trkpt lat="48.8565999" lon="2.3720195"><ele>80.6</ele><time>2026-05-01T08:04:50Z</time></trkpt>
<trkpt lat="48.8565999" lon="2.3727029"><ele>80.6</ele><time>2026-05-01T08:05:00Z</time></trkpt>
<trkpt lat="48.8565999" lon="2.3733864"><ele>80.6</ele><time>2026-05-01T08:05:10Z</time></trkpt>
<trkpt lat="48.8565999" lon="2.3740698"><ele>80.6</ele><time>2026-05-01T08:05:20Z</time></trkpt>
<trkpt lat="48.8565999" lon="2.3747532"><ele>80.6</ele><time>2026-05-01T08:05:30Z</time></trkpt>
<trkpt lat="48.8565999" lon="2.3754367"><ele>80.6</ele><time>2026-05-01T08:05:40Z</time></trkpt>
<trkpt lat="48.8565999" lon="2.3761201"><ele>80.6</ele><time>2026-05-01T08:05:50Z</time></trkpt>
<trkpt lat="48.8565999" lon="2.3768035"><ele>80.6</ele><time>2026-05-01T08:06:00Z</time></trkpt>
<trkpt lat="48.8565999" lon="2.3774870"><ele>80.6</ele><time>2026-05-01T08:06:10Z</time></trkpt>
<trkpt lat="48.8565999" lon="2.3781704"><ele>80.6</ele><time>2026-05-01T08:06:20Z</time></trkpt>
<trkpt lat="48.8565999" lon="2.3788538"><ele>80.6</ele><time>2026-05-01T08:06:30Z</time></trkpt>
<trkpt lat="48.8565999" lon="2.3795373"><ele>80.6</ele><time>2026-05-01T08:06:40Z</time></trkpt>
<trkpt lat="48.8565999" lon="2.3802207"><ele>80.6</ele><time>2026-05-01T08:06:50Z</time></trkpt>
<trkpt lat="48.8565999" lon="2.3809041"><ele>80.6</ele><time>2026-05-01T08:07:00Z</time></trkpt>
<trkpt lat="48.8565999" lon="2.3815875"><ele>80.6</ele><time>2026-05-01T08:07:10Z</time></trkpt>
<trkpt lat="48.8565999" lon="2.3822710"><ele>80.6</ele><time>2026-05-01T08:07:20Z</time></trkpt>
<trkpt lat="48.8565999" lon="2.3829544"><ele>80.6</ele><time>2026-05-01T08:07:30Z</time></trkpt>
<trkpt lat="48.8565999" lon="2.3836378"><ele>80.6</ele><time>2026-05-01T08:07:40Z</time></trkpt>
<trkpt lat="48.8565999" lon="2.3843213"><ele>80.6</ele><time>2026-05-01T08:07:50Z</time></trkpt>
<trkpt lat="48.8565999" lon="2.3850047"><ele>80.6</ele><time>2026-05-01T08:08:00Z</time></trkpt>
<trkpt lat="48.8565999" lon="2.3856881"><ele>80.6</ele><time>2026-05-01T08:08:10Z</time></trkpt>
<trkpt lat="48.8565999" lon="2.3863716"><ele>80.6</ele><time>2026-05-01T08:08:20Z</time></trkpt>
<trkpt lat="48.8565999" lon="2.3870550"><ele>80.6</ele><time>2026-05-01T08:08:30Z</time></trkpt>
<trkpt lat="48.8565999" lon="2.3877384"><ele>80.6</ele><time>2026-05-01T08:08:40Z</time></trkpt>
<trkpt lat="48.8565999" lon="2.3884219"><ele>80.6</ele><time>2026-05-01T08:08:50Z</time></trkpt>
<trkpt lat="48.8565999" lon="2.3891053"><ele>80.6</ele><time>2026-05-01T08:09:00Z</time></trkpt>
<trkpt lat="48.8565999" lon="2.3897887"><ele>80.6</ele><time>2026-05-01T08:09:10Z</time></trkpt>
<trkpt lat="48.8565999" lon="2.3904722"><ele>80.6</ele><time>2026-05-01T08:09:20Z</time></trkpt>
<trkpt lat="48.8565999" lon="2.3911556"><ele>80.6</ele><time>2026-05-01T08:09:30Z</time></trkpt>
<trkpt lat="48.8565999" lon="2.3918390"><ele>80.6</ele><time>2026-05-01T08:09:40Z</time></trkpt>
<trkpt lat="48.8565999" lon="2.3925224"><ele>80.6</ele><time>2026-05-01T08:09:50Z</time></trkpt>
<trkpt lat="48.8565999" lon="2.3932059"><ele>80.6</ele><time>2026-05-01T08:10:00Z</time></trkpt>
<trkpt lat="48.8565999" lon="2.3925224"><ele>80.6</ele><time>2026-05-01T08:10:10Z</time></trkpt>
<trkpt lat="48.8565999" lon="2.3918390"><ele>80.6</ele><time>2026-05-01T08:10:20Z</time></trkpt>
<trkpt lat="48.8565999" lon="2.3911556"><ele>80.6</ele><time>2026-05-01T08:10:30Z</time></trkpt>
<trkpt lat="48.8565999" lon="2.3904722"><ele>80.6</ele><time>2026-05-01T08:10:40Z</time></trkpt>
<trkpt lat="48.8565999" lon="2.3897887"><ele>80.6</ele><time>2026-05-01T08:10:50Z</time></trkpt>
<trkpt lat="48.8565999" lon="2.3891053"><ele>80.6</ele><time>2026-05-01T08:11:00Z</time></trkpt>
<trkpt lat="48.8565999" lon="2.3884219"><ele>80.6</ele><time>2026-05-01T08:11:10Z</time></trkpt>
<trkpt lat="48.8565999" lon="2.3877384"><ele>80.6</ele><time>2026-05-01T08:11:20Z</time></trkpt>
<trkpt lat="48.8565999" lon="2.3870550"><ele>80.6</ele><time>2026-05-01T08:11:30Z</time></trkpt>
<trkpt lat="48.8565999" lon="2.3863716"><ele>80.6</ele><time>2026-05-01T08:11:40Z</time></trkpt>
<trkpt lat="48.8565999" lon="2.3856881"><ele>80.6</ele><time>2026-05-01T08:11:50Z</time></trkpt>
<trkpt lat="48.8565999" lon="2.3850047"><ele>80.6</ele><time>2026-05-01T08:12:00Z</time></trkpt>
<trkpt lat="48.8565999" lon="2.3843213"><ele>80.6</ele><time>2026-05-01T08:12:10Z</time></trkpt>
<trkpt lat="48.8565999" lon="2.3836378"><ele>80.6</ele><time>2026-05-01T08:12:20Z</time></trkpt>
<trkpt lat="48.8565998" lon="2.3829544"><ele>80.6</ele><time>2026-05-01T08:12:30Z</time></trkpt>
<trkpt lat="48.8565998" lon="2.3822710"><ele>80.6</ele><time>2026-05-01T08:12:40Z</time></trkpt>
<trkpt lat="48.8565998" lon="2.3815875"><ele>80.6</ele><time>2026-05-01T08:12:50Z</time></trkpt>
<trkpt lat="48.8565998" lon="2.3809041"><ele>80.6</ele><time>2026-05-01T08:13:00Z</time></trkpt>
<trkpt lat="48.8565998" lon="2.3802207"><ele>80.6</ele><time>2026-05-01T08:13:10Z</time></trkpt>
<trkpt lat="48.8565998" lon="2.3795373"><ele>80.6</ele><time>2026-05-01T08:13:20Z</time></trkpt>
<trkpt lat="48.8565998" lon="2.3788538"><ele>80.6</ele><time>2026-05-01T08:13:30Z</time></trkpt>
<trkpt lat="48.8565998" lon="2.3781704"><ele>80.6</ele><time>2026-05-01T08:13:40Z</time></trkpt>
<trkpt lat="48.8565998" lon="2.3774870"><ele>80.6</ele><time>2026-05-01T08:13:50Z</time></trkpt>
<trkpt lat="48.8565998" lon="2.3768035"><ele>80.6</ele><time>2026-05-01T08:14:00Z</time></trkpt>
<trkpt lat="48.8565998" lon="2.3761201"><ele>80.6</ele><time>2026-05-01T08:14:10Z</time></trkpt>
<trkpt lat="48.8565998" lon="2.3754367"><ele>80.6</ele><time>2026-05-01T08:14:20Z</time></trkpt>
<trkpt lat="48.8565998" lon="2.3747532"><ele>80.6</ele><time>2026-05-01T08:14:30Z</time></trkpt>
<trkpt lat="48.8565998" lon="2.3740698"><ele>80.6</ele><time>2026-05-01T08:14:40Z</time></trkpt>
<trkpt lat="48.8565998" lon="2.3733864"><ele>80.6</ele><time>2026-05-01T08:14:50Z</time></trkpt>
<trkpt lat="48.8565998" lon="2.3727029"><ele>80.6</ele><time>2026-05-01T08:15:00Z</time></trkpt>
<trkpt lat="48.8565998" lon="2.3720195"><ele>80.6</ele><time>2026-05-01T08:15:10Z</time></trkpt>
<trkpt lat="48.8565998" lon="2.3713361"><ele>80.6</ele><time>2026-05-01T08:15:20Z</time></trkpt>
<trkpt lat="48.8565998" lon="2.3706526"><ele>80.6</ele><time>2026-05-01T08:15:30Z</time></trkpt>
<trkpt lat="48.8565998" lon="2.3699692"><ele>80.6</ele><time>2026-05-01T08:15:40Z</time></trkpt>
<trkpt lat="48.8565998" lon="2.3692858"><ele>80.6</ele><time>2026-05-01T08:15:50Z</time></trkpt>
<trkpt lat="48.8565998" lon="2.3686024"><ele>80.6</ele><time>2026-05-01T08:16:00Z</time></trkpt>
<trkpt lat="48.8565998" lon="2.3679189"><ele>80.6</ele><time>2026-05-01T08:16:10Z</time></trkpt>
<trkpt lat="48.8565998" lon="2.3672355"><ele>80.6</ele><time>2026-05-01T08:16:20Z</time></trkpt>
<trkpt lat="48.8565998" lon="2.3665521"><ele>80.6</ele><time>2026-05-01T08:16:30Z</time></trkpt>
<trkpt lat="48.8565998" lon="2.3658686"><ele>80.6</ele><time>2026-05-01T08:16:40Z</time></trkpt>
<trkpt lat="48.8565998" lon="2.3651852"><ele>80.6</ele><time>2026-05-01T08:16:50Z</time></trkpt>
<trkpt lat="48.8565998" lon="2.3645018"><ele>80.6</ele><time>2026-05-01T08:17:00Z</time></trkpt>
<trkpt lat="48.8565998" lon="2.3638183"><ele>80.6</ele><time>2026-05-01T08:17:10Z</time></trkpt>
<trkpt lat="48.8565998" lon="2.3631349"><ele>80.6</ele><time>2026-05-01T08:17:20Z</time></trkpt>
<trkpt lat="48.8565998" lon="2.3624515"><ele>80.6</ele><time>2026-05-01T08:17:30Z</time></trkpt>
<trkpt lat="48.8565998" lon="2.3617680"><ele>80.6</ele><time>2026-05-01T08:17:40Z</time></trkpt>
<trkpt lat="48.8565998" lon="2.3610846"><ele>80.6</ele><time>2026-05-01T08:17:50Z</time></trkpt>
<trkpt lat="48.8565998" lon="2.3604012"><ele>80.6</ele><time>2026-05-01T08:18:00Z</time></trkpt>
<trkpt lat="48.8565998" lon="2.3597177"><ele>80.6</ele><time>2026-05-01T08:18:10Z</time></trkpt>
<trkpt lat="48.8565998" lon="2.3590343"><ele>80.6</ele><time>2026-05-01T08:18:20Z</time></trkpt>
<trkpt lat="48.8565998" lon="2.3583509"><ele>80.6</ele><time>2026-05-01T08:18:30Z</time></trkpt>
<trkpt lat="48.8565998" lon="2.3576675"><ele>80.6</ele><time>2026-05-01T08:18:40Z</time></trkpt>
<trkpt lat="48.8565998" lon="2.3569840"><ele>80.6</ele><time>2026-05-01T08:18:50Z</time></trkpt>
<trkpt lat="48.8565998" lon="2.3563006"><ele>80.6</ele><time>2026-05-01T08:19:00Z</time></trkpt>
<trkpt lat="48.8565998" lon="2.3556172"><ele>80.6</ele><time>2026-05-01T08:19:10Z</time></trkpt>
<trkpt lat="48.8565998" lon="2.3549337"><ele>80.6</ele><time>2026-05-01T08:19:20Z</time></trkpt>
<trkpt lat="48.8565998" lon="2.3542503"><ele>80.6</ele><time>2026-05-01T08:19:30Z</time></trkpt>
<trkpt lat="48.8565998" lon="2.3535669"><ele>80.6</ele><time>2026-05-01T08:19:40Z</time></trkpt>
<trkpt lat="48.8565998" lon="2.3528834"><ele>80.6</ele><time>2026-05-01T08:19:50Z</time></trkpt>
<trkpt lat="48.8565998" lon="2.3522000"><ele>80.6</ele><time>2026-05-01T08:20:00Z</time></trkpt>
</trkseg></trk></gpx>
