<?xml version="1.0" encoding="UTF-8"?>
<gpx version="1.1" creator="sobrevoo-samples" xmlns="http://www.topografix.com/GPX/1/1">
<trk><name>voltas.gpx</name><trkseg>
<trkpt lat="51.5074000" lon="-0.1278000"><ele>86.6</ele><time>2026-05-01T08:00:00Z</time></trkpt>
<trkpt lat="51.5074120" lon="-0.1280881"><ele>86.6</ele><time>2026-05-01T08:00:05Z</time></trkpt>
<trkpt lat="51.5074477" lon="-0.1283711"><ele>86.6</ele><time>2026-05-01T08:00:10Z</time></trkpt>
<trkpt lat="51.5075065" lon="-0.1286440"><ele>86.7</ele><time>2026-05-01T08:00:15Z</time></trkpt>
<trkpt lat="51.5075873" lon="-0.1289019"><ele>86.7</ele><time>2026-05-01T08:00:20Z</time></trkpt>
<trkpt lat="51.5076888" lon="-0.1291402"><ele>86.8</ele><time>2026-05-01T08:00:25Z</time></trkpt>
<trkpt lat="51.5078091" lon="-0.1293548"><ele>86.9</ele><time>2026-05-01T08:00:30Z</time></trkpt>
<trkpt lat="51.5079461" lon="-0.1295417"><ele>87.0</ele><time>2026-05-01T08:00:35Z</time></trkpt>
<trkpt lat="51.5080973" lon="-0.1296977"><ele>87.1</ele><time>2026-05-01T08:00:40Z</time></trkpt>
<trkpt lat="51.5082602" lon="-0.1298201"><ele>87.2</ele><time>2026-05-01T08:00:45Z</time></trkpt>
<trkpt lat="51.5084316" lon="-0.1299066"><ele>87.4</ele><time>2026-05-01T08:00:50Z</time></trkpt>
<trkpt lat="51.5086087" lon="-0.1299557"><ele>87.5</ele><time>2026-05-01T08:00:55Z</time></trkpt>
<trkpt lat="51.5087884" lon="-0.1299665"><ele>87.6</ele><time>2026-05-01T08:01:00Z</time></trkpt>
<trkpt lat="51.5089673" lon="-0.1299388"><ele>87.8</ele><time>2026-05-01T08:01:05Z</time></trkpt>
<trkpt lat="51.5091423" lon="-0.1298732"><ele>87.9</ele><time>2026-05-01T08:01:10Z</time></trkpt>
<trkpt lat="51.5093103" lon="-0.1297708"><ele>88.0</ele><time>2026-05-01T08:01:15Z</time></trkpt>
<trkpt lat="51.5094684" lon="-0.1296334"><ele>88.2</ele><time>2026-05-01T08:01:20Z</time></trkpt>
<trkpt lat="51.5096137" lon="-0.1294635"><ele>88.3</ele><time>2026-05-01T08:01:25Z</time></trkpt>
<trkpt lat="51.5097437" lon="-0.1292640"><ele>88.4</ele><time>2026-05-01T08:01:30Z</time></trkpt>
<trkpt lat="51.5098560" lon="-0.1290386"><ele>88.5</ele><time>2026-05-01T08:01:35Z</time></trkpt>
<trkpt lat="51.5099487" lon="-0.1287911"><ele>88.6</ele><time>2026-05-01T08:01:40Z</time></trkpt>
<trkpt lat="51.5100200" lon="-0.1285261"><ele>88.6</ele><time>2026-05-01T08:01:45Z</time></trkpt>
<trkpt lat="51.5100688" lon="-0.1282481"><ele>88.7</ele><time>2026-05-01T08:01:50Z</time></trkpt>
<trkpt lat="51.5100942" lon="-0.1279622"><ele>88.7</ele><time>2026-05-01T08:01:55Z</time></trkpt>
<trkpt lat="51.5100957" lon="-0.1276735"><ele>88.7</ele><time>2026-05-01T08:02:00Z</time></trkpt>
<trkpt lat="51.5100732" lon="-0.1273870"><ele>88.7</ele><time>2026-05-01T08:02:05Z</time></trkpt>
<trkpt lat="51.5100273" lon="-0.1271078"><ele>88.6</ele><time>2026-05-01T08:02:10Z</time></trkpt>
<trkpt lat="51.5099587" lon="-0.1268409"><ele>88.6</ele><time>2026-05-01T08:02:15Z</time></trkpt>
<trkpt lat="51.5098686" lon="-0.1265910"><ele>88.5</ele><time>2026-05-01T08:02:20Z</time></trkpt>
<trkpt lat="51.5097586" lon="-0.1263626"><ele>88.4</ele><time>2026-05-01T08:02:25Z</time></trkpt>
<trkpt lat="51.5096307" lon="-0.1261597"><ele>88.3</ele><time>2026-05-01T08:02:30Z</time></trkpt>
<trkpt lat="51.5094872" lon="-0.1259859"><ele>88.2</ele><time>2026-05-01T08:02:35Z</time></trkpt>
<trkpt lat="51.5093305" lon="-0.1258443"><ele>88.1</ele><time>2026-05-01T08:02:40Z</time></trkpt>
<trkpt lat="51.5091636" lon="-0.1257375"><ele>87.9</ele><time>2026-05-01T08:02:45Z</time></trkpt>
<trkpt lat="51.5089892" lon="-0.1256672"><ele>87.8</ele><time>2026-05-01T08:02:50Z</time></trkpt>
<trkpt lat="51.5088106" lon="-0.1256349"><ele>87.7</ele><time>2026-05-01T08:02:55Z</time></trkpt>
<trkpt lat="51.5086309" lon="-0.1256409"><ele>87.5</ele><time>2026-05-01T08:03:00Z</time></trkpt>
<trkpt lat="51.5084533" lon="-0.1256853"><ele>87.4</ele><time>2026-05-01T08:03:05Z</time></trkpt>
<trkpt lat="51.5082810" lon="-0.1257672"><ele>87.2</ele><time>2026-05-01T08:03:10Z</time></trkpt>
<trkpt lat="51.5081169" lon="-0.1258852"><ele>87.1</ele><time>2026-05-01T08:03:15Z</time></trkpt>
<trkpt lat="51.5079641" lon="-0.1260372"><ele>87.0</ele><time>2026-05-01T08:03:20Z</time></trkpt>
<trkpt lat="51.5078252" lon="-0.1262205"><ele>86.9</ele><time>2026-05-01T08:03:25Z</time></trkpt>
<trkpt lat="51.5077027" lon="-0.1264318"><ele>86.8</ele><time>2026-05-01T08:03:30Z</time></trkpt>
<trkpt lat="51.5075988" lon="-0.1266674"><ele>86.7</ele><time>2026-05-01T08:03:35Z</time></trkpt>
<trkpt lat="51.5075153" lon="-0.1269231"><ele>86.7</ele><time>2026-05-01T08:03:40Z</time></trkpt>
<trkpt lat="51.5074537" lon="-0.1271944"><ele>86.6</ele><time>2026-05-01T08:03:45Z</time></trkpt>
<trkpt lat="51.5074151" lon="-0.1274764"><ele>86.6</ele><time>2026-05-01T08:03:50Z</time></trkpt>
<trkpt lat="51.5074002" lon="-0.1277642"><ele>86.6</ele><time>2026-05-01T08:03:55Z</time></trkpt>
<trkpt lat="51.5074092" lon="-0.1280526"><ele>86.6</ele><time>2026-05-01T08:04:00Z</time></trkpt>
<trkpt lat="51.5074420" lon="-0.1283365"><ele>86.6</ele><time>2026-05-01T08:04:05Z</time></trkpt>
<trkpt lat="51.5074980" lon="-0.1286109"><ele>86.6</ele><time>2026-05-01T08:04:10Z</time></trkpt>
<trkpt lat="51.5075762" lon="-0.1288709"><ele>86.7</ele><time>2026-05-01T08:04:15Z</time></trkpt>
<trkpt lat="51.5076752" lon="-0.1291119"><ele>86.8</ele><time>2026-05-01T08:04:20Z</time></trkpt>
<trkpt lat="51.5077933" lon="-0.1293296"><ele>86.9</ele><time>2026-05-01T08:04:25Z</time></trkpt>
<trkpt lat="51.5079283" lon="-0.1295202"><ele>87.0</ele><time>2026-05-01T08:04:30Z</time></trkpt>
<trkpt lat="51.5080779" lon="-0.1296802"><ele>87.1</ele><time>2026-05-01T08:04:35Z</time></trkpt>
<trkpt lat="51.5082394" lon="-0.1298068"><ele>87.2</ele><time>2026-05-01T08:04:40Z</time></trkpt>
<trkpt lat="51.5084100" lon="-0.1298979"><ele>87.3</ele><time>2026-05-01T08:04:45Z</time></trkpt>
<trkpt lat="51.5085866" lon="-0.1299516"><ele>87.5</ele><time>2026-05-01T08:04:50Z</time></trkpt>
<trkpt lat="51.5087661" lon="-0.1299672"><ele>87.6</ele><time>2026-05-01T08:04:55Z</time></trkpt>
<trkpt lat="51.5089452" lon="-0.1299443"><ele>87.8</ele><time>2026-05-01T08:05:00Z</time></trkpt>
<trkpt lat="51.5091209" lon="-0.1298834"><ele>87.9</ele><time>2026-05-01T08:05:05Z</time></trkpt>
<trkpt lat="51.5092900" lon="-0.1297855"><ele>88.0</ele><time>2026-05-01T08:05:10Z</time></trkpt>
<trkpt lat="51.5094495" lon="-0.1296523"><ele>88.2</ele><time>2026-05-01T08:05:15Z</time></trkpt>
<trkpt lat="51.5095965" lon="-0.1294862"><ele>88.3</ele><time>2026-05-01T08:05:20Z</time></trkpt>
<trkpt lat="51.5097285" lon="-0.1292902"><ele>88.4</ele><time>2026-05-01T08:05:25Z</time></trkpt>
<trkpt lat="51.5098431" lon="-0.1290678"><ele>88.5</ele><time>2026-05-01T08:05:30Z</time></trkpt>
<trkpt lat="51.5099383" lon="-0.1288228"><ele>88.6</ele><time>2026-05-01T08:05:35Z</time></trkpt>
<trkpt lat="51.5100124" lon="-0.1285597"><ele>88.6</ele><time>2026-05-01T08:05:40Z</time></trkpt>
<trkpt lat="51.5100640" lon="-0.1282831"><ele>88.7</ele><time>2026-05-01T08:05:45Z</time></trkpt>
<trkpt lat="51.5100923" lon="-0.1279979"><ele>88.7</ele><time>2026-05-01T08:05:50Z</time></trkpt>
<trkpt lat="51.5100968" lon="-0.1277092"><ele>88.7</ele><time>2026-05-01T08:05:55Z</time></trkpt>
<trkpt lat="51.5100773" lon="-0.1274222"><ele>88.7</ele><time>2026-05-01T08:06:00Z</time></trkpt>
<trkpt lat="51.5100343" lon="-0.1271418"><ele>88.6</ele><time>2026-05-01T08:06:05Z</time></trkpt>
<trkpt lat="51.5099684" lon="-0.1268731"><ele>88.6</ele><time>2026-05-01T08:06:10Z</time></trkpt>
<trkpt lat="51.5098809" lon="-0.1266209"><ele>88.5</ele><time>2026-05-01T08:06:15Z</time></trkpt>
<trkpt lat="51.5097733" lon="-0.1263896"><ele>88.4</ele><time>2026-05-01T08:06:20Z</time></trkpt>
<trkpt lat="51.5096475" lon="-0.1261833"><ele>88.3</ele><time>2026-05-01T08:06:25Z</time></trkpt>
<trkpt lat="51.5095057" lon="-0.1260057"><ele>88.2</ele><time>2026-05-01T08:06:30Z</time></trkpt>
<trkpt lat="51.5093506" lon="-0.1258600"><ele>88.1</ele><time>2026-05-01T08:06:35Z</time></trkpt>
<trkpt lat="51.5091847" lon="-0.1257488"><ele>87.9</ele><time>2026-05-01T08:06:40Z</time></trkpt>
<trkpt lat="51.5090111" lon="-0.1256739"><ele>87.8</ele><time>2026-05-01T08:06:45Z</time></trkpt>
<trkpt lat="51.5088329" lon="-0.1256368"><ele>87.7</ele><time>2026-05-01T08:06:50Z</time></trkpt>
<trkpt lat="51.5086531" lon="-0.1256381"><ele>87.5</ele><time>2026-05-01T08:06:55Z</time></trkpt>
<trkpt lat="51.5084751" lon="-0.1256777"><ele>87.4</ele><time>2026-05-01T08:07:00Z</time></trkpt>
<trkpt lat="51.5083019" lon="-0.1257551"><ele>87.3</ele><time>2026-05-01T08:07:05Z</time></trkpt>
<trkpt lat="51.5081367" lon="-0.1258687"><ele>87.1</ele><time>2026-05-01T08:07:10Z</time></trkpt>
<trkpt lat="51.5079824" lon="-0.1260166"><ele>87.0</ele><time>2026-05-01T08:07:15Z</time></trkpt>
<trkpt lat="51.5078416" lon="-0.1261962"><ele>86.9</ele><time>2026-05-01T08:07:20Z</time></trkpt>
<trkpt lat="51.5077170" lon="-0.1264042"><ele>86.8</ele><time>2026-05-01T08:07:25Z</time></trkpt>
<trkpt lat="51.5076106" lon="-0.1266371"><ele>86.7</ele><time>2026-05-01T08:07:30Z</time></trkpt>
<trkpt lat="51.5075245" lon="-0.1268905"><ele>86.7</ele><time>2026-05-01T08:07:35Z</time></trkpt>
<trkpt lat="51.5074601" lon="-0.1271601"><ele>86.6</ele><time>2026-05-01T08:07:40Z</time></trkpt>
<trkpt lat="51.5074186" lon="-0.1274411"><ele>86.6</ele><time>2026-05-01T08:07:45Z</time></trkpt>
<trkpt lat="51.5074007" lon="-0.1277284"><ele>86.6</ele><time>2026-05-01T08:07:50Z</time></trkpt>
<trkpt lat="51.5074068" lon="-0.1280170"><ele>86.6</ele><time>2026-05-01T08:07:55Z</time></trkpt>
<trkpt lat="51.5074366" lon="-0.1283018"><ele>86.6</ele><time>2026-05-01T08:08:00Z</time></trkpt>
<trkpt lat="51.5074898" lon="-0.1285776"><ele>86.6</ele><time>2026-05-01T08:08:05Z</time></trkpt>
<trkpt lat="51.5075653" lon="-0.1288396"><ele>86.7</ele><time>2026-05-01T08:08:10Z</time></trkpt>
<trkpt lat="51.5076619" lon="-0.1290832"><ele>86.8</ele><time>2026-05-01T08:08:15Z</time></trkpt>
<trkpt lat="51.5077777" lon="-0.1293040"><ele>86.9</ele><time>2026-05-01T08:08:20Z</time></trkpt>
<trkpt lat="51.5079107" lon="-0.1294982"><ele>87.0</ele><time>2026-05-01T08:08:25Z</time></trkpt>
<trkpt lat="51.5080587" lon="-0.1296621"><ele>87.1</ele><time>2026-05-01T08:08:30Z</time></trkpt>
<trkpt lat="51.5082189" lon="-0.1297930"><ele>87.2</ele><time>2026-05-01T08:08:35Z</time></trkpt>
<trkpt lat="51.5083885" lon="-0.1298886"><ele>87.3</ele><time>2026-05-01T08:08:40Z</time></trkpt>
<trkpt lat="51.5085645" lon="-0.1299470"><ele>87.5</ele><time>2026-05-01T08:08:45Z</time></trkpt>
<trkpt lat="51.5087438" lon="-0.1299674"><ele>87.6</ele><time>2026-05-01T08:08:50Z</time></trkpt>
<trkpt lat="51.5089232" lon="-0.1299493"><ele>87.7</ele><time>2026-05-01T08:08:55Z</time></trkpt>
<trkpt lat="51.5090995" lon="-0.1298930"><ele>87.9</ele><time>2026-05-01T08:09:00Z</time></trkpt>
<trkpt lat="51.5092695" lon="-0.1297996"><ele>88.0</ele><time>2026-05-01T08:09:05Z</time></trkpt>
<trkpt lat="51.5094303" lon="-0.1296706"><ele>88.1</ele><time>2026-05-01T08:09:10Z</time></trkpt>
<trkpt lat="51.5095791" lon="-0.1295085"><ele>88.3</ele><time>2026-05-01T08:09:15Z</time></trkpt>
<trkpt lat="51.5097131" lon="-0.1293160"><ele>88.4</ele><time>2026-05-01T08:09:20Z</time></trkpt>
<trkpt lat="51.5098299" lon="-0.1290966"><ele>88.5</ele><time>2026-05-01T08:09:25Z</time></trkpt>
<trkpt lat="51.5099276" lon="-0.1288543"><ele>88.5</ele><time>2026-05-01T08:09:30Z</time></trkpt>
<trkpt lat="51.5100044" lon="-0.1285931"><ele>88.6</ele><time>2026-05-01T08:09:35Z</time></trkpt>
<trkpt lat="51.5100589" lon="-0.1283179"><ele>88.7</ele><time>2026-05-01T08:09:40Z</time></trkpt>
<trkpt lat="51.5100901" lon="-0.1280336"><ele>88.7</ele><time>2026-05-01T08:09:45Z</time></trkpt>
<trkpt lat="51.5100975" lon="-0.1277450"><ele>88.7</ele><time>2026-05-01T08:09:50Z</time></trkpt>
<trkpt lat="51.5100810" lon="-0.1274575"><ele>88.7</ele><time>2026-05-01T08:09:55Z</time></trkpt>
<trkpt lat="51.5100408" lon="-0.1271760"><ele>88.6</ele><time>2026-05-01T08:10:00Z</time></trkpt>
<trkpt lat="51.5099777" lon="-0.1269056"><ele>88.6</ele><time>2026-05-01T08:10:05Z</time></trkpt>
<trkpt lat="51.5098928" lon="-0.1266511"><ele>88.5</ele><time>2026-05-01T08:10:10Z</time></trkpt>
<trkpt lat="51.5097876" lon="-0.1264169"><ele>88.4</ele><time>2026-05-01T08:10:15Z</time></trkpt>
<trkpt lat="51.5096640" lon="-0.1262074"><ele>88.3</ele><time>2026-05-01T08:10:20Z</time></trkpt>
<trkpt lat="51.5095241" lon="-0.1260261"><ele>88.2</ele><time>2026-05-01T08:10:25Z</time></trkpt>
<trkpt lat="51.5093704" lon="-0.1258763"><ele>88.1</ele><time>2026-05-01T08:10:30Z</time></trkpt>
<trkpt lat="51.5092057" lon="-0.1257606"><ele>88.0</ele><time>2026-05-01T08:10:35Z</time></trkpt>
<trkpt lat="51.5090329" lon="-0.1256811"><ele>87.8</ele><time>2026-05-01T08:10:40Z</time></trkpt>
<trkpt lat="51.5088551" lon="-0.1256393"><ele>87.7</ele><time>2026-05-01T08:10:45Z</time></trkpt>
<trkpt lat="51.5086754" lon="-0.1256358"><ele>87.5</ele><time>2026-05-01T08:10:50Z</time></trkpt>
<trkpt lat="51.5084970" lon="-0.1256708"><ele>87.4</ele><time>2026-05-01T08:10:55Z</time></trkpt>
<trkpt lat="51.5083230" lon="-0.1257435"><ele>87.3</ele><time>2026-05-01T08:11:00Z</time></trkpt>
<trkpt lat="51.5081567" lon="-0.1258527"><ele>87.1</ele><time>2026-05-01T08:11:05Z</time></trkpt>
<trkpt lat="51.5080008" lon="-0.1259965"><ele>87.0</ele><time>2026-05-01T08:11:10Z</time></trkpt>
<trkpt lat="51.5078582" lon="-0.1261723"><ele>86.9</ele><time>2026-05-01T08:11:15Z</time></trkpt>
<trkpt lat="51.5077314" lon="-0.1263770"><ele>86.8</ele><time>2026-05-01T08:11:20Z</time></trkpt>
<trkpt lat="51.5076227" lon="-0.1266070"><ele>86.7</ele><time>2026-05-01T08:11:25Z</time></trkpt>
<trkpt lat="51.5075340" lon="-0.1268581"><ele>86.7</ele><time>2026-05-01T08:11:30Z</time></trkpt>
<trkpt lat="51.5074669" lon="-0.1271260"><ele>86.6</ele><time>2026-05-01T08:11:35Z</time></trkpt>
<trkpt lat="51.5074225" lon="-0.1274058"><ele>86.6</ele><time>2026-05-01T08:11:40Z</time></trkpt>
<trkpt lat="51.5074017" lon="-0.1276926"><ele>86.6</ele><time>2026-05-01T08:11:45Z</time></trkpt>
<trkpt lat="51.5074047" lon="-0.1279814"><ele>86.6</ele><time>2026-05-01T08:11:50Z</time></trkpt>
<trkpt lat="51.5074317" lon="-0.1282669"><ele>86.6</ele><time>2026-05-01T08:11:55Z</time></trkpt>
<trkpt lat="51.5074820" lon="-0.1285441"><ele>86.6</ele><time>2026-05-01T08:12:00Z</time></trkpt>
<trkpt lat="51.5075548" lon="-0.1288081"><ele>86.7</ele><time>2026-05-01T08:12:05Z</time></trkpt>
<trkpt lat="51.5076488" lon="-0.1290542"><ele>86.8</ele><time>2026-05-01T08:12:10Z</time></trkpt>
<trkpt lat="51.5077623" lon="-0.1292781"><ele>86.8</ele><time>2026-05-01T08:12:15Z</time></trkpt>
<trkpt lat="51.5078934" lon="-0.1294757"><ele>86.9</ele><time>2026-05-01T08:12:20Z</time></trkpt>
<trkpt lat="51.5080396" lon="-0.1296435"><ele>87.1</ele><time>2026-05-01T08:12:25Z</time></trkpt>
<trkpt lat="51.5081985" lon="-0.1297787"><ele>87.2</ele><time>2026-05-01T08:12:30Z</time></trkpt>
<trkpt lat="51.5083671" lon="-0.1298787"><ele>87.3</ele><time>2026-05-01T08:12:35Z</time></trkpt>
<trkpt lat="51.5085425" lon="-0.1299418"><ele>87.4</ele><time>2026-05-01T08:12:40Z</time></trkpt>
<trkpt lat="51.5087215" lon="-0.1299670"><ele>87.6</ele><time>2026-05-01T08:12:45Z</time></trkpt>
<trkpt lat="51.5089010" lon="-0.1299536"><ele>87.7</ele><time>2026-05-01T08:12:50Z</time></trkpt>
<trkpt lat="51.5090779" lon="-0.1299020"><ele>87.9</ele><time>2026-05-01T08:12:55Z</time></trkpt>
<trkpt lat="51.5092489" lon="-0.1298131"><ele>88.0</ele><time>2026-05-01T08:13:00Z</time></trkpt>
<trkpt lat="51.5094110" lon="-0.1296885"><ele>88.1</ele><time>2026-05-01T08:13:05Z</time></trkpt>
<trkpt lat="51.5095614" lon="-0.1295303"><ele>88.3</ele><time>2026-05-01T08:13:10Z</time></trkpt>
<trkpt lat="51.5096973" lon="-0.1293414"><ele>88.4</ele><time>2026-05-01T08:13:15Z</time></trkpt>
<trkpt lat="51.5098165" lon="-0.1291252"><ele>88.5</ele><time>2026-05-01T08:13:20Z</time></trkpt>
<trkpt lat="51.5099166" lon="-0.1288854"><ele>88.5</ele><time>2026-05-01T08:13:25Z</time></trkpt>
<trkpt lat="51.5099961" lon="-0.1286263"><ele>88.6</ele><time>2026-05-01T08:13:30Z</time></trkpt>
<trkpt lat="51.5100534" lon="-0.1283526"><ele>88.7</ele><time>2026-05-01T08:13:35Z</time></trkpt>
<trkpt lat="51.5100875" lon="-0.1280691"><ele>88.7</ele><time>2026-05-01T08:13:40Z</time></trkpt>
<trkpt lat="51.5100979" lon="-0.1277808"><ele>88.7</ele><time>2026-05-01T08:13:45Z</time></trkpt>
<trkpt lat="51.5100844" lon="-0.1274929"><ele>88.7</ele><time>2026-05-01T08:13:50Z</time></trkpt>
<trkpt lat="51.5100471" lon="-0.1272104"><ele>88.6</ele><time>2026-05-01T08:13:55Z</time></trkpt>
<trkpt lat="51.5099868" lon="-0.1269383"><ele>88.6</ele><time>2026-05-01T08:14:00Z</time></trkpt>
<trkpt lat="51.5099045" lon="-0.1266816"><ele>88.5</ele><time>2026-05-01T08:14:05Z</time></trkpt>
<trkpt lat="51.5098017" lon="-0.1264447"><ele>88.4</ele><time>2026-05-01T08:14:10Z</time></trkpt>
<trkpt lat="51.5096802" lon="-0.1262319"><ele>88.3</ele><time>2026-05-01T08:14:15Z</time></trkpt>
<trkpt lat="51.5095422" lon="-0.1260469"><ele>88.2</ele><time>2026-05-01T08:14:20Z</time></trkpt>
<trkpt lat="51.5093901" lon="-0.1258930"><ele>88.1</ele><time>2026-05-01T08:14:25Z</time></trkpt>
<trkpt lat="51.5092266" lon="-0.1257730"><ele>88.0</ele><time>2026-05-01T08:14:30Z</time></trkpt>
<trkpt lat="51.5090547" lon="-0.1256890"><ele>87.8</ele><time>2026-05-01T08:14:35Z</time></trkpt>
<trkpt lat="51.5088773" lon="-0.1256424"><ele>87.7</ele><time>2026-05-01T08:14:40Z</time></trkpt>
<trkpt lat="51.5086976" lon="-0.1256342"><ele>87.6</ele><time>2026-05-01T08:14:45Z</time></trkpt>
<trkpt lat="51.5085189" lon="-0.1256644"><ele>87.4</ele><time>2026-05-01T08:14:50Z</time></trkpt>
<trkpt lat="51.5083442" lon="-0.1257325"><ele>87.3</ele><time>2026-05-01T08:14:55Z</time></trkpt>
<trkpt lat="51.5081768" lon="-0.1258373"><ele>87.2</ele><time>2026-05-01T08:15:00Z</time></trkpt>
<trkpt lat="51.5080194" lon="-0.1259769"><ele>87.0</ele><time>2026-05-01T08:15:05Z</time></trkpt>
<trkpt lat="51.5078751" lon="-0.1261489"><ele>86.9</ele><time>2026-05-01T08:15:10Z</time></trkpt>
<trkpt lat="51.5077462" lon="-0.1263502"><ele>86.8</ele><time>2026-05-01T08:15:15Z</time></trkpt>
<trkpt lat="51.5076352" lon="-0.1265773"><ele>86.7</ele><time>2026-05-01T08:15:20Z</time></trkpt>
<trkpt lat="51.5075439" lon="-0.1268260"><ele>86.7</ele><time>2026-05-01T08:15:25Z</time></trkpt>
<trkpt lat="51.5074740" lon="-0.1270921"><ele>86.6</ele><time>2026-05-01T08:15:30Z</time></trkpt>
<trkpt lat="51.5074267" lon="-0.1273707"><ele>86.6</ele><time>2026-05-01T08:15:35Z</time></trkpt>
<trkpt lat="51.5074029" lon="-0.1276569"><ele>86.6</ele><time>2026-05-01T08:15:40Z</time></trkpt>
<trkpt lat="51.5074030" lon="-0.1279457"><ele>86.6</ele><time>2026-05-01T08:15:45Z</time></trkpt>
<trkpt lat="51.5074270" lon="-0.1282318"><ele>86.6</ele><time>2026-05-01T08:15:50Z</time></trkpt>
<trkpt lat="51.5074745" lon="-0.1285104"><ele>86.6</ele><time>2026-05-01T08:15:55Z</time></trkpt>
<trkpt lat="51.5075446" lon="-0.1287763"><ele>86.7</ele><time>2026-05-01T08:16:00Z</time></trkpt>
<trkpt lat="51.5076361" lon="-0.1290248"><ele>86.7</ele><time>2026-05-01T08:16:05Z</time></trkpt>
<trkpt lat="51.5077473" lon="-0.1292517"><ele>86.8</ele><time>2026-05-01T08:16:10Z</time></trkpt>
<trkpt lat="51.5078763" lon="-0.1294527"><ele>86.9</ele><time>2026-05-01T08:16:15Z</time></trkpt>
<trkpt lat="51.5080208" lon="-0.1296245"><ele>87.0</ele><time>2026-05-01T08:16:20Z</time></trkpt>
<trkpt lat="51.5081782" lon="-0.1297638"><ele>87.2</ele><time>2026-05-01T08:16:25Z</time></trkpt>
<trkpt lat="51.5083458" lon="-0.1298683"><ele>87.3</ele><time>2026-05-01T08:16:30Z</time></trkpt>
<trkpt lat="51.5085205" lon="-0.1299361"><ele>87.4</ele><time>2026-05-01T08:16:35Z</time></trkpt>
<trkpt lat="51.5086992" lon="-0.1299659"><ele>87.6</ele><time>2026-05-01T08:16:40Z</time></trkpt>
<trkpt lat="51.5088789" lon="-0.1299573"><ele>87.7</ele><time>2026-05-01T08:16:45Z</time></trkpt>
<trkpt lat="51.5090562" lon="-0.1299104"><ele>87.8</ele><time>2026-05-01T08:16:50Z</time></trkpt>
<trkpt lat="51.5092281" lon="-0.1298261"><ele>88.0</ele><time>2026-05-01T08:16:55Z</time></trkpt>
<trkpt lat="51.5093915" lon="-0.1297058"><ele>88.1</ele><time>2026-05-01T08:17:00Z</time></trkpt>
<trkpt lat="51.5095435" lon="-0.1295516"><ele>88.2</ele><time>2026-05-01T08:17:05Z</time></trkpt>
<trkpt lat="51.5096814" lon="-0.1293664"><ele>88.3</ele><time>2026-05-01T08:17:10Z</time></trkpt>
<trkpt lat="51.5098027" lon="-0.1291533"><ele>88.4</ele><time>2026-05-01T08:17:15Z</time></trkpt>
<trkpt lat="51.5099053" lon="-0.1289162"><ele>88.5</ele><time>2026-05-01T08:17:20Z</time></trkpt>
<trkpt lat="51.5099874" lon="-0.1286593"><ele>88.6</ele><time>2026-05-01T08:17:25Z</time></trkpt>
<trkpt lat="51.5100475" lon="-0.1283872"><ele>88.6</ele><time>2026-05-01T08:17:30Z</time></trkpt>
<trkpt lat="51.5100846" lon="-0.1281046"><ele>88.7</ele><time>2026-05-01T08:17:35Z</time></trkpt>
<trkpt lat="51.5100979" lon="-0.1278166"><ele>88.7</ele><time>2026-05-01T08:17:40Z</time></trkpt>
<trkpt lat="51.5100873" lon="-0.1275283"><ele>88.7</ele><time>2026-05-01T08:17:45Z</time></trkpt>
<trkpt lat="51.5100530" lon="-0.1272449"><ele>88.7</ele><time>2026-05-01T08:17:50Z</time></trkpt>
<trkpt lat="51.5099955" lon="-0.1269713"><ele>88.6</ele><time>2026-05-01T08:17:55Z</time></trkpt>
<trkpt lat="51.5099158" lon="-0.1267124"><ele>88.5</ele><time>2026-05-01T08:18:00Z</time></trkpt>
<trkpt lat="51.5098155" lon="-0.1264728"><ele>88.5</ele><time>2026-05-01T08:18:05Z</time></trkpt>
<trkpt lat="51.5096962" lon="-0.1262568"><ele>88.4</ele><time>2026-05-01T08:18:10Z</time></trkpt>
<trkpt lat="51.5095601" lon="-0.1260682"><ele>88.2</ele><time>2026-05-01T08:18:15Z</time></trkpt>
<trkpt lat="51.5094096" lon="-0.1259103"><ele>88.1</ele><time>2026-05-01T08:18:20Z</time></trkpt>
<trkpt lat="51.5092474" lon="-0.1257860"><ele>88.0</ele><time>2026-05-01T08:18:25Z</time></trkpt>
<trkpt lat="51.5090763" lon="-0.1256974"><ele>87.9</ele><time>2026-05-01T08:18:30Z</time></trkpt>
<trkpt lat="51.5088995" lon="-0.1256461"><ele>87.7</ele><time>2026-05-01T08:18:35Z</time></trkpt>
<trkpt lat="51.5087199" lon="-0.1256331"><ele>87.6</ele><time>2026-05-01T08:18:40Z</time></trkpt>
<trkpt lat="51.5085409" lon="-0.1256585"><ele>87.4</ele><time>2026-05-01T08:18:45Z</time></trkpt>
<trkpt lat="51.5083655" lon="-0.1257220"><ele>87.3</ele><time>2026-05-01T08:18:50Z</time></trkpt>
<trkpt lat="51.5081970" lon="-0.1258224"><ele>87.2</ele><time>2026-05-01T08:18:55Z</time></trkpt>
<trkpt lat="51.5080383" lon="-0.1259578"><ele>87.1</ele><time>2026-05-01T08:19:00Z</time></trkpt>
<trkpt lat="51.5078922" lon="-0.1261260"><ele>86.9</ele><time>2026-05-01T08:19:05Z</time></trkpt>
<trkpt lat="51.5077613" lon="-0.1263238"><ele>86.8</ele><time>2026-05-01T08:19:10Z</time></trkpt>
<trkpt lat="51.5076479" lon="-0.1265479"><ele>86.8</ele><time>2026-05-01T08:19:15Z</time></trkpt>
<trkpt lat="51.5075541" lon="-0.1267942"><ele>86.7</ele><time>2026-05-01T08:19:20Z</time></trkpt>
<trkpt lat="51.5074814" lon="-0.1270583"><ele>86.6</ele><time>2026-05-01T08:19:25Z</time></trkpt>
<trkpt lat="51.5074313" lon="-0.1273356"><ele>86.6</ele><time>2026-05-01T08:19:30Z</time></trkpt>
<trkpt lat="51.5074046" lon="-0.1276212"><ele>86.6</ele><time>2026-05-01T08:19:35Z</time></trkpt>
<trkpt lat="51.5074017" lon="-0.1279099"><ele>86.6</ele><time>2026-05-01T08:19:40Z</time></trkpt>
<trkpt lat="51.5074228" lon="-0.1281967"><ele>86.6</ele><time>2026-05-01T08:19:45Z</time></trkpt>
<trkpt lat="51.5074674" lon="-0.1284764"><ele>86.6</ele><time>2026-05-01T08:19:50Z</time></trkpt>
<trkpt lat="51.5075347" lon="-0.1287442"><ele>86.7</ele><time>2026-05-01T08:19:55Z</time></trkpt>
<trkpt lat="51.5076236" lon="-0.1289951"><ele>86.7</ele><time>2026-05-01T08:20:00Z</time></trkpt>
<trkpt lat="51.5077325" lon="-0.1292249"><ele>86.8</ele><time>2026-05-01T08:20:05Z</time></trkpt>
<trkpt lat="51.5078594" lon="-0.1294294"><ele>86.9</ele><time>2026-05-01T08:20:10Z</time></trkpt>
<trkpt lat="51.5080021" lon="-0.1296049"><ele>87.0</ele><time>2026-05-01T08:20:15Z</time></trkpt>
<trkpt lat="51.5081581" lon="-0.1297484"><ele>87.1</ele><time>2026-05-01T08:20:20Z</time></trkpt>
<trkpt lat="51.5083245" lon="-0.1298573"><ele>87.3</ele><time>2026-05-01T08:20:25Z</time></trkpt>
<trkpt lat="51.5084985" lon="-0.1299297"><ele>87.4</ele><time>2026-05-01T08:20:30Z</time></trkpt>
<trkpt lat="51.5086770" lon="-0.1299643"><ele>87.5</ele><time>2026-05-01T08:20:35Z</time></trkpt>
<trkpt lat="51.5088567" lon="-0.1299605"><ele>87.7</ele><time>2026-05-01T08:20:40Z</time></trkpt>
<trkpt lat="51.5090345" lon="-0.1299183"><ele>87.8</ele><time>2026-05-01T08:20:45Z</time></trkpt>
<trkpt lat="51.5092072" lon="-0.1298385"><ele>88.0</ele><time>2026-05-01T08:20:50Z</time></trkpt>
<trkpt lat="51.5093718" lon="-0.1297226"><ele>88.1</ele><time>2026-05-01T08:20:55Z</time></trkpt>
<trkpt lat="51.5095254" lon="-0.1295725"><ele>88.2</ele><time>2026-05-01T08:21:00Z</time></trkpt>
<trkpt lat="51.5096651" lon="-0.1293909"><ele>88.3</ele><time>2026-05-01T08:21:05Z</time></trkpt>
<trkpt lat="51.5097886" lon="-0.1291811"><ele>88.4</ele><time>2026-05-01T08:21:10Z</time></trkpt>
<trkpt lat="51.5098937" lon="-0.1289468"><ele>88.5</ele><time>2026-05-01T08:21:15Z</time></trkpt>
<trkpt lat="51.5099784" lon="-0.1286921"><ele>88.6</ele><time>2026-05-01T08:21:20Z</time></trkpt>
<trkpt lat="51.5100413" lon="-0.1284216"><ele>88.6</ele><time>2026-05-01T08:21:25Z</time></trkpt>
<trkpt lat="51.5100813" lon="-0.1281400"><ele>88.7</ele><time>2026-05-01T08:21:30Z</time></trkpt>
<trkpt lat="51.5100976" lon="-0.1278524"><ele>88.7</ele><time>2026-05-01T08:21:35Z</time></trkpt>
<trkpt lat="51.5100899" lon="-0.1275639"><ele>88.7</ele><time>2026-05-01T08:21:40Z</time></trkpt>
<trkpt lat="51.5100585" lon="-0.1272796"><ele>88.7</ele><time>2026-05-01T08:21:45Z</time></trkpt>
<trkpt lat="51.5100038" lon="-0.1270045"><ele>88.6</ele><time>2026-05-01T08:21:50Z</time></trkpt>
<trkpt lat="51.5099269" lon="-0.1267435"><ele>88.5</ele><time>2026-05-01T08:21:55Z</time></trkpt>
<trkpt lat="51.5098290" lon="-0.1265013"><ele>88.5</ele><time>2026-05-01T08:22:00Z</time></trkpt>
<trkpt lat="51.5097119" lon="-0.1262821"><ele>88.4</ele><time>2026-05-01T08:22:05Z</time></trkpt>
<trkpt lat="51.5095778" lon="-0.1260899"><ele>88.3</ele><time>2026-05-01T08:22:10Z</time></trkpt>
<trkpt lat="51.5094290" lon="-0.1259281"><ele>88.1</ele><time>2026-05-01T08:22:15Z</time></trkpt>
<trkpt lat="51.5092680" lon="-0.1257995"><ele>88.0</ele><time>2026-05-01T08:22:20Z</time></trkpt>
<trkpt lat="51.5090979" lon="-0.1257063"><ele>87.9</ele><time>2026-05-01T08:22:25Z</time></trkpt>
<trkpt lat="51.5089216" lon="-0.1256504"><ele>87.7</ele><time>2026-05-01T08:22:30Z</time></trkpt>
<trkpt lat="51.5087422" lon="-0.1256326"><ele>87.6</ele><time>2026-05-01T08:22:35Z</time></trkpt>
<trkpt lat="51.5085629" lon="-0.1256533"><ele>87.5</ele><time>2026-05-01T08:22:40Z</time></trkpt>
<trkpt lat="51.5083870" lon="-0.1257121"><ele>87.3</ele><time>2026-05-01T08:22:45Z</time></trkpt>
<trkpt lat="51.5082174" lon="-0.1258080"><ele>87.2</ele><time>2026-05-01T08:22:50Z</time></trkpt>
<trkpt lat="51.5080573" lon="-0.1259392"><ele>87.1</ele><time>2026-05-01T08:22:55Z</time></trkpt>
<trkpt lat="51.5079095" lon="-0.1261034"><ele>87.0</ele><time>2026-05-01T08:23:00Z</time></trkpt>
<trkpt lat="51.5077766" lon="-0.1262978"><ele>86.9</ele><time>2026-05-01T08:23:05Z</time></trkpt>
<trkpt lat="51.5076609" lon="-0.1265188"><ele>86.8</ele><time>2026-05-01T08:23:10Z</time></trkpt>
<trkpt lat="51.5075646" lon="-0.1267626"><ele>86.7</ele><time>2026-05-01T08:23:15Z</time></trkpt>
<trkpt lat="51.5074892" lon="-0.1270248"><ele>86.6</ele><time>2026-05-01T08:23:20Z</time></trkpt>
<trkpt lat="51.5074363" lon="-0.1273007"><ele>86.6</ele><time>2026-05-01T08:23:25Z</time></trkpt>
<trkpt lat="51.5074066" lon="-0.1275855"><ele>86.6</ele><time>2026-05-01T08:23:30Z</time></trkpt>
<trkpt lat="51.5074008" lon="-0.1278742"><ele>86.6</ele><time>2026-05-01T08:23:35Z</time></trkpt>
<trkpt lat="51.5074189" lon="-0.1281615"><ele>86.6</ele><time>2026-05-01T08:23:40Z</time></trkpt>
<trkpt lat="51.5074606" lon="-0.1284423"><ele>86.6</ele><time>2026-05-01T08:23:45Z</time></trkpt>
<trkpt lat="51.5075252" lon="-0.1287118"><ele>86.7</ele><time>2026-05-01T08:23:50Z</time></trkpt>
<trkpt lat="51.5076115" lon="-0.1289651"><ele>86.7</ele><time>2026-05-01T08:23:55Z</time></trkpt>
<trkpt lat="51.5077180" lon="-0.1291977"><ele>86.8</ele><time>2026-05-01T08:24:00Z</time></trkpt>
<trkpt lat="51.5078428" lon="-0.1294055"><ele>86.9</ele><time>2026-05-01T08:24:05Z</time></trkpt>
<trkpt lat="51.5079837" lon="-0.1295848"><ele>87.0</ele><time>2026-05-01T08:24:10Z</time></trkpt>
<trkpt lat="51.5081381" lon="-0.1297325"><ele>87.1</ele><time>2026-05-01T08:24:15Z</time></trkpt>
<trkpt lat="51.5083035" lon="-0.1298458"><ele>87.3</ele><time>2026-05-01T08:24:20Z</time></trkpt>
<trkpt lat="51.5084767" lon="-0.1299228"><ele>87.4</ele><time>2026-05-01T08:24:25Z</time></trkpt>
<trkpt lat="51.5086547" lon="-0.1299621"><ele>87.5</ele><time>2026-05-01T08:24:30Z</time></trkpt>
<trkpt lat="51.5088345" lon="-0.1299631"><ele>87.7</ele><time>2026-05-01T08:24:35Z</time></trkpt>
<trkpt lat="51.5090127" lon="-0.1299256"><ele>87.8</ele><time>2026-05-01T08:24:40Z</time></trkpt>
<trkpt lat="51.5091862" lon="-0.1298504"><ele>87.9</ele><time>2026-05-01T08:24:45Z</time></trkpt>
<trkpt lat="51.5093520" lon="-0.1297388"><ele>88.1</ele><time>2026-05-01T08:24:50Z</time></trkpt>
<trkpt lat="51.5095070" lon="-0.1295928"><ele>88.2</ele><time>2026-05-01T08:24:55Z</time></trkpt>
<trkpt lat="51.5096487" lon="-0.1294150"><ele>88.3</ele><time>2026-05-01T08:25:00Z</time></trkpt>
<trkpt lat="51.5097743" lon="-0.1292085"><ele>88.4</ele><time>2026-05-01T08:25:05Z</time></trkpt>
<trkpt lat="51.5098817" lon="-0.1289770"><ele>88.5</ele><time>2026-05-01T08:25:10Z</time></trkpt>
<trkpt lat="51.5099691" lon="-0.1287246"><ele>88.6</ele><time>2026-05-01T08:25:15Z</time></trkpt>
<trkpt lat="51.5100347" lon="-0.1284558"><ele>88.6</ele><time>2026-05-01T08:25:20Z</time></trkpt>
<trkpt lat="51.5100776" lon="-0.1281753"><ele>88.7</ele><time>2026-05-01T08:25:25Z</time></trkpt>
<trkpt lat="51.5100968" lon="-0.1278882"><ele>88.7</ele><time>2026-05-01T08:25:30Z</time></trkpt>
<trkpt lat="51.5100922" lon="-0.1275995"><ele>88.7</ele><time>2026-05-01T08:25:35Z</time></trkpt>
<trkpt lat="51.5100637" lon="-0.1273144"><ele>88.7</ele><time>2026-05-01T08:25:40Z</time></trkpt>
<trkpt lat="51.5100118" lon="-0.1270379"><ele>88.6</ele><time>2026-05-01T08:25:45Z</time></trkpt>
<trkpt lat="51.5099376" lon="-0.1267749"><ele>88.6</ele><time>2026-05-01T08:25:50Z</time></trkpt>
<trkpt lat="51.5098422" lon="-0.1265301"><ele>88.5</ele><time>2026-05-01T08:25:55Z</time></trkpt>
<trkpt lat="51.5097274" lon="-0.1263079"><ele>88.4</ele><time>2026-05-01T08:26:00Z</time></trkpt>
<trkpt lat="51.5095953" lon="-0.1261122"><ele>88.3</ele><time>2026-05-01T08:26:05Z</time></trkpt>
<trkpt lat="51.5094481" lon="-0.1259464"><ele>88.2</ele><time>2026-05-01T08:26:10Z</time></trkpt>
<trkpt lat="51.5092885" lon="-0.1258135"><ele>88.0</ele><time>2026-05-01T08:26:15Z</time></trkpt>
<trkpt lat="51.5091194" lon="-0.1257159"><ele>87.9</ele><time>2026-05-01T08:26:20Z</time></trkpt>
<trkpt lat="51.5089437" lon="-0.1256553"><ele>87.8</ele><time>2026-05-01T08:26:25Z</time></trkpt>
<trkpt lat="51.5087645" lon="-0.1256327"><ele>87.6</ele><time>2026-05-01T08:26:30Z</time></trkpt>
<trkpt lat="51.5085850" lon="-0.1256487"><ele>87.5</ele><time>2026-05-01T08:26:35Z</time></trkpt>
<trkpt lat="51.5084085" lon="-0.1257028"><ele>87.3</ele><time>2026-05-01T08:26:40Z</time></trkpt>
<trkpt lat="51.5082380" lon="-0.1257941"><ele>87.2</ele><time>2026-05-01T08:26:45Z</time></trkpt>
<trkpt lat="51.5080765" lon="-0.1259211"><ele>87.1</ele><time>2026-05-01T08:26:50Z</time></trkpt>
<trkpt lat="51.5079270" lon="-0.1260814"><ele>87.0</ele><time>2026-05-01T08:26:55Z</time></trkpt>
<trkpt lat="51.5077921" lon="-0.1262722"><ele>86.9</ele><time>2026-05-01T08:27:00Z</time></trkpt>
<trkpt lat="51.5076742" lon="-0.1264901"><ele>86.8</ele><time>2026-05-01T08:27:05Z</time></trkpt>
<trkpt lat="51.5075754" lon="-0.1267313"><ele>86.7</ele><time>2026-05-01T08:27:10Z</time></trkpt>
<trkpt lat="51.5074974" lon="-0.1269915"><ele>86.6</ele><time>2026-05-01T08:27:15Z</time></trkpt>
<trkpt lat="51.5074416" lon="-0.1272660"><ele>86.6</ele><time>2026-05-01T08:27:20Z</time></trkpt>
<trkpt lat="51.5074090" lon="-0.1275499"><ele>86.6</ele><time>2026-05-01T08:27:25Z</time></trkpt>
<trkpt lat="51.5074002" lon="-0.1278384"><ele>86.6</ele><time>2026-05-01T08:27:30Z</time></trkpt>
<trkpt lat="51.5074154" lon="-0.1281261"><ele>86.6</ele><time>2026-05-01T08:27:35Z</time></trkpt>
<trkpt lat="51.5074542" lon="-0.1284081"><ele>86.6</ele><time>2026-05-01T08:27:40Z</time></trkpt>
<trkpt lat="51.5075160" lon="-0.1286792"><ele>86.7</ele><time>2026-05-01T08:27:45Z</time></trkpt>
<trkpt lat="51.5075997" lon="-0.1289348"><ele>86.7</ele><time>2026-05-01T08:27:50Z</time></trkpt>
<trkpt lat="51.5077038" lon="-0.1291702"><ele>86.8</ele><time>2026-05-01T08:27:55Z</time></trkpt>
<trkpt lat="51.5078264" lon="-0.1293813"><ele>86.9</ele><time>2026-05-01T08:28:00Z</time></trkpt>
<trkpt lat="51.5079654" lon="-0.1295643"><ele>87.0</ele><time>2026-05-01T08:28:05Z</time></trkpt>
<trkpt lat="51.5081184" lon="-0.1297160"><ele>87.1</ele><time>2026-05-01T08:28:10Z</time></trkpt>
<trkpt lat="51.5082825" lon="-0.1298337"><ele>87.2</ele><time>2026-05-01T08:28:15Z</time></trkpt>
<trkpt lat="51.5084549" lon="-0.1299153"><ele>87.4</ele><time>2026-05-01T08:28:20Z</time></trkpt>
<trkpt lat="51.5086325" lon="-0.1299593"><ele>87.5</ele><time>2026-05-01T08:28:25Z</time></trkpt>
<trkpt lat="51.5088122" lon="-0.1299650"><ele>87.7</ele><time>2026-05-01T08:28:30Z</time></trkpt>
<trkpt lat="51.5089908" lon="-0.1299323"><ele>87.8</ele><time>2026-05-01T08:28:35Z</time></trkpt>
<trkpt lat="51.5091651" lon="-0.1298617"><ele>87.9</ele><time>2026-05-01T08:28:40Z</time></trkpt>
<trkpt lat="51.5093320" lon="-0.1297546"><ele>88.1</ele><time>2026-05-01T08:28:45Z</time></trkpt>
<trkpt lat="51.5094885" lon="-0.1296127"><ele>88.2</ele><time>2026-05-01T08:28:50Z</time></trkpt>
<trkpt lat="51.5096319" lon="-0.1294387"><ele>88.3</ele><time>2026-05-01T08:28:55Z</time></trkpt>
<trkpt lat="51.5097597" lon="-0.1292355"><ele>88.4</ele><time>2026-05-01T08:29:00Z</time></trkpt>
<trkpt lat="51.5098695" lon="-0.1290069"><ele>88.5</ele><time>2026-05-01T08:29:05Z</time></trkpt>
<trkpt lat="51.5099594" lon="-0.1287568"><ele>88.6</ele><time>2026-05-01T08:29:10Z</time></trkpt>
<trkpt lat="51.5100278" lon="-0.1284898"><ele>88.6</ele><time>2026-05-01T08:29:15Z</time></trkpt>
<trkpt lat="51.5100735" lon="-0.1282105"><ele>88.7</ele><time>2026-05-01T08:29:20Z</time></trkpt>
<trkpt lat="51.5100958" lon="-0.1279240"><ele>88.7</ele><time>2026-05-01T08:29:25Z</time></trkpt>
<trkpt lat="51.5100941" lon="-0.1276352"><ele>88.7</ele><time>2026-05-01T08:29:30Z</time></trkpt>
<trkpt lat="51.5100685" lon="-0.1273493"><ele>88.7</ele><time>2026-05-01T08:29:35Z</time></trkpt>
<trkpt lat="51.5100195" lon="-0.1270715"><ele>88.6</ele><time>2026-05-01T08:29:40Z</time></trkpt>
<trkpt lat="51.5099479" lon="-0.1268066"><ele>88.6</ele><time>2026-05-01T08:29:45Z</time></trkpt>
<trkpt lat="51.5098551" lon="-0.1265593"><ele>88.5</ele><time>2026-05-01T08:29:50Z</time></trkpt>
<trkpt lat="51.5097426" lon="-0.1263341"><ele>88.4</ele><time>2026-05-01T08:29:55Z</time></trkpt>
<trkpt lat="51.5096125" lon="-0.1261348"><ele>88.3</ele><time>2026-05-01T08:30:00Z</time></trkpt>
<trkpt lat="51.5094671" lon="-0.1259652"><ele>88.2</ele><time>2026-05-01T08:30:05Z</time></trkpt>
<trkpt lat="51.5093089" lon="-0.1258281"><ele>88.0</ele><time>2026-05-01T08:30:10Z</time></trkpt>
<trkpt lat="51.5091408" lon="-0.1257260"><ele>87.9</ele><time>2026-05-01T08:30:15Z</time></trkpt>
<trkpt lat="51.5089657" lon="-0.1256607"><ele>87.8</ele><time>2026-05-01T08:30:20Z</time></trkpt>
<trkpt lat="51.5087868" lon="-0.1256334"><ele>87.6</ele><time>2026-05-01T08:30:25Z</time></trkpt>
<trkpt lat="51.5086072" lon="-0.1256446"><ele>87.5</ele><time>2026-05-01T08:30:30Z</time></trkpt>
<trkpt lat="51.5084301" lon="-0.1256940"><ele>87.4</ele><time>2026-05-01T08:30:35Z</time></trkpt>
<trkpt lat="51.5082587" lon="-0.1257808"><ele>87.2</ele><time>2026-05-01T08:30:40Z</time></trkpt>
<trkpt lat="51.5080959" lon="-0.1259035"><ele>87.1</ele><time>2026-05-01T08:30:45Z</time></trkpt>
<trkpt lat="51.5079448" lon="-0.1260598"><ele>87.0</ele><time>2026-05-01T08:30:50Z</time></trkpt>
<trkpt lat="51.5078080" lon="-0.1262470"><ele>86.9</ele><time>2026-05-01T08:30:55Z</time></trkpt>
<trkpt lat="51.5076878" lon="-0.1264618"><ele>86.8</ele><time>2026-05-01T08:31:00Z</time></trkpt>
<trkpt lat="51.5075865" lon="-0.1267003"><ele>86.7</ele><time>2026-05-01T08:31:05Z</time></trkpt>
<trkpt lat="51.5075059" lon="-0.1269584"><ele>86.7</ele><time>2026-05-01T08:31:10Z</time></trkpt>
<trkpt lat="51.5074473" lon="-0.1272313"><ele>86.6</ele><time>2026-05-01T08:31:15Z</time></trkpt>
<trkpt lat="51.5074118" lon="-0.1275144"><ele>86.6</ele><time>2026-05-01T08:31:20Z</time></trkpt>
</trkseg></trk></gpx>
